Address,Date time,Minimum Temperature,Maximum Temperature,Temperature,Dew Point,Relative Humidity,Heat Index,Wind Speed,Wind Gust,Wind Direction,Wind Chill,Precipitation,Precipitation Cover,Snow Depth,Visibility,Cloud Cover,Sea Level Pressure,Weather Type,Latitude,Longitude,Resolved Address,Name,Info,Conditions
quan 1 ho chi minh,1/3/2024 17:00,32.0,32.0,32.0,20.0,49.13,34.1,20.5,,180.0,,0.0,,,10.0,50.0,1009.0,,10.781,106.699,"Quận 1, Hồ Chí Minh, Việt Nam","Quận 1, Hồ Chí Minh, Việt Nam",,Partially cloudy
quan 1 ho chi minh,1/3/2024 18:00,31.0,31.0,31.0,21.0,55.31,33.6,11.2,,170.0,,0.0,,,10.0,50.0,1010.0,,10.781,106.699,"Quận 1, Hồ Chí Minh, Việt Nam","Quận 1, Hồ Chí Minh, Việt Nam",,Partially cloudy
quan 1 ho chi minh,1/3/2024 19:00,31.0,31.0,31.0,19.0,48.87,32.3,16.6,,150.0,,0.0,,,10.0,50.0,1010.0,,10.781,106.699,"Quận 1, Hồ Chí Minh, Việt Nam","Quận 1, Hồ Chí Minh, Việt Nam",,Partially cloudy
quan 1 ho chi minh,1/3/2024 20:00,30.0,30.0,30.0,19.0,51.75,31.3,20.5,,140.0,,0.0,,,10.0,50.0,1011.0,,10.781,106.699,"Quận 1, Hồ Chí Minh, Việt Nam","Quận 1, Hồ Chí Minh, Việt Nam",,Partially cloudy
quan 1 ho chi minh,1/3/2024 21:00,29.0,29.0,29.0,20.0,58.34,30.7,18.4,,140.0,,0.0,,,10.0,50.0,1012.0,,10.781,106.699,"Quận 1, Hồ Chí Minh, Việt Nam","Quận 1, Hồ Chí Minh, Việt Nam",,Partially cloudy
quan 1 ho chi minh,1/3/2024 22:00,28.0,28.0,28.0,21.0,65.76,30.0,20.5,,140.0,,0.0,,,10.0,25.0,1012.0,,10.781,106.699,"Quận 1, Hồ Chí Minh, Việt Nam","Quận 1, Hồ Chí Minh, Việt Nam",,Clear
quan 1 ho chi minh,1/3/2024 23:00,28.0,28.0,28.0,21.0,65.76,30.0,13.0,,130.0,,0.0,,,10.0,25.0,1012.0,,10.781,106.699,"Quận 1, Hồ Chí Minh, Việt Nam","Quận 1, Hồ Chí Minh, Việt Nam",,Clear
quan 1 ho chi minh,2/3/2024 0:00,28.0,28.0,28.0,21.0,65.76,30.0,13.0,,120.0,,0.0,,,10.0,25.0,1011.0,,10.781,106.699,"Quận 1, Hồ Chí Minh, Việt Nam","Quận 1, Hồ Chí Minh, Việt Nam",,Clear
quan 1 ho chi minh,2/3/2024 1:00,28.0,28.0,28.0,21.0,65.76,30.0,13.0,,130.0,,0.0,,,10.0,25.0,1011.0,,10.781,106.699,"Quận 1, Hồ Chí Minh, Việt Nam","Quận 1, Hồ Chí Minh, Việt Nam",,Clear
quan 1 ho chi minh,2/3/2024 2:00,27.0,27.0,27.0,21.0,69.73,28.7,7.6,,120.0,,0.0,,,10.0,25.0,1011.0,,10.781,106.699,"Quận 1, Hồ Chí Minh, Việt Nam","Quận 1, Hồ Chí Minh, Việt Nam",,Clear
quan 1 ho chi minh,2/3/2024 3:00,27.0,27.0,27.0,22.0,74.13,29.1,9.4,,100.0,,0.0,,,10.0,50.0,1011.0,,10.781,106.699,"Quận 1, Hồ Chí Minh, Việt Nam","Quận 1, Hồ Chí Minh, Việt Nam",,Partially cloudy
quan 1 ho chi minh,2/3/2024 4:00,26.0,26.0,26.0,22.0,78.63,,5.4,,90.0,,0.0,,,10.0,50.0,1010.0,,10.781,106.699,"Quận 1, Hồ Chí Minh, Việt Nam","Quận 1, Hồ Chí Minh, Việt Nam",,Partially cloudy
quan 1 ho chi minh,2/3/2024 5:00,26.0,26.0,26.0,22.0,78.63,,7.6,,90.0,,0.0,,,10.0,50.0,1010.0,,10.781,106.699,"Quận 1, Hồ Chí Minh, Việt Nam","Quận 1, Hồ Chí Minh, Việt Nam",,Partially cloudy
quan 1 ho chi minh,2/3/2024 6:00,26.0,26.0,26.0,22.0,78.63,,9.4,,80.0,,0.0,,,10.0,25.0,1011.0,,10.781,106.699,"Quận 1, Hồ Chí Minh, Việt Nam","Quận 1, Hồ Chí Minh, Việt Nam",,Clear
quan 1 ho chi minh,2/3/2024 7:00,27.0,27.0,27.0,22.0,74.13,29.1,5.4,,,,0.0,,,10.0,,1012.0,,10.781,106.699,"Quận 1, Hồ Chí Minh, Việt Nam","Quận 1, Hồ Chí Minh, Việt Nam",,Clear
quan 1 ho chi minh,2/3/2024 8:00,29.0,29.0,29.0,22.0,65.97,31.9,1.8,,,,0.0,,,9.0,,1013.0,,10.781,106.699,"Quận 1, Hồ Chí Minh, Việt Nam","Quận 1, Hồ Chí Minh, Việt Nam",,Clear
quan 1 ho chi minh,2/3/2024 9:00,31.0,31.0,31.0,21.0,55.31,33.6,7.6,,130.0,,0.0,,,10.0,,1014.0,,10.781,106.699,"Quận 1, Hồ Chí Minh, Việt Nam","Quận 1, Hồ Chí Minh, Việt Nam",,Clear
quan 1 ho chi minh,2/3/2024 10:00,31.0,31.0,31.0,19.0,48.87,32.3,5.4,,,,0.0,,,10.0,,1014.0,,10.781,106.699,"Quận 1, Hồ Chí Minh, Việt Nam","Quận 1, Hồ Chí Minh, Việt Nam",,Clear
quan 1 ho chi minh,2/3/2024 11:00,33.0,33.0,33.0,19.0,43.63,34.5,9.4,,,,0.0,,,10.0,,1013.0,,10.781,106.699,"Quận 1, Hồ Chí Minh, Việt Nam","Quận 1, Hồ Chí Minh, Việt Nam",,Clear
quan 1 ho chi minh,2/3/2024 12:00,34.0,34.0,34.0,19.0,41.25,35.7,3.6,,110.0,,0.0,,,10.0,25.0,1012.0,,10.781,106.699,"Quận 1, Hồ Chí Minh, Việt Nam","Quận 1, Hồ Chí Minh, Việt Nam",,Clear
quan 1 ho chi minh,2/3/2024 13:00,34.0,34.0,34.0,20.0,43.9,36.4,9.4,,230.0,,0.0,,,10.0,50.0,1011.0,,10.781,106.699,"Quận 1, Hồ Chí Minh, Việt Nam","Quận 1, Hồ Chí Minh, Việt Nam",,Partially cloudy
quan 1 ho chi minh,2/3/2024 14:00,35.0,35.0,35.0,20.0,41.52,37.6,5.4,,,,0.0,,,10.0,50.0,1010.0,,10.781,106.699,"Quận 1, Hồ Chí Minh, Việt Nam","Quận 1, Hồ Chí Minh, Việt Nam",,Partially cloudy
quan 1 ho chi minh,2/3/2024 15:00,36.0,36.0,36.0,20.0,39.29,38.8,7.6,,180.0,,0.0,,,10.0,50.0,1009.0,,10.781,106.699,"Quận 1, Hồ Chí Minh, Việt Nam","Quận 1, Hồ Chí Minh, Việt Nam",,Partially cloudy
quan 1 ho chi minh,2/3/2024 16:00,34.0,34.0,34.0,22.0,49.64,38.2,20.5,,190.0,,0.0,,,10.0,88.0,1009.0,,10.781,106.699,"Quận 1, Hồ Chí Minh, Việt Nam","Quận 1, Hồ Chí Minh, Việt Nam",,Overcast
quan 1 ho chi minh,2/3/2024 17:00,32.0,32.0,32.0,22.0,55.55,35.7,16.6,,180.0,,0.0,,,10.0,50.0,1009.0,,10.781,106.699,"Quận 1, Hồ Chí Minh, Việt Nam","Quận 1, Hồ Chí Minh, Việt Nam",,Partially cloudy
quan 1 ho chi minh,2/3/2024 18:00,31.0,31.0,31.0,22.0,58.8,34.4,16.6,,180.0,,0.0,,,10.0,25.0,1010.0,,10.781,106.699,"Quận 1, Hồ Chí Minh, Việt Nam","Quận 1, Hồ Chí Minh, Việt Nam",,Clear
quan 1 ho chi minh,2/3/2024 19:00,30.0,30.0,30.0,21.0,58.57,32.5,16.6,,140.0,,0.0,,,10.0,25.0,1010.0,,10.781,106.699,"Quận 1, Hồ Chí Minh, Việt Nam","Quận 1, Hồ Chí Minh, Việt Nam",,Clear
quan 1 ho chi minh,2/3/2024 20:00,29.0,29.0,29.0,21.0,62.05,31.3,16.6,,140.0,,0.0,,,10.0,,1011.0,,10.781,106.699,"Quận 1, Hồ Chí Minh, Việt Nam","Quận 1, Hồ Chí Minh, Việt Nam",,Clear
quan 1 ho chi minh,2/3/2024 21:00,28.0,28.0,28.0,21.0,65.76,30.0,18.4,,130.0,,0.0,,,10.0,,1011.0,,10.781,106.699,"Quận 1, Hồ Chí Minh, Việt Nam","Quận 1, Hồ Chí Minh, Việt Nam",,Clear
quan 1 ho chi minh,2/3/2024 22:00,28.0,28.0,28.0,21.0,65.76,30.0,14.8,,110.0,,0.0,,,10.0,,1012.0,,10.781,106.699,"Quận 1, Hồ Chí Minh, Việt Nam","Quận 1, Hồ Chí Minh, Việt Nam",,Clear
quan 1 ho chi minh,2/3/2024 23:00,28.0,28.0,28.0,21.0,65.76,30.0,7.6,,110.0,,0.0,,,10.0,,1012.0,,10.781,106.699,"Quận 1, Hồ Chí Minh, Việt Nam","Quận 1, Hồ Chí Minh, Việt Nam",,Clear
quan 1 ho chi minh,3/3/2024 0:00,28.0,28.0,28.0,21.0,65.76,30.0,7.6,,130.0,,0.0,,,10.0,25.0,1012.0,,10.781,106.699,"Quận 1, Hồ Chí Minh, Việt Nam","Quận 1, Hồ Chí Minh, Việt Nam",,Clear
quan 1 ho chi minh,3/3/2024 1:00,28.0,28.0,28.0,21.0,65.76,30.0,9.4,,110.0,,0.0,,,10.0,25.0,1011.0,,10.781,106.699,"Quận 1, Hồ Chí Minh, Việt Nam","Quận 1, Hồ Chí Minh, Việt Nam",,Clear
quan 1 ho chi minh,3/3/2024 2:00,27.0,27.0,27.0,21.0,69.73,28.7,7.6,,140.0,,0.0,,,10.0,25.0,1011.0,,10.781,106.699,"Quận 1, Hồ Chí Minh, Việt Nam","Quận 1, Hồ Chí Minh, Việt Nam",,Clear
quan 1 ho chi minh,3/3/2024 3:00,27.0,27.0,27.0,21.0,69.73,28.7,5.4,,,,0.0,,,10.0,25.0,1011.0,,10.781,106.699,"Quận 1, Hồ Chí Minh, Việt Nam","Quận 1, Hồ Chí Minh, Việt Nam",,Clear
quan 1 ho chi minh,3/3/2024 4:00,26.0,26.0,26.0,21.0,73.96,,11.2,,100.0,,0.0,,,10.0,25.0,1011.0,,10.781,106.699,"Quận 1, Hồ Chí Minh, Việt Nam","Quận 1, Hồ Chí Minh, Việt Nam",,Clear
quan 1 ho chi minh,3/3/2024 5:00,26.0,26.0,26.0,21.0,73.96,,7.6,,110.0,,0.0,,,10.0,25.0,1011.0,,10.781,106.699,"Quận 1, Hồ Chí Minh, Việt Nam","Quận 1, Hồ Chí Minh, Việt Nam",,Clear
quan 1 ho chi minh,3/3/2024 6:00,25.0,25.0,25.0,22.0,83.45,,9.4,,80.0,,0.0,,,10.0,25.0,1012.0,,10.781,106.699,"Quận 1, Hồ Chí Minh, Việt Nam","Quận 1, Hồ Chí Minh, Việt Nam",,Clear
quan 1 ho chi minh,3/3/2024 7:00,27.0,27.0,27.0,22.0,74.13,29.1,3.6,,,,0.0,,,10.0,25.0,1013.0,,10.781,106.699,"Quận 1, Hồ Chí Minh, Việt Nam","Quận 1, Hồ Chí Minh, Việt Nam",,Clear
quan 1 ho chi minh,3/3/2024 8:00,29.0,29.0,29.0,21.0,62.05,31.3,5.4,,,,0.0,,,10.0,,1013.0,,10.781,106.699,"Quận 1, Hồ Chí Minh, Việt Nam","Quận 1, Hồ Chí Minh, Việt Nam",,Clear
quan 1 ho chi minh,3/3/2024 9:00,30.0,30.0,30.0,20.0,55.07,31.8,7.6,,120.0,,0.0,,,10.0,,1013.0,,10.781,106.699,"Quận 1, Hồ Chí Minh, Việt Nam","Quận 1, Hồ Chí Minh, Việt Nam",,Clear
quan 1 ho chi minh,3/3/2024 10:00,31.0,31.0,31.0,20.0,52.0,32.9,3.6,,,,0.0,,,10.0,25.0,1013.0,,10.781,106.699,"Quận 1, Hồ Chí Minh, Việt Nam","Quận 1, Hồ Chí Minh, Việt Nam",,Clear
quan 1 ho chi minh,3/3/2024 11:00,32.0,32.0,32.0,20.0,49.13,34.1,3.6,,,,0.0,,,10.0,25.0,1012.0,,10.781,106.699,"Quận 1, Hồ Chí Minh, Việt Nam","Quận 1, Hồ Chí Minh, Việt Nam",,Clear
quan 1 ho chi minh,3/3/2024 12:00,34.0,34.0,34.0,20.0,43.9,36.4,3.6,,,,0.0,,,10.0,50.0,1011.0,,10.781,106.699,"Quận 1, Hồ Chí Minh, Việt Nam","Quận 1, Hồ Chí Minh, Việt Nam",,Partially cloudy
quan 1 ho chi minh,3/3/2024 13:00,34.0,34.0,34.0,20.0,43.9,36.4,7.6,,40.0,,0.0,,,9.0,50.0,1010.0,,10.781,106.699,"Quận 1, Hồ Chí Minh, Việt Nam","Quận 1, Hồ Chí Minh, Việt Nam",,Partially cloudy
quan 1 ho chi minh,3/3/2024 14:00,34.0,34.0,34.0,20.0,43.9,36.4,7.6,,200.0,,0.0,,,9.0,50.0,1009.0,,10.781,106.699,"Quận 1, Hồ Chí Minh, Việt Nam","Quận 1, Hồ Chí Minh, Việt Nam",,Partially cloudy
quan 1 ho chi minh,3/3/2024 15:00,34.0,34.0,34.0,20.0,43.9,36.4,3.6,,,,0.0,,,10.0,50.0,1008.0,,10.781,106.699,"Quận 1, Hồ Chí Minh, Việt Nam","Quận 1, Hồ Chí Minh, Việt Nam",,Partially cloudy
quan 2 ho chi minh,1/3/2024 17:00,32.0,32.0,32.0,20.0,49.13,34.1,20.5,,180.0,,0.0,,,10.0,50.0,1009.0,,10.7527,106.731,"Đường 2, 72909 Hồ Chí Minh, Việt Nam","Đường 2, 72909 Hồ Chí Minh, Việt Nam",,Partially cloudy
quan 2 ho chi minh,1/3/2024 18:00,31.0,31.0,31.0,21.0,55.31,33.6,11.2,,170.0,,0.0,,,10.0,50.0,1010.0,,10.7527,106.731,"Đường 2, 72909 Hồ Chí Minh, Việt Nam","Đường 2, 72909 Hồ Chí Minh, Việt Nam",,Partially cloudy
quan 2 ho chi minh,1/3/2024 19:00,31.0,31.0,31.0,19.0,48.87,32.3,16.6,,150.0,,0.0,,,10.0,50.0,1010.0,,10.7527,106.731,"Đường 2, 72909 Hồ Chí Minh, Việt Nam","Đường 2, 72909 Hồ Chí Minh, Việt Nam",,Partially cloudy
quan 2 ho chi minh,1/3/2024 20:00,30.0,30.0,30.0,19.0,51.75,31.3,20.5,,140.0,,0.0,,,10.0,50.0,1011.0,,10.7527,106.731,"Đường 2, 72909 Hồ Chí Minh, Việt Nam","Đường 2, 72909 Hồ Chí Minh, Việt Nam",,Partially cloudy
quan 2 ho chi minh,1/3/2024 21:00,29.0,29.0,29.0,20.0,58.34,30.7,18.4,,140.0,,0.0,,,10.0,50.0,1012.0,,10.7527,106.731,"Đường 2, 72909 Hồ Chí Minh, Việt Nam","Đường 2, 72909 Hồ Chí Minh, Việt Nam",,Partially cloudy
quan 2 ho chi minh,1/3/2024 22:00,28.0,28.0,28.0,21.0,65.76,30.0,20.5,,140.0,,0.0,,,10.0,25.0,1012.0,,10.7527,106.731,"Đường 2, 72909 Hồ Chí Minh, Việt Nam","Đường 2, 72909 Hồ Chí Minh, Việt Nam",,Clear
quan 2 ho chi minh,1/3/2024 23:00,28.0,28.0,28.0,21.0,65.76,30.0,13.0,,130.0,,0.0,,,10.0,25.0,1012.0,,10.7527,106.731,"Đường 2, 72909 Hồ Chí Minh, Việt Nam","Đường 2, 72909 Hồ Chí Minh, Việt Nam",,Clear
quan 2 ho chi minh,2/3/2024 0:00,28.0,28.0,28.0,21.0,65.76,30.0,13.0,,120.0,,0.0,,,10.0,25.0,1011.0,,10.7527,106.731,"Đường 2, 72909 Hồ Chí Minh, Việt Nam","Đường 2, 72909 Hồ Chí Minh, Việt Nam",,Clear
quan 2 ho chi minh,2/3/2024 1:00,28.0,28.0,28.0,21.0,65.76,30.0,13.0,,130.0,,0.0,,,10.0,25.0,1011.0,,10.7527,106.731,"Đường 2, 72909 Hồ Chí Minh, Việt Nam","Đường 2, 72909 Hồ Chí Minh, Việt Nam",,Clear
quan 2 ho chi minh,2/3/2024 2:00,27.0,27.0,27.0,21.0,69.73,28.7,7.6,,120.0,,0.0,,,10.0,25.0,1011.0,,10.7527,106.731,"Đường 2, 72909 Hồ Chí Minh, Việt Nam","Đường 2, 72909 Hồ Chí Minh, Việt Nam",,Clear
quan 2 ho chi minh,2/3/2024 3:00,27.0,27.0,27.0,22.0,74.13,29.1,9.4,,100.0,,0.0,,,10.0,50.0,1011.0,,10.7527,106.731,"Đường 2, 72909 Hồ Chí Minh, Việt Nam","Đường 2, 72909 Hồ Chí Minh, Việt Nam",,Partially cloudy
quan 2 ho chi minh,2/3/2024 4:00,26.0,26.0,26.0,22.0,78.63,,5.4,,90.0,,0.0,,,10.0,50.0,1010.0,,10.7527,106.731,"Đường 2, 72909 Hồ Chí Minh, Việt Nam","Đường 2, 72909 Hồ Chí Minh, Việt Nam",,Partially cloudy
quan 2 ho chi minh,2/3/2024 5:00,26.0,26.0,26.0,22.0,78.63,,7.6,,90.0,,0.0,,,10.0,50.0,1010.0,,10.7527,106.731,"Đường 2, 72909 Hồ Chí Minh, Việt Nam","Đường 2, 72909 Hồ Chí Minh, Việt Nam",,Partially cloudy
quan 2 ho chi minh,2/3/2024 6:00,26.0,26.0,26.0,22.0,78.63,,9.4,,80.0,,0.0,,,10.0,25.0,1011.0,,10.7527,106.731,"Đường 2, 72909 Hồ Chí Minh, Việt Nam","Đường 2, 72909 Hồ Chí Minh, Việt Nam",,Clear
quan 2 ho chi minh,2/3/2024 7:00,27.0,27.0,27.0,22.0,74.13,29.1,5.4,,,,0.0,,,10.0,,1012.0,,10.7527,106.731,"Đường 2, 72909 Hồ Chí Minh, Việt Nam","Đường 2, 72909 Hồ Chí Minh, Việt Nam",,Clear
quan 2 ho chi minh,2/3/2024 8:00,29.0,29.0,29.0,22.0,65.97,31.9,1.8,,,,0.0,,,9.0,,1013.0,,10.7527,106.731,"Đường 2, 72909 Hồ Chí Minh, Việt Nam","Đường 2, 72909 Hồ Chí Minh, Việt Nam",,Clear
quan 2 ho chi minh,2/3/2024 9:00,31.0,31.0,31.0,21.0,55.31,33.6,7.6,,130.0,,0.0,,,10.0,,1014.0,,10.7527,106.731,"Đường 2, 72909 Hồ Chí Minh, Việt Nam","Đường 2, 72909 Hồ Chí Minh, Việt Nam",,Clear
quan 2 ho chi minh,2/3/2024 10:00,31.0,31.0,31.0,19.0,48.87,32.3,5.4,,,,0.0,,,10.0,,1014.0,,10.7527,106.731,"Đường 2, 72909 Hồ Chí Minh, Việt Nam","Đường 2, 72909 Hồ Chí Minh, Việt Nam",,Clear
quan 2 ho chi minh,2/3/2024 11:00,33.0,33.0,33.0,19.0,43.63,34.5,9.4,,,,0.0,,,10.0,,1013.0,,10.7527,106.731,"Đường 2, 72909 Hồ Chí Minh, Việt Nam","Đường 2, 72909 Hồ Chí Minh, Việt Nam",,Clear
quan 2 ho chi minh,2/3/2024 12:00,34.0,34.0,34.0,19.0,41.25,35.7,3.6,,110.0,,0.0,,,10.0,25.0,1012.0,,10.7527,106.731,"Đường 2, 72909 Hồ Chí Minh, Việt Nam","Đường 2, 72909 Hồ Chí Minh, Việt Nam",,Clear
quan 2 ho chi minh,2/3/2024 13:00,34.0,34.0,34.0,20.0,43.9,36.4,9.4,,230.0,,0.0,,,10.0,50.0,1011.0,,10.7527,106.731,"Đường 2, 72909 Hồ Chí Minh, Việt Nam","Đường 2, 72909 Hồ Chí Minh, Việt Nam",,Partially cloudy
quan 2 ho chi minh,2/3/2024 14:00,35.0,35.0,35.0,20.0,41.52,37.6,5.4,,,,0.0,,,10.0,50.0,1010.0,,10.7527,106.731,"Đường 2, 72909 Hồ Chí Minh, Việt Nam","Đường 2, 72909 Hồ Chí Minh, Việt Nam",,Partially cloudy
quan 2 ho chi minh,2/3/2024 15:00,36.0,36.0,36.0,20.0,39.29,38.8,7.6,,180.0,,0.0,,,10.0,50.0,1009.0,,10.7527,106.731,"Đường 2, 72909 Hồ Chí Minh, Việt Nam","Đường 2, 72909 Hồ Chí Minh, Việt Nam",,Partially cloudy
quan 2 ho chi minh,2/3/2024 16:00,34.0,34.0,34.0,22.0,49.64,38.2,20.5,,190.0,,0.0,,,10.0,88.0,1009.0,,10.7527,106.731,"Đường 2, 72909 Hồ Chí Minh, Việt Nam","Đường 2, 72909 Hồ Chí Minh, Việt Nam",,Overcast
quan 2 ho chi minh,2/3/2024 17:00,32.0,32.0,32.0,22.0,55.55,35.7,16.6,,180.0,,0.0,,,10.0,50.0,1009.0,,10.7527,106.731,"Đường 2, 72909 Hồ Chí Minh, Việt Nam","Đường 2, 72909 Hồ Chí Minh, Việt Nam",,Partially cloudy
quan 2 ho chi minh,2/3/2024 18:00,31.0,31.0,31.0,22.0,58.8,34.4,16.6,,180.0,,0.0,,,10.0,25.0,1010.0,,10.7527,106.731,"Đường 2, 72909 Hồ Chí Minh, Việt Nam","Đường 2, 72909 Hồ Chí Minh, Việt Nam",,Clear
quan 2 ho chi minh,2/3/2024 19:00,30.0,30.0,30.0,21.0,58.57,32.5,16.6,,140.0,,0.0,,,10.0,25.0,1010.0,,10.7527,106.731,"Đường 2, 72909 Hồ Chí Minh, Việt Nam","Đường 2, 72909 Hồ Chí Minh, Việt Nam",,Clear
quan 2 ho chi minh,2/3/2024 20:00,29.0,29.0,29.0,21.0,62.05,31.3,16.6,,140.0,,0.0,,,10.0,,1011.0,,10.7527,106.731,"Đường 2, 72909 Hồ Chí Minh, Việt Nam","Đường 2, 72909 Hồ Chí Minh, Việt Nam",,Clear
quan 2 ho chi minh,2/3/2024 21:00,28.0,28.0,28.0,21.0,65.76,30.0,18.4,,130.0,,0.0,,,10.0,,1011.0,,10.7527,106.731,"Đường 2, 72909 Hồ Chí Minh, Việt Nam","Đường 2, 72909 Hồ Chí Minh, Việt Nam",,Clear
quan 2 ho chi minh,2/3/2024 22:00,28.0,28.0,28.0,21.0,65.76,30.0,14.8,,110.0,,0.0,,,10.0,,1012.0,,10.7527,106.731,"Đường 2, 72909 Hồ Chí Minh, Việt Nam","Đường 2, 72909 Hồ Chí Minh, Việt Nam",,Clear
quan 2 ho chi minh,2/3/2024 23:00,28.0,28.0,28.0,21.0,65.76,30.0,7.6,,110.0,,0.0,,,10.0,,1012.0,,10.7527,106.731,"Đường 2, 72909 Hồ Chí Minh, Việt Nam","Đường 2, 72909 Hồ Chí Minh, Việt Nam",,Clear
quan 2 ho chi minh,3/3/2024 0:00,28.0,28.0,28.0,21.0,65.76,30.0,7.6,,130.0,,0.0,,,10.0,25.0,1012.0,,10.7527,106.731,"Đường 2, 72909 Hồ Chí Minh, Việt Nam","Đường 2, 72909 Hồ Chí Minh, Việt Nam",,Clear
quan 2 ho chi minh,3/3/2024 1:00,28.0,28.0,28.0,21.0,65.76,30.0,9.4,,110.0,,0.0,,,10.0,25.0,1011.0,,10.7527,106.731,"Đường 2, 72909 Hồ Chí Minh, Việt Nam","Đường 2, 72909 Hồ Chí Minh, Việt Nam",,Clear
quan 2 ho chi minh,3/3/2024 2:00,27.0,27.0,27.0,21.0,69.73,28.7,7.6,,140.0,,0.0,,,10.0,25.0,1011.0,,10.7527,106.731,"Đường 2, 72909 Hồ Chí Minh, Việt Nam","Đường 2, 72909 Hồ Chí Minh, Việt Nam",,Clear
quan 2 ho chi minh,3/3/2024 3:00,27.0,27.0,27.0,21.0,69.73,28.7,5.4,,,,0.0,,,10.0,25.0,1011.0,,10.7527,106.731,"Đường 2, 72909 Hồ Chí Minh, Việt Nam","Đường 2, 72909 Hồ Chí Minh, Việt Nam",,Clear
quan 2 ho chi minh,3/3/2024 4:00,26.0,26.0,26.0,21.0,73.96,,11.2,,100.0,,0.0,,,10.0,25.0,1011.0,,10.7527,106.731,"Đường 2, 72909 Hồ Chí Minh, Việt Nam","Đường 2, 72909 Hồ Chí Minh, Việt Nam",,Clear
quan 2 ho chi minh,3/3/2024 5:00,26.0,26.0,26.0,21.0,73.96,,7.6,,110.0,,0.0,,,10.0,25.0,1011.0,,10.7527,106.731,"Đường 2, 72909 Hồ Chí Minh, Việt Nam","Đường 2, 72909 Hồ Chí Minh, Việt Nam",,Clear
quan 2 ho chi minh,3/3/2024 6:00,25.0,25.0,25.0,22.0,83.45,,9.4,,80.0,,0.0,,,10.0,25.0,1012.0,,10.7527,106.731,"Đường 2, 72909 Hồ Chí Minh, Việt Nam","Đường 2, 72909 Hồ Chí Minh, Việt Nam",,Clear
quan 2 ho chi minh,3/3/2024 7:00,27.0,27.0,27.0,22.0,74.13,29.1,3.6,,,,0.0,,,10.0,25.0,1013.0,,10.7527,106.731,"Đường 2, 72909 Hồ Chí Minh, Việt Nam","Đường 2, 72909 Hồ Chí Minh, Việt Nam",,Clear
quan 2 ho chi minh,3/3/2024 8:00,29.0,29.0,29.0,21.0,62.05,31.3,5.4,,,,0.0,,,10.0,,1013.0,,10.7527,106.731,"Đường 2, 72909 Hồ Chí Minh, Việt Nam","Đường 2, 72909 Hồ Chí Minh, Việt Nam",,Clear
quan 2 ho chi minh,3/3/2024 9:00,30.0,30.0,30.0,20.0,55.07,31.8,7.6,,120.0,,0.0,,,10.0,,1013.0,,10.7527,106.731,"Đường 2, 72909 Hồ Chí Minh, Việt Nam","Đường 2, 72909 Hồ Chí Minh, Việt Nam",,Clear
quan 2 ho chi minh,3/3/2024 10:00,31.0,31.0,31.0,20.0,52.0,32.9,3.6,,,,0.0,,,10.0,25.0,1013.0,,10.7527,106.731,"Đường 2, 72909 Hồ Chí Minh, Việt Nam","Đường 2, 72909 Hồ Chí Minh, Việt Nam",,Clear
quan 2 ho chi minh,3/3/2024 11:00,32.0,32.0,32.0,20.0,49.13,34.1,3.6,,,,0.0,,,10.0,25.0,1012.0,,10.7527,106.731,"Đường 2, 72909 Hồ Chí Minh, Việt Nam","Đường 2, 72909 Hồ Chí Minh, Việt Nam",,Clear
quan 2 ho chi minh,3/3/2024 12:00,34.0,34.0,34.0,20.0,43.9,36.4,3.6,,,,0.0,,,10.0,50.0,1011.0,,10.7527,106.731,"Đường 2, 72909 Hồ Chí Minh, Việt Nam","Đường 2, 72909 Hồ Chí Minh, Việt Nam",,Partially cloudy
quan 2 ho chi minh,3/3/2024 13:00,34.0,34.0,34.0,20.0,43.9,36.4,7.6,,40.0,,0.0,,,9.0,50.0,1010.0,,10.7527,106.731,"Đường 2, 72909 Hồ Chí Minh, Việt Nam","Đường 2, 72909 Hồ Chí Minh, Việt Nam",,Partially cloudy
quan 2 ho chi minh,3/3/2024 14:00,34.0,34.0,34.0,20.0,43.9,36.4,7.6,,200.0,,0.0,,,9.0,50.0,1009.0,,10.7527,106.731,"Đường 2, 72909 Hồ Chí Minh, Việt Nam","Đường 2, 72909 Hồ Chí Minh, Việt Nam",,Partially cloudy
quan 2 ho chi minh,3/3/2024 15:00,34.0,34.0,34.0,20.0,43.9,36.4,3.6,,,,0.0,,,10.0,50.0,1008.0,,10.7527,106.731,"Đường 2, 72909 Hồ Chí Minh, Việt Nam","Đường 2, 72909 Hồ Chí Minh, Việt Nam",,Partially cloudy
quan 3 ho chi minh,1/3/2024 17:00,32.0,32.0,32.0,20.0,49.13,34.1,20.5,,180.0,,0.0,,,10.0,50.0,1009.0,,10.7751,106.687,"Quận 3, Hồ Chí Minh, Việt Nam","Quận 3, Hồ Chí Minh, Việt Nam",,Partially cloudy
quan 3 ho chi minh,1/3/2024 18:00,31.0,31.0,31.0,21.0,55.31,33.6,11.2,,170.0,,0.0,,,10.0,50.0,1010.0,,10.7751,106.687,"Quận 3, Hồ Chí Minh, Việt Nam","Quận 3, Hồ Chí Minh, Việt Nam",,Partially cloudy
quan 3 ho chi minh,1/3/2024 19:00,31.0,31.0,31.0,19.0,48.87,32.3,16.6,,150.0,,0.0,,,10.0,50.0,1010.0,,10.7751,106.687,"Quận 3, Hồ Chí Minh, Việt Nam","Quận 3, Hồ Chí Minh, Việt Nam",,Partially cloudy
quan 3 ho chi minh,1/3/2024 20:00,30.0,30.0,30.0,19.0,51.75,31.3,20.5,,140.0,,0.0,,,10.0,50.0,1011.0,,10.7751,106.687,"Quận 3, Hồ Chí Minh, Việt Nam","Quận 3, Hồ Chí Minh, Việt Nam",,Partially cloudy
quan 3 ho chi minh,1/3/2024 21:00,29.0,29.0,29.0,20.0,58.34,30.7,18.4,,140.0,,0.0,,,10.0,50.0,1012.0,,10.7751,106.687,"Quận 3, Hồ Chí Minh, Việt Nam","Quận 3, Hồ Chí Minh, Việt Nam",,Partially cloudy
quan 3 ho chi minh,1/3/2024 22:00,28.0,28.0,28.0,21.0,65.76,30.0,20.5,,140.0,,0.0,,,10.0,25.0,1012.0,,10.7751,106.687,"Quận 3, Hồ Chí Minh, Việt Nam","Quận 3, Hồ Chí Minh, Việt Nam",,Clear
quan 3 ho chi minh,1/3/2024 23:00,28.0,28.0,28.0,21.0,65.76,30.0,13.0,,130.0,,0.0,,,10.0,25.0,1012.0,,10.7751,106.687,"Quận 3, Hồ Chí Minh, Việt Nam","Quận 3, Hồ Chí Minh, Việt Nam",,Clear
quan 3 ho chi minh,2/3/2024 0:00,28.0,28.0,28.0,21.0,65.76,30.0,13.0,,120.0,,0.0,,,10.0,25.0,1011.0,,10.7751,106.687,"Quận 3, Hồ Chí Minh, Việt Nam","Quận 3, Hồ Chí Minh, Việt Nam",,Clear
quan 3 ho chi minh,2/3/2024 1:00,28.0,28.0,28.0,21.0,65.76,30.0,13.0,,130.0,,0.0,,,10.0,25.0,1011.0,,10.7751,106.687,"Quận 3, Hồ Chí Minh, Việt Nam","Quận 3, Hồ Chí Minh, Việt Nam",,Clear
quan 3 ho chi minh,2/3/2024 2:00,27.0,27.0,27.0,21.0,69.73,28.7,7.6,,120.0,,0.0,,,10.0,25.0,1011.0,,10.7751,106.687,"Quận 3, Hồ Chí Minh, Việt Nam","Quận 3, Hồ Chí Minh, Việt Nam",,Clear
quan 3 ho chi minh,2/3/2024 3:00,27.0,27.0,27.0,22.0,74.13,29.1,9.4,,100.0,,0.0,,,10.0,50.0,1011.0,,10.7751,106.687,"Quận 3, Hồ Chí Minh, Việt Nam","Quận 3, Hồ Chí Minh, Việt Nam",,Partially cloudy
quan 3 ho chi minh,2/3/2024 4:00,26.0,26.0,26.0,22.0,78.63,,5.4,,90.0,,0.0,,,10.0,50.0,1010.0,,10.7751,106.687,"Quận 3, Hồ Chí Minh, Việt Nam","Quận 3, Hồ Chí Minh, Việt Nam",,Partially cloudy
quan 3 ho chi minh,2/3/2024 5:00,26.0,26.0,26.0,22.0,78.63,,7.6,,90.0,,0.0,,,10.0,50.0,1010.0,,10.7751,106.687,"Quận 3, Hồ Chí Minh, Việt Nam","Quận 3, Hồ Chí Minh, Việt Nam",,Partially cloudy
quan 3 ho chi minh,2/3/2024 6:00,26.0,26.0,26.0,22.0,78.63,,9.4,,80.0,,0.0,,,10.0,25.0,1011.0,,10.7751,106.687,"Quận 3, Hồ Chí Minh, Việt Nam","Quận 3, Hồ Chí Minh, Việt Nam",,Clear
quan 3 ho chi minh,2/3/2024 7:00,27.0,27.0,27.0,22.0,74.13,29.1,5.4,,,,0.0,,,10.0,,1012.0,,10.7751,106.687,"Quận 3, Hồ Chí Minh, Việt Nam","Quận 3, Hồ Chí Minh, Việt Nam",,Clear
quan 3 ho chi minh,2/3/2024 8:00,29.0,29.0,29.0,22.0,65.97,31.9,1.8,,,,0.0,,,9.0,,1013.0,,10.7751,106.687,"Quận 3, Hồ Chí Minh, Việt Nam","Quận 3, Hồ Chí Minh, Việt Nam",,Clear
quan 3 ho chi minh,2/3/2024 9:00,31.0,31.0,31.0,21.0,55.31,33.6,7.6,,130.0,,0.0,,,10.0,,1014.0,,10.7751,106.687,"Quận 3, Hồ Chí Minh, Việt Nam","Quận 3, Hồ Chí Minh, Việt Nam",,Clear
quan 3 ho chi minh,2/3/2024 10:00,31.0,31.0,31.0,19.0,48.87,32.3,5.4,,,,0.0,,,10.0,,1014.0,,10.7751,106.687,"Quận 3, Hồ Chí Minh, Việt Nam","Quận 3, Hồ Chí Minh, Việt Nam",,Clear
quan 3 ho chi minh,2/3/2024 11:00,33.0,33.0,33.0,19.0,43.63,34.5,9.4,,,,0.0,,,10.0,,1013.0,,10.7751,106.687,"Quận 3, Hồ Chí Minh, Việt Nam","Quận 3, Hồ Chí Minh, Việt Nam",,Clear
quan 3 ho chi minh,2/3/2024 12:00,34.0,34.0,34.0,19.0,41.25,35.7,3.6,,110.0,,0.0,,,10.0,25.0,1012.0,,10.7751,106.687,"Quận 3, Hồ Chí Minh, Việt Nam","Quận 3, Hồ Chí Minh, Việt Nam",,Clear
quan 3 ho chi minh,2/3/2024 13:00,34.0,34.0,34.0,20.0,43.9,36.4,9.4,,230.0,,0.0,,,10.0,50.0,1011.0,,10.7751,106.687,"Quận 3, Hồ Chí Minh, Việt Nam","Quận 3, Hồ Chí Minh, Việt Nam",,Partially cloudy
quan 3 ho chi minh,2/3/2024 14:00,35.0,35.0,35.0,20.0,41.52,37.6,5.4,,,,0.0,,,10.0,50.0,1010.0,,10.7751,106.687,"Quận 3, Hồ Chí Minh, Việt Nam","Quận 3, Hồ Chí Minh, Việt Nam",,Partially cloudy
quan 3 ho chi minh,2/3/2024 15:00,36.0,36.0,36.0,20.0,39.29,38.8,7.6,,180.0,,0.0,,,10.0,50.0,1009.0,,10.7751,106.687,"Quận 3, Hồ Chí Minh, Việt Nam","Quận 3, Hồ Chí Minh, Việt Nam",,Partially cloudy
quan 3 ho chi minh,2/3/2024 16:00,34.0,34.0,34.0,22.0,49.64,38.2,20.5,,190.0,,0.0,,,10.0,88.0,1009.0,,10.7751,106.687,"Quận 3, Hồ Chí Minh, Việt Nam","Quận 3, Hồ Chí Minh, Việt Nam",,Overcast
quan 3 ho chi minh,2/3/2024 17:00,32.0,32.0,32.0,22.0,55.55,35.7,16.6,,180.0,,0.0,,,10.0,50.0,1009.0,,10.7751,106.687,"Quận 3, Hồ Chí Minh, Việt Nam","Quận 3, Hồ Chí Minh, Việt Nam",,Partially cloudy
quan 3 ho chi minh,2/3/2024 18:00,31.0,31.0,31.0,22.0,58.8,34.4,16.6,,180.0,,0.0,,,10.0,25.0,1010.0,,10.7751,106.687,"Quận 3, Hồ Chí Minh, Việt Nam","Quận 3, Hồ Chí Minh, Việt Nam",,Clear
quan 3 ho chi minh,2/3/2024 19:00,30.0,30.0,30.0,21.0,58.57,32.5,16.6,,140.0,,0.0,,,10.0,25.0,1010.0,,10.7751,106.687,"Quận 3, Hồ Chí Minh, Việt Nam","Quận 3, Hồ Chí Minh, Việt Nam",,Clear
quan 3 ho chi minh,2/3/2024 20:00,29.0,29.0,29.0,21.0,62.05,31.3,16.6,,140.0,,0.0,,,10.0,,1011.0,,10.7751,106.687,"Quận 3, Hồ Chí Minh, Việt Nam","Quận 3, Hồ Chí Minh, Việt Nam",,Clear
quan 3 ho chi minh,2/3/2024 21:00,28.0,28.0,28.0,21.0,65.76,30.0,18.4,,130.0,,0.0,,,10.0,,1011.0,,10.7751,106.687,"Quận 3, Hồ Chí Minh, Việt Nam","Quận 3, Hồ Chí Minh, Việt Nam",,Clear
quan 3 ho chi minh,2/3/2024 22:00,28.0,28.0,28.0,21.0,65.76,30.0,14.8,,110.0,,0.0,,,10.0,,1012.0,,10.7751,106.687,"Quận 3, Hồ Chí Minh, Việt Nam","Quận 3, Hồ Chí Minh, Việt Nam",,Clear
quan 3 ho chi minh,2/3/2024 23:00,28.0,28.0,28.0,21.0,65.76,30.0,7.6,,110.0,,0.0,,,10.0,,1012.0,,10.7751,106.687,"Quận 3, Hồ Chí Minh, Việt Nam","Quận 3, Hồ Chí Minh, Việt Nam",,Clear
quan 3 ho chi minh,3/3/2024 0:00,28.0,28.0,28.0,21.0,65.76,30.0,7.6,,130.0,,0.0,,,10.0,25.0,1012.0,,10.7751,106.687,"Quận 3, Hồ Chí Minh, Việt Nam","Quận 3, Hồ Chí Minh, Việt Nam",,Clear
quan 3 ho chi minh,3/3/2024 1:00,28.0,28.0,28.0,21.0,65.76,30.0,9.4,,110.0,,0.0,,,10.0,25.0,1011.0,,10.7751,106.687,"Quận 3, Hồ Chí Minh, Việt Nam","Quận 3, Hồ Chí Minh, Việt Nam",,Clear
quan 3 ho chi minh,3/3/2024 2:00,27.0,27.0,27.0,21.0,69.73,28.7,7.6,,140.0,,0.0,,,10.0,25.0,1011.0,,10.7751,106.687,"Quận 3, Hồ Chí Minh, Việt Nam","Quận 3, Hồ Chí Minh, Việt Nam",,Clear
quan 3 ho chi minh,3/3/2024 3:00,27.0,27.0,27.0,21.0,69.73,28.7,5.4,,,,0.0,,,10.0,25.0,1011.0,,10.7751,106.687,"Quận 3, Hồ Chí Minh, Việt Nam","Quận 3, Hồ Chí Minh, Việt Nam",,Clear
quan 3 ho chi minh,3/3/2024 4:00,26.0,26.0,26.0,21.0,73.96,,11.2,,100.0,,0.0,,,10.0,25.0,1011.0,,10.7751,106.687,"Quận 3, Hồ Chí Minh, Việt Nam","Quận 3, Hồ Chí Minh, Việt Nam",,Clear
quan 3 ho chi minh,3/3/2024 5:00,26.0,26.0,26.0,21.0,73.96,,7.6,,110.0,,0.0,,,10.0,25.0,1011.0,,10.7751,106.687,"Quận 3, Hồ Chí Minh, Việt Nam","Quận 3, Hồ Chí Minh, Việt Nam",,Clear
quan 3 ho chi minh,3/3/2024 6:00,25.0,25.0,25.0,22.0,83.45,,9.4,,80.0,,0.0,,,10.0,25.0,1012.0,,10.7751,106.687,"Quận 3, Hồ Chí Minh, Việt Nam","Quận 3, Hồ Chí Minh, Việt Nam",,Clear
quan 3 ho chi minh,3/3/2024 7:00,27.0,27.0,27.0,22.0,74.13,29.1,3.6,,,,0.0,,,10.0,25.0,1013.0,,10.7751,106.687,"Quận 3, Hồ Chí Minh, Việt Nam","Quận 3, Hồ Chí Minh, Việt Nam",,Clear
quan 3 ho chi minh,3/3/2024 8:00,29.0,29.0,29.0,21.0,62.05,31.3,5.4,,,,0.0,,,10.0,,1013.0,,10.7751,106.687,"Quận 3, Hồ Chí Minh, Việt Nam","Quận 3, Hồ Chí Minh, Việt Nam",,Clear
quan 3 ho chi minh,3/3/2024 9:00,30.0,30.0,30.0,20.0,55.07,31.8,7.6,,120.0,,0.0,,,10.0,,1013.0,,10.7751,106.687,"Quận 3, Hồ Chí Minh, Việt Nam","Quận 3, Hồ Chí Minh, Việt Nam",,Clear
quan 3 ho chi minh,3/3/2024 10:00,31.0,31.0,31.0,20.0,52.0,32.9,3.6,,,,0.0,,,10.0,25.0,1013.0,,10.7751,106.687,"Quận 3, Hồ Chí Minh, Việt Nam","Quận 3, Hồ Chí Minh, Việt Nam",,Clear
quan 3 ho chi minh,3/3/2024 11:00,32.0,32.0,32.0,20.0,49.13,34.1,3.6,,,,0.0,,,10.0,25.0,1012.0,,10.7751,106.687,"Quận 3, Hồ Chí Minh, Việt Nam","Quận 3, Hồ Chí Minh, Việt Nam",,Clear
quan 3 ho chi minh,3/3/2024 12:00,34.0,34.0,34.0,20.0,43.9,36.4,3.6,,,,0.0,,,10.0,50.0,1011.0,,10.7751,106.687,"Quận 3, Hồ Chí Minh, Việt Nam","Quận 3, Hồ Chí Minh, Việt Nam",,Partially cloudy
quan 3 ho chi minh,3/3/2024 13:00,34.0,34.0,34.0,20.0,43.9,36.4,7.6,,40.0,,0.0,,,9.0,50.0,1010.0,,10.7751,106.687,"Quận 3, Hồ Chí Minh, Việt Nam","Quận 3, Hồ Chí Minh, Việt Nam",,Partially cloudy
quan 3 ho chi minh,3/3/2024 14:00,34.0,34.0,34.0,20.0,43.9,36.4,7.6,,200.0,,0.0,,,9.0,50.0,1009.0,,10.7751,106.687,"Quận 3, Hồ Chí Minh, Việt Nam","Quận 3, Hồ Chí Minh, Việt Nam",,Partially cloudy
quan 3 ho chi minh,3/3/2024 15:00,34.0,34.0,34.0,20.0,43.9,36.4,3.6,,,,0.0,,,10.0,50.0,1008.0,,10.7751,106.687,"Quận 3, Hồ Chí Minh, Việt Nam","Quận 3, Hồ Chí Minh, Việt Nam",,Partially cloudy
quan 4 ho chi minh,1/3/2024 17:00,9.9,9.9,9.9,4.0,66.41,,5.5,,360.0,9.5,0.0,,,10.0,87.1,1011.0,,45.7792,4.92174,"4 Rue Hô Chi Minh, 69120 Vaulx-en-Velin, France","4 Rue Hô Chi Minh, 69120 Vaulx-en-Velin, France",,Overcast
quan 4 ho chi minh,1/3/2024 18:00,10.5,10.5,10.5,3.9,63.66,,5.1,,290.0,,0.0,,,10.0,88.0,1010.0,,45.7792,4.92174,"4 Rue Hô Chi Minh, 69120 Vaulx-en-Velin, France","4 Rue Hô Chi Minh, 69120 Vaulx-en-Velin, France",,Overcast
quan 4 ho chi minh,1/3/2024 19:00,10.7,10.7,10.7,3.9,62.59,,8.0,,129.0,,0.0,,,10.0,88.0,1009.2,,45.7792,4.92174,"4 Rue Hô Chi Minh, 69120 Vaulx-en-Velin, France","4 Rue Hô Chi Minh, 69120 Vaulx-en-Velin, France",,Overcast
quan 4 ho chi minh,1/3/2024 20:00,11.7,11.7,11.7,2.3,52.57,,5.3,,92.0,,0.0,,,10.0,30.2,1009.0,,45.7792,4.92174,"4 Rue Hô Chi Minh, 69120 Vaulx-en-Velin, France","4 Rue Hô Chi Minh, 69120 Vaulx-en-Velin, France",,Partially cloudy
quan 4 ho chi minh,1/3/2024 21:00,11.7,11.7,11.7,3.5,56.91,,8.2,,73.0,,0.0,,,10.0,26.9,1008.0,,45.7792,4.92174,"4 Rue Hô Chi Minh, 69120 Vaulx-en-Velin, France","4 Rue Hô Chi Minh, 69120 Vaulx-en-Velin, France",,Partially cloudy
quan 4 ho chi minh,1/3/2024 22:00,12.7,12.7,12.7,2.7,50.46,,9.9,,107.0,,0.0,,,10.0,50.0,1008.0,,45.7792,4.92174,"4 Rue Hô Chi Minh, 69120 Vaulx-en-Velin, France","4 Rue Hô Chi Minh, 69120 Vaulx-en-Velin, France",,Partially cloudy
quan 4 ho chi minh,1/3/2024 23:00,12.7,12.7,12.7,1.9,47.8,,10.8,,121.0,,0.0,,,10.0,50.0,1007.0,,45.7792,4.92174,"4 Rue Hô Chi Minh, 69120 Vaulx-en-Velin, France","4 Rue Hô Chi Minh, 69120 Vaulx-en-Velin, France",,Partially cloudy
quan 4 ho chi minh,2/3/2024 0:00,11.9,11.9,11.9,2.1,51.15,,12.9,,121.0,,0.0,,,10.0,25.0,1007.0,,45.7792,4.92174,"4 Rue Hô Chi Minh, 69120 Vaulx-en-Velin, France","4 Rue Hô Chi Minh, 69120 Vaulx-en-Velin, France",,Clear
quan 4 ho chi minh,2/3/2024 1:00,9.9,9.9,9.9,1.9,57.75,,11.6,,113.0,8.2,0.0,,,10.0,50.0,1007.0,,45.7792,4.92174,"4 Rue Hô Chi Minh, 69120 Vaulx-en-Velin, France","4 Rue Hô Chi Minh, 69120 Vaulx-en-Velin, France",,Partially cloudy
quan 4 ho chi minh,2/3/2024 2:00,8.9,8.9,8.9,1.7,60.88,,10.6,,155.0,7.2,0.0,,,10.0,100.0,1006.8,,45.7792,4.92174,"4 Rue Hô Chi Minh, 69120 Vaulx-en-Velin, France","4 Rue Hô Chi Minh, 69120 Vaulx-en-Velin, France",,Overcast
quan 4 ho chi minh,2/3/2024 3:00,8.1,8.1,8.1,1.7,64.08,,9.5,,155.0,6.5,0.0,,,10.0,25.0,1006.8,,45.7792,4.92174,"4 Rue Hô Chi Minh, 69120 Vaulx-en-Velin, France","4 Rue Hô Chi Minh, 69120 Vaulx-en-Velin, France",,Clear
quan 4 ho chi minh,2/3/2024 4:00,8.1,8.1,8.1,1.7,64.24,,12.3,,157.0,5.9,0.0,,,10.0,,1006.8,,45.7792,4.92174,"4 Rue Hô Chi Minh, 69120 Vaulx-en-Velin, France","4 Rue Hô Chi Minh, 69120 Vaulx-en-Velin, France",,Clear
quan 4 ho chi minh,2/3/2024 5:00,8.1,8.1,8.1,1.7,64.24,,14.8,,174.0,5.6,0.0,,,10.0,25.0,1006.8,,45.7792,4.92174,"4 Rue Hô Chi Minh, 69120 Vaulx-en-Velin, France","4 Rue Hô Chi Minh, 69120 Vaulx-en-Velin, France",,Clear
quan 4 ho chi minh,2/3/2024 6:00,7.9,7.9,7.9,1.7,65.14,,20.9,,172.0,4.6,0.0,,,10.0,,1006.0,,45.7792,4.92174,"4 Rue Hô Chi Minh, 69120 Vaulx-en-Velin, France","4 Rue Hô Chi Minh, 69120 Vaulx-en-Velin, France",,Clear
quan 4 ho chi minh,2/3/2024 7:00,7.9,7.9,7.9,1.7,65.14,,16.5,,159.0,5.1,0.0,,,10.0,88.0,1006.0,,45.7792,4.92174,"4 Rue Hô Chi Minh, 69120 Vaulx-en-Velin, France","4 Rue Hô Chi Minh, 69120 Vaulx-en-Velin, France",,Overcast
quan 4 ho chi minh,2/3/2024 8:00,7.9,7.9,7.9,1.0,61.59,,18.3,,159.0,4.9,0.0,,,10.0,88.0,1006.0,,45.7792,4.92174,"4 Rue Hô Chi Minh, 69120 Vaulx-en-Velin, France","4 Rue Hô Chi Minh, 69120 Vaulx-en-Velin, France",,Overcast
quan 4 ho chi minh,2/3/2024 9:00,8.1,8.1,8.1,2.0,65.25,,24.7,,161.0,4.5,0.0,,,10.0,88.0,1006.0,,45.7792,4.92174,"4 Rue Hô Chi Minh, 69120 Vaulx-en-Velin, France","4 Rue Hô Chi Minh, 69120 Vaulx-en-Velin, France",,Overcast
quan 4 ho chi minh,2/3/2024 10:00,8.1,8.1,8.1,2.0,65.14,,21.4,,167.0,4.9,0.0,,,10.0,100.0,1005.0,,45.7792,4.92174,"4 Rue Hô Chi Minh, 69120 Vaulx-en-Velin, France","4 Rue Hô Chi Minh, 69120 Vaulx-en-Velin, France",,Overcast
quan 4 ho chi minh,2/3/2024 11:00,8.9,8.9,8.9,2.9,66.22,,21.8,,169.0,5.8,0.0,,,10.0,100.0,1005.0,,45.7792,4.92174,"4 Rue Hô Chi Minh, 69120 Vaulx-en-Velin, France","4 Rue Hô Chi Minh, 69120 Vaulx-en-Velin, France",,Overcast
quan 4 ho chi minh,2/3/2024 12:00,8.9,8.9,8.9,2.9,66.22,,26.0,,159.0,5.5,0.0,,,10.0,100.0,1004.2,,45.7792,4.92174,"4 Rue Hô Chi Minh, 69120 Vaulx-en-Velin, France","4 Rue Hô Chi Minh, 69120 Vaulx-en-Velin, France",,Overcast
quan 4 ho chi minh,2/3/2024 13:00,8.9,8.9,8.9,2.9,66.11,,23.3,,163.0,5.7,0.0,,,10.0,100.0,1004.0,,45.7792,4.92174,"4 Rue Hô Chi Minh, 69120 Vaulx-en-Velin, France","4 Rue Hô Chi Minh, 69120 Vaulx-en-Velin, France",,Overcast
quan 4 ho chi minh,2/3/2024 14:00,8.9,8.9,8.9,3.9,70.94,,19.8,,161.0,6.0,0.0,,,10.0,100.0,1004.0,,45.7792,4.92174,"4 Rue Hô Chi Minh, 69120 Vaulx-en-Velin, France","4 Rue Hô Chi Minh, 69120 Vaulx-en-Velin, France",,Overcast
quan 4 ho chi minh,2/3/2024 15:00,9.9,9.9,9.9,3.9,66.27,,21.1,,174.0,7.2,0.0,,,10.0,,1004.0,,45.7792,4.92174,"4 Rue Hô Chi Minh, 69120 Vaulx-en-Velin, France","4 Rue Hô Chi Minh, 69120 Vaulx-en-Velin, France",,Clear
quan 4 ho chi minh,2/3/2024 16:00,10.0,10.0,10.0,3.9,66.17,,21.3,,154.0,7.2,0.0,,,10.0,,1003.2,,45.7792,4.92174,"4 Rue Hô Chi Minh, 69120 Vaulx-en-Velin, France","4 Rue Hô Chi Minh, 69120 Vaulx-en-Velin, France",,Clear
quan 4 ho chi minh,2/3/2024 17:00,10.9,10.9,10.9,4.9,66.28,,22.3,,170.0,,0.0,,,10.0,,1003.0,,45.7792,4.92174,"4 Rue Hô Chi Minh, 69120 Vaulx-en-Velin, France","4 Rue Hô Chi Minh, 69120 Vaulx-en-Velin, France",,Clear
quan 4 ho chi minh,2/3/2024 18:00,12.7,12.7,12.7,5.7,62.27,,19.4,,155.0,,0.0,,,10.0,,1002.0,,45.7792,4.92174,"4 Rue Hô Chi Minh, 69120 Vaulx-en-Velin, France","4 Rue Hô Chi Minh, 69120 Vaulx-en-Velin, France",,Clear
quan 4 ho chi minh,2/3/2024 19:00,14.0,14.0,14.0,4.0,50.88,,32.5,,173.0,,0.0,,,10.0,88.0,1000.2,,45.7792,4.92174,"4 Rue Hô Chi Minh, 69120 Vaulx-en-Velin, France","4 Rue Hô Chi Minh, 69120 Vaulx-en-Velin, France",,Overcast
quan 4 ho chi minh,2/3/2024 20:00,14.7,14.7,14.7,3.9,48.48,,28.6,49.1,169.0,,0.0,,,10.0,88.0,1000.0,,45.7792,4.92174,"4 Rue Hô Chi Minh, 69120 Vaulx-en-Velin, France","4 Rue Hô Chi Minh, 69120 Vaulx-en-Velin, France",,Overcast
quan 4 ho chi minh,2/3/2024 21:00,14.1,14.1,14.1,4.0,50.37,,29.4,48.2,170.0,,0.0,,,10.0,88.0,999.0,,45.7792,4.92174,"4 Rue Hô Chi Minh, 69120 Vaulx-en-Velin, France","4 Rue Hô Chi Minh, 69120 Vaulx-en-Velin, France",,Overcast
quan 4 ho chi minh,2/3/2024 22:00,14.1,14.1,14.1,4.9,53.84,,21.2,53.6,168.0,,0.0,,,10.0,88.0,998.2,,45.7792,4.92174,"4 Rue Hô Chi Minh, 69120 Vaulx-en-Velin, France","4 Rue Hô Chi Minh, 69120 Vaulx-en-Velin, France",,Overcast
quan 4 ho chi minh,2/3/2024 23:00,14.9,14.9,14.9,3.9,47.77,,34.5,63.7,178.0,,0.0,,,10.0,100.0,998.0,,45.7792,4.92174,"4 Rue Hô Chi Minh, 69120 Vaulx-en-Velin, France","4 Rue Hô Chi Minh, 69120 Vaulx-en-Velin, France",,Overcast
quan 4 ho chi minh,3/3/2024 0:00,14.1,14.1,14.1,2.9,46.94,,31.5,53.6,187.0,,0.0,,,10.0,56.4,998.0,,45.7792,4.92174,"4 Rue Hô Chi Minh, 69120 Vaulx-en-Velin, France","4 Rue Hô Chi Minh, 69120 Vaulx-en-Velin, France",,Partially cloudy
quan 4 ho chi minh,3/3/2024 1:00,13.1,13.1,13.1,2.9,49.97,,12.6,,174.0,,0.0,,,10.0,88.0,998.0,,45.7792,4.92174,"4 Rue Hô Chi Minh, 69120 Vaulx-en-Velin, France","4 Rue Hô Chi Minh, 69120 Vaulx-en-Velin, France",,Overcast
quan 4 ho chi minh,3/3/2024 2:00,12.0,12.0,12.0,2.9,53.99,,11.4,57.6,167.0,,0.0,,,10.0,100.0,998.0,,45.7792,4.92174,"4 Rue Hô Chi Minh, 69120 Vaulx-en-Velin, France","4 Rue Hô Chi Minh, 69120 Vaulx-en-Velin, France",,Overcast
quan 4 ho chi minh,3/3/2024 3:00,12.7,12.7,12.7,3.7,54.24,,15.8,,174.0,,0.0,,,10.0,88.0,998.0,,45.7792,4.92174,"4 Rue Hô Chi Minh, 69120 Vaulx-en-Velin, France","4 Rue Hô Chi Minh, 69120 Vaulx-en-Velin, France",,Overcast
quan 4 ho chi minh,3/3/2024 4:00,11.9,11.9,11.9,3.9,57.98,,13.6,,161.0,,0.0,,,10.0,88.0,998.0,,45.7792,4.92174,"4 Rue Hô Chi Minh, 69120 Vaulx-en-Velin, France","4 Rue Hô Chi Minh, 69120 Vaulx-en-Velin, France",,Overcast
quan 4 ho chi minh,3/3/2024 5:00,11.9,11.9,11.9,4.7,61.29,,21.9,,173.0,,0.0,,,10.0,100.0,998.0,,45.7792,4.92174,"4 Rue Hô Chi Minh, 69120 Vaulx-en-Velin, France","4 Rue Hô Chi Minh, 69120 Vaulx-en-Velin, France",,Overcast
quan 4 ho chi minh,3/3/2024 6:00,11.9,11.9,11.9,4.7,61.35,,27.0,,167.0,,0.0,,,10.0,88.4,998.0,,45.7792,4.92174,"4 Rue Hô Chi Minh, 69120 Vaulx-en-Velin, France","4 Rue Hô Chi Minh, 69120 Vaulx-en-Velin, France",,Overcast
quan 4 ho chi minh,3/3/2024 7:00,11.9,11.9,11.9,3.9,58.17,,20.3,39.4,161.0,,0.0,,,10.0,88.4,998.0,,45.7792,4.92174,"4 Rue Hô Chi Minh, 69120 Vaulx-en-Velin, France","4 Rue Hô Chi Minh, 69120 Vaulx-en-Velin, France",,Overcast
quan 4 ho chi minh,3/3/2024 8:00,10.9,10.9,10.9,3.9,62.0,,17.2,,155.0,,0.0,,,10.0,94.0,997.0,,45.7792,4.92174,"4 Rue Hô Chi Minh, 69120 Vaulx-en-Velin, France","4 Rue Hô Chi Minh, 69120 Vaulx-en-Velin, France",,Overcast
quan 4 ho chi minh,3/3/2024 9:00,10.9,10.9,10.9,3.9,62.0,,8.6,,158.0,,0.0,,,10.0,88.4,997.0,,45.7792,4.92174,"4 Rue Hô Chi Minh, 69120 Vaulx-en-Velin, France","4 Rue Hô Chi Minh, 69120 Vaulx-en-Velin, France",,Overcast
quan 4 ho chi minh,3/3/2024 10:00,11.1,11.1,11.1,2.9,57.05,,13.4,,149.0,,0.0,,,10.0,100.0,996.0,,45.7792,4.92174,"4 Rue Hô Chi Minh, 69120 Vaulx-en-Velin, France","4 Rue Hô Chi Minh, 69120 Vaulx-en-Velin, France",,Overcast
quan 4 ho chi minh,3/3/2024 11:00,10.9,10.9,10.9,3.0,58.12,,15.0,,161.0,,0.0,,,10.0,100.0,996.0,,45.7792,4.92174,"4 Rue Hô Chi Minh, 69120 Vaulx-en-Velin, France","4 Rue Hô Chi Minh, 69120 Vaulx-en-Velin, France",,Overcast
quan 4 ho chi minh,3/3/2024 12:00,10.6,10.6,10.6,3.7,62.35,,11.9,,250.0,,0.0,,,10.0,94.0,996.0,,45.7792,4.92174,"4 Rue Hô Chi Minh, 69120 Vaulx-en-Velin, France","4 Rue Hô Chi Minh, 69120 Vaulx-en-Velin, France",,Overcast
quan 4 ho chi minh,3/3/2024 13:00,9.8,9.8,9.8,4.5,69.39,,13.2,,207.0,7.9,0.0,,,10.0,100.0,996.0,,45.7792,4.92174,"4 Rue Hô Chi Minh, 69120 Vaulx-en-Velin, France","4 Rue Hô Chi Minh, 69120 Vaulx-en-Velin, France",,Overcast
quan 4 ho chi minh,3/3/2024 14:00,7.3,7.3,7.3,4.3,81.46,,20.9,,265.0,3.9,0.0,,,9.1,97.5,997.8,,45.7792,4.92174,"4 Rue Hô Chi Minh, 69120 Vaulx-en-Velin, France","4 Rue Hô Chi Minh, 69120 Vaulx-en-Velin, France",,Overcast
quan 4 ho chi minh,3/3/2024 15:00,4.9,4.9,4.9,3.2,88.32,,19.0,,275.0,1.1,0.0,,,8.0,100.0,998.8,,45.7792,4.92174,"4 Rue Hô Chi Minh, 69120 Vaulx-en-Velin, France","4 Rue Hô Chi Minh, 69120 Vaulx-en-Velin, France",,Overcast
quan 4 ho chi minh,3/3/2024 16:00,3.9,3.9,3.9,2.9,93.19,,20.4,,269.0,-0.3,0.0,,,9.8,99.9,999.0,,45.7792,4.92174,"4 Rue Hô Chi Minh, 69120 Vaulx-en-Velin, France","4 Rue Hô Chi Minh, 69120 Vaulx-en-Velin, France",,Overcast
quan 5 ho chi minh,1/3/2024 17:00,32.0,32.0,32.0,20.0,49.13,34.1,20.5,,180.0,,0.0,,,10.0,50.0,1009.0,,10.7562,106.667,"Quận 5, Hồ Chí Minh, Việt Nam","Quận 5, Hồ Chí Minh, Việt Nam",,Partially cloudy
quan 5 ho chi minh,1/3/2024 18:00,31.0,31.0,31.0,21.0,55.31,33.6,11.2,,170.0,,0.0,,,10.0,50.0,1010.0,,10.7562,106.667,"Quận 5, Hồ Chí Minh, Việt Nam","Quận 5, Hồ Chí Minh, Việt Nam",,Partially cloudy
quan 5 ho chi minh,1/3/2024 19:00,31.0,31.0,31.0,19.0,48.87,32.3,16.6,,150.0,,0.0,,,10.0,50.0,1010.0,,10.7562,106.667,"Quận 5, Hồ Chí Minh, Việt Nam","Quận 5, Hồ Chí Minh, Việt Nam",,Partially cloudy
quan 5 ho chi minh,1/3/2024 20:00,30.0,30.0,30.0,19.0,51.75,31.3,20.5,,140.0,,0.0,,,10.0,50.0,1011.0,,10.7562,106.667,"Quận 5, Hồ Chí Minh, Việt Nam","Quận 5, Hồ Chí Minh, Việt Nam",,Partially cloudy
quan 5 ho chi minh,1/3/2024 21:00,29.0,29.0,29.0,20.0,58.34,30.7,18.4,,140.0,,0.0,,,10.0,50.0,1012.0,,10.7562,106.667,"Quận 5, Hồ Chí Minh, Việt Nam","Quận 5, Hồ Chí Minh, Việt Nam",,Partially cloudy
quan 5 ho chi minh,1/3/2024 22:00,28.0,28.0,28.0,21.0,65.76,30.0,20.5,,140.0,,0.0,,,10.0,25.0,1012.0,,10.7562,106.667,"Quận 5, Hồ Chí Minh, Việt Nam","Quận 5, Hồ Chí Minh, Việt Nam",,Clear
quan 5 ho chi minh,1/3/2024 23:00,28.0,28.0,28.0,21.0,65.76,30.0,13.0,,130.0,,0.0,,,10.0,25.0,1012.0,,10.7562,106.667,"Quận 5, Hồ Chí Minh, Việt Nam","Quận 5, Hồ Chí Minh, Việt Nam",,Clear
quan 5 ho chi minh,2/3/2024 0:00,28.0,28.0,28.0,21.0,65.76,30.0,13.0,,120.0,,0.0,,,10.0,25.0,1011.0,,10.7562,106.667,"Quận 5, Hồ Chí Minh, Việt Nam","Quận 5, Hồ Chí Minh, Việt Nam",,Clear
quan 5 ho chi minh,2/3/2024 1:00,28.0,28.0,28.0,21.0,65.76,30.0,13.0,,130.0,,0.0,,,10.0,25.0,1011.0,,10.7562,106.667,"Quận 5, Hồ Chí Minh, Việt Nam","Quận 5, Hồ Chí Minh, Việt Nam",,Clear
quan 5 ho chi minh,2/3/2024 2:00,27.0,27.0,27.0,21.0,69.73,28.7,7.6,,120.0,,0.0,,,10.0,25.0,1011.0,,10.7562,106.667,"Quận 5, Hồ Chí Minh, Việt Nam","Quận 5, Hồ Chí Minh, Việt Nam",,Clear
quan 5 ho chi minh,2/3/2024 3:00,27.0,27.0,27.0,22.0,74.13,29.1,9.4,,100.0,,0.0,,,10.0,50.0,1011.0,,10.7562,106.667,"Quận 5, Hồ Chí Minh, Việt Nam","Quận 5, Hồ Chí Minh, Việt Nam",,Partially cloudy
quan 5 ho chi minh,2/3/2024 4:00,26.0,26.0,26.0,22.0,78.63,,5.4,,90.0,,0.0,,,10.0,50.0,1010.0,,10.7562,106.667,"Quận 5, Hồ Chí Minh, Việt Nam","Quận 5, Hồ Chí Minh, Việt Nam",,Partially cloudy
quan 5 ho chi minh,2/3/2024 5:00,26.0,26.0,26.0,22.0,78.63,,7.6,,90.0,,0.0,,,10.0,50.0,1010.0,,10.7562,106.667,"Quận 5, Hồ Chí Minh, Việt Nam","Quận 5, Hồ Chí Minh, Việt Nam",,Partially cloudy
quan 5 ho chi minh,2/3/2024 6:00,26.0,26.0,26.0,22.0,78.63,,9.4,,80.0,,0.0,,,10.0,25.0,1011.0,,10.7562,106.667,"Quận 5, Hồ Chí Minh, Việt Nam","Quận 5, Hồ Chí Minh, Việt Nam",,Clear
quan 5 ho chi minh,2/3/2024 7:00,27.0,27.0,27.0,22.0,74.13,29.1,5.4,,,,0.0,,,10.0,,1012.0,,10.7562,106.667,"Quận 5, Hồ Chí Minh, Việt Nam","Quận 5, Hồ Chí Minh, Việt Nam",,Clear
quan 5 ho chi minh,2/3/2024 8:00,29.0,29.0,29.0,22.0,65.97,31.9,1.8,,,,0.0,,,9.0,,1013.0,,10.7562,106.667,"Quận 5, Hồ Chí Minh, Việt Nam","Quận 5, Hồ Chí Minh, Việt Nam",,Clear
quan 5 ho chi minh,2/3/2024 9:00,31.0,31.0,31.0,21.0,55.31,33.6,7.6,,130.0,,0.0,,,10.0,,1014.0,,10.7562,106.667,"Quận 5, Hồ Chí Minh, Việt Nam","Quận 5, Hồ Chí Minh, Việt Nam",,Clear
quan 5 ho chi minh,2/3/2024 10:00,31.0,31.0,31.0,19.0,48.87,32.3,5.4,,,,0.0,,,10.0,,1014.0,,10.7562,106.667,"Quận 5, Hồ Chí Minh, Việt Nam","Quận 5, Hồ Chí Minh, Việt Nam",,Clear
quan 5 ho chi minh,2/3/2024 11:00,33.0,33.0,33.0,19.0,43.63,34.5,9.4,,,,0.0,,,10.0,,1013.0,,10.7562,106.667,"Quận 5, Hồ Chí Minh, Việt Nam","Quận 5, Hồ Chí Minh, Việt Nam",,Clear
quan 5 ho chi minh,2/3/2024 12:00,34.0,34.0,34.0,19.0,41.25,35.7,3.6,,110.0,,0.0,,,10.0,25.0,1012.0,,10.7562,106.667,"Quận 5, Hồ Chí Minh, Việt Nam","Quận 5, Hồ Chí Minh, Việt Nam",,Clear
quan 5 ho chi minh,2/3/2024 13:00,34.0,34.0,34.0,20.0,43.9,36.4,9.4,,230.0,,0.0,,,10.0,50.0,1011.0,,10.7562,106.667,"Quận 5, Hồ Chí Minh, Việt Nam","Quận 5, Hồ Chí Minh, Việt Nam",,Partially cloudy
quan 5 ho chi minh,2/3/2024 14:00,35.0,35.0,35.0,20.0,41.52,37.6,5.4,,,,0.0,,,10.0,50.0,1010.0,,10.7562,106.667,"Quận 5, Hồ Chí Minh, Việt Nam","Quận 5, Hồ Chí Minh, Việt Nam",,Partially cloudy
quan 5 ho chi minh,2/3/2024 15:00,36.0,36.0,36.0,20.0,39.29,38.8,7.6,,180.0,,0.0,,,10.0,50.0,1009.0,,10.7562,106.667,"Quận 5, Hồ Chí Minh, Việt Nam","Quận 5, Hồ Chí Minh, Việt Nam",,Partially cloudy
quan 5 ho chi minh,2/3/2024 16:00,34.0,34.0,34.0,22.0,49.64,38.2,20.5,,190.0,,0.0,,,10.0,88.0,1009.0,,10.7562,106.667,"Quận 5, Hồ Chí Minh, Việt Nam","Quận 5, Hồ Chí Minh, Việt Nam",,Overcast
quan 5 ho chi minh,2/3/2024 17:00,32.0,32.0,32.0,22.0,55.55,35.7,16.6,,180.0,,0.0,,,10.0,50.0,1009.0,,10.7562,106.667,"Quận 5, Hồ Chí Minh, Việt Nam","Quận 5, Hồ Chí Minh, Việt Nam",,Partially cloudy
quan 5 ho chi minh,2/3/2024 18:00,31.0,31.0,31.0,22.0,58.8,34.4,16.6,,180.0,,0.0,,,10.0,25.0,1010.0,,10.7562,106.667,"Quận 5, Hồ Chí Minh, Việt Nam","Quận 5, Hồ Chí Minh, Việt Nam",,Clear
quan 5 ho chi minh,2/3/2024 19:00,30.0,30.0,30.0,21.0,58.57,32.5,16.6,,140.0,,0.0,,,10.0,25.0,1010.0,,10.7562,106.667,"Quận 5, Hồ Chí Minh, Việt Nam","Quận 5, Hồ Chí Minh, Việt Nam",,Clear
quan 5 ho chi minh,2/3/2024 20:00,29.0,29.0,29.0,21.0,62.05,31.3,16.6,,140.0,,0.0,,,10.0,,1011.0,,10.7562,106.667,"Quận 5, Hồ Chí Minh, Việt Nam","Quận 5, Hồ Chí Minh, Việt Nam",,Clear
quan 5 ho chi minh,2/3/2024 21:00,28.0,28.0,28.0,21.0,65.76,30.0,18.4,,130.0,,0.0,,,10.0,,1011.0,,10.7562,106.667,"Quận 5, Hồ Chí Minh, Việt Nam","Quận 5, Hồ Chí Minh, Việt Nam",,Clear
quan 5 ho chi minh,2/3/2024 22:00,28.0,28.0,28.0,21.0,65.76,30.0,14.8,,110.0,,0.0,,,10.0,,1012.0,,10.7562,106.667,"Quận 5, Hồ Chí Minh, Việt Nam","Quận 5, Hồ Chí Minh, Việt Nam",,Clear
quan 5 ho chi minh,2/3/2024 23:00,28.0,28.0,28.0,21.0,65.76,30.0,7.6,,110.0,,0.0,,,10.0,,1012.0,,10.7562,106.667,"Quận 5, Hồ Chí Minh, Việt Nam","Quận 5, Hồ Chí Minh, Việt Nam",,Clear
quan 5 ho chi minh,3/3/2024 0:00,28.0,28.0,28.0,21.0,65.76,30.0,7.6,,130.0,,0.0,,,10.0,25.0,1012.0,,10.7562,106.667,"Quận 5, Hồ Chí Minh, Việt Nam","Quận 5, Hồ Chí Minh, Việt Nam",,Clear
quan 5 ho chi minh,3/3/2024 1:00,28.0,28.0,28.0,21.0,65.76,30.0,9.4,,110.0,,0.0,,,10.0,25.0,1011.0,,10.7562,106.667,"Quận 5, Hồ Chí Minh, Việt Nam","Quận 5, Hồ Chí Minh, Việt Nam",,Clear
quan 5 ho chi minh,3/3/2024 2:00,27.0,27.0,27.0,21.0,69.73,28.7,7.6,,140.0,,0.0,,,10.0,25.0,1011.0,,10.7562,106.667,"Quận 5, Hồ Chí Minh, Việt Nam","Quận 5, Hồ Chí Minh, Việt Nam",,Clear
quan 5 ho chi minh,3/3/2024 3:00,27.0,27.0,27.0,21.0,69.73,28.7,5.4,,,,0.0,,,10.0,25.0,1011.0,,10.7562,106.667,"Quận 5, Hồ Chí Minh, Việt Nam","Quận 5, Hồ Chí Minh, Việt Nam",,Clear
quan 5 ho chi minh,3/3/2024 4:00,26.0,26.0,26.0,21.0,73.96,,11.2,,100.0,,0.0,,,10.0,25.0,1011.0,,10.7562,106.667,"Quận 5, Hồ Chí Minh, Việt Nam","Quận 5, Hồ Chí Minh, Việt Nam",,Clear
quan 5 ho chi minh,3/3/2024 5:00,26.0,26.0,26.0,21.0,73.96,,7.6,,110.0,,0.0,,,10.0,25.0,1011.0,,10.7562,106.667,"Quận 5, Hồ Chí Minh, Việt Nam","Quận 5, Hồ Chí Minh, Việt Nam",,Clear
quan 5 ho chi minh,3/3/2024 6:00,25.0,25.0,25.0,22.0,83.45,,9.4,,80.0,,0.0,,,10.0,25.0,1012.0,,10.7562,106.667,"Quận 5, Hồ Chí Minh, Việt Nam","Quận 5, Hồ Chí Minh, Việt Nam",,Clear
quan 5 ho chi minh,3/3/2024 7:00,27.0,27.0,27.0,22.0,74.13,29.1,3.6,,,,0.0,,,10.0,25.0,1013.0,,10.7562,106.667,"Quận 5, Hồ Chí Minh, Việt Nam","Quận 5, Hồ Chí Minh, Việt Nam",,Clear
quan 5 ho chi minh,3/3/2024 8:00,29.0,29.0,29.0,21.0,62.05,31.3,5.4,,,,0.0,,,10.0,,1013.0,,10.7562,106.667,"Quận 5, Hồ Chí Minh, Việt Nam","Quận 5, Hồ Chí Minh, Việt Nam",,Clear
quan 5 ho chi minh,3/3/2024 9:00,30.0,30.0,30.0,20.0,55.07,31.8,7.6,,120.0,,0.0,,,10.0,,1013.0,,10.7562,106.667,"Quận 5, Hồ Chí Minh, Việt Nam","Quận 5, Hồ Chí Minh, Việt Nam",,Clear
quan 5 ho chi minh,3/3/2024 10:00,31.0,31.0,31.0,20.0,52.0,32.9,3.6,,,,0.0,,,10.0,25.0,1013.0,,10.7562,106.667,"Quận 5, Hồ Chí Minh, Việt Nam","Quận 5, Hồ Chí Minh, Việt Nam",,Clear
quan 5 ho chi minh,3/3/2024 11:00,32.0,32.0,32.0,20.0,49.13,34.1,3.6,,,,0.0,,,10.0,25.0,1012.0,,10.7562,106.667,"Quận 5, Hồ Chí Minh, Việt Nam","Quận 5, Hồ Chí Minh, Việt Nam",,Clear
quan 5 ho chi minh,3/3/2024 12:00,34.0,34.0,34.0,20.0,43.9,36.4,3.6,,,,0.0,,,10.0,50.0,1011.0,,10.7562,106.667,"Quận 5, Hồ Chí Minh, Việt Nam","Quận 5, Hồ Chí Minh, Việt Nam",,Partially cloudy
quan 5 ho chi minh,3/3/2024 13:00,34.0,34.0,34.0,20.0,43.9,36.4,7.6,,40.0,,0.0,,,9.0,50.0,1010.0,,10.7562,106.667,"Quận 5, Hồ Chí Minh, Việt Nam","Quận 5, Hồ Chí Minh, Việt Nam",,Partially cloudy
quan 5 ho chi minh,3/3/2024 14:00,34.0,34.0,34.0,20.0,43.9,36.4,7.6,,200.0,,0.0,,,9.0,50.0,1009.0,,10.7562,106.667,"Quận 5, Hồ Chí Minh, Việt Nam","Quận 5, Hồ Chí Minh, Việt Nam",,Partially cloudy
quan 5 ho chi minh,3/3/2024 15:00,34.0,34.0,34.0,20.0,43.9,36.4,3.6,,,,0.0,,,10.0,50.0,1008.0,,10.7562,106.667,"Quận 5, Hồ Chí Minh, Việt Nam","Quận 5, Hồ Chí Minh, Việt Nam",,Partially cloudy
quan 6 ho chi minh,1/3/2024 17:00,31.9,31.9,31.9,20.0,49.13,34.1,20.5,,180.0,,0.0,,,10.0,50.0,1009.0,,10.746,106.648,"Quận 6, Hồ Chí Minh, Việt Nam","Quận 6, Hồ Chí Minh, Việt Nam",,Partially cloudy
quan 6 ho chi minh,1/3/2024 18:00,31.0,31.0,31.0,21.0,55.31,33.6,11.2,,170.0,,0.0,,,10.0,50.0,1010.0,,10.746,106.648,"Quận 6, Hồ Chí Minh, Việt Nam","Quận 6, Hồ Chí Minh, Việt Nam",,Partially cloudy
quan 6 ho chi minh,1/3/2024 19:00,31.0,31.0,31.0,19.0,48.87,32.3,16.6,,150.0,,0.0,,,10.0,50.0,1010.0,,10.746,106.648,"Quận 6, Hồ Chí Minh, Việt Nam","Quận 6, Hồ Chí Minh, Việt Nam",,Partially cloudy
quan 6 ho chi minh,1/3/2024 20:00,30.0,30.0,30.0,19.0,51.75,31.3,20.5,,140.0,,0.0,,,10.0,50.0,1011.0,,10.746,106.648,"Quận 6, Hồ Chí Minh, Việt Nam","Quận 6, Hồ Chí Minh, Việt Nam",,Partially cloudy
quan 6 ho chi minh,1/3/2024 21:00,29.0,29.0,29.0,20.0,58.34,30.7,18.4,,140.0,,0.0,,,10.0,50.0,1012.0,,10.746,106.648,"Quận 6, Hồ Chí Minh, Việt Nam","Quận 6, Hồ Chí Minh, Việt Nam",,Partially cloudy
quan 6 ho chi minh,1/3/2024 22:00,28.0,28.0,28.0,21.0,65.76,30.0,20.5,,140.0,,0.0,,,10.0,25.0,1012.0,,10.746,106.648,"Quận 6, Hồ Chí Minh, Việt Nam","Quận 6, Hồ Chí Minh, Việt Nam",,Clear
quan 6 ho chi minh,1/3/2024 23:00,28.0,28.0,28.0,21.0,65.76,30.0,13.0,,130.0,,0.0,,,10.0,25.0,1012.0,,10.746,106.648,"Quận 6, Hồ Chí Minh, Việt Nam","Quận 6, Hồ Chí Minh, Việt Nam",,Clear
quan 6 ho chi minh,2/3/2024 0:00,28.0,28.0,28.0,21.0,65.76,30.0,13.0,,120.0,,0.0,,,10.0,25.0,1011.0,,10.746,106.648,"Quận 6, Hồ Chí Minh, Việt Nam","Quận 6, Hồ Chí Minh, Việt Nam",,Clear
quan 6 ho chi minh,2/3/2024 1:00,28.0,28.0,28.0,21.0,65.76,30.0,13.0,,130.0,,0.0,,,10.0,25.0,1011.0,,10.746,106.648,"Quận 6, Hồ Chí Minh, Việt Nam","Quận 6, Hồ Chí Minh, Việt Nam",,Clear
quan 6 ho chi minh,2/3/2024 2:00,27.0,27.0,27.0,21.0,69.73,28.7,7.6,,120.0,,0.0,,,10.0,25.0,1011.0,,10.746,106.648,"Quận 6, Hồ Chí Minh, Việt Nam","Quận 6, Hồ Chí Minh, Việt Nam",,Clear
quan 6 ho chi minh,2/3/2024 3:00,27.0,27.0,27.0,22.0,74.13,29.1,9.4,,100.0,,0.0,,,10.0,50.0,1011.0,,10.746,106.648,"Quận 6, Hồ Chí Minh, Việt Nam","Quận 6, Hồ Chí Minh, Việt Nam",,Partially cloudy
quan 6 ho chi minh,2/3/2024 4:00,26.0,26.0,26.0,22.0,78.63,,5.4,,90.0,,0.0,,,10.0,50.0,1010.0,,10.746,106.648,"Quận 6, Hồ Chí Minh, Việt Nam","Quận 6, Hồ Chí Minh, Việt Nam",,Partially cloudy
quan 6 ho chi minh,2/3/2024 5:00,26.0,26.0,26.0,22.0,78.63,,7.6,,90.0,,0.0,,,10.0,50.0,1010.0,,10.746,106.648,"Quận 6, Hồ Chí Minh, Việt Nam","Quận 6, Hồ Chí Minh, Việt Nam",,Partially cloudy
quan 6 ho chi minh,2/3/2024 6:00,26.0,26.0,26.0,22.0,78.63,,9.4,,80.0,,0.0,,,10.0,25.0,1011.0,,10.746,106.648,"Quận 6, Hồ Chí Minh, Việt Nam","Quận 6, Hồ Chí Minh, Việt Nam",,Clear
quan 6 ho chi minh,2/3/2024 7:00,27.0,27.0,27.0,22.0,74.13,29.1,5.4,,,,0.0,,,10.0,,1012.0,,10.746,106.648,"Quận 6, Hồ Chí Minh, Việt Nam","Quận 6, Hồ Chí Minh, Việt Nam",,Clear
quan 6 ho chi minh,2/3/2024 8:00,29.0,29.0,29.0,22.0,65.97,31.9,1.8,,,,0.0,,,9.0,,1013.0,,10.746,106.648,"Quận 6, Hồ Chí Minh, Việt Nam","Quận 6, Hồ Chí Minh, Việt Nam",,Clear
quan 6 ho chi minh,2/3/2024 9:00,31.0,31.0,31.0,21.0,55.31,33.6,7.6,,130.0,,0.0,,,10.0,,1014.0,,10.746,106.648,"Quận 6, Hồ Chí Minh, Việt Nam","Quận 6, Hồ Chí Minh, Việt Nam",,Clear
quan 6 ho chi minh,2/3/2024 10:00,31.0,31.0,31.0,19.0,48.87,32.3,5.4,,,,0.0,,,10.0,,1014.0,,10.746,106.648,"Quận 6, Hồ Chí Minh, Việt Nam","Quận 6, Hồ Chí Minh, Việt Nam",,Clear
quan 6 ho chi minh,2/3/2024 11:00,33.0,33.0,33.0,19.0,43.63,34.5,9.4,,,,0.0,,,10.0,,1013.0,,10.746,106.648,"Quận 6, Hồ Chí Minh, Việt Nam","Quận 6, Hồ Chí Minh, Việt Nam",,Clear
quan 6 ho chi minh,2/3/2024 12:00,34.0,34.0,34.0,19.0,41.25,35.7,3.6,,110.0,,0.0,,,10.0,25.0,1012.0,,10.746,106.648,"Quận 6, Hồ Chí Minh, Việt Nam","Quận 6, Hồ Chí Minh, Việt Nam",,Clear
quan 6 ho chi minh,2/3/2024 13:00,34.0,34.0,34.0,20.0,43.9,36.4,9.4,,230.0,,0.0,,,10.0,50.0,1011.0,,10.746,106.648,"Quận 6, Hồ Chí Minh, Việt Nam","Quận 6, Hồ Chí Minh, Việt Nam",,Partially cloudy
quan 6 ho chi minh,2/3/2024 14:00,35.0,35.0,35.0,20.0,41.52,37.6,5.4,,,,0.0,,,10.0,50.0,1010.0,,10.746,106.648,"Quận 6, Hồ Chí Minh, Việt Nam","Quận 6, Hồ Chí Minh, Việt Nam",,Partially cloudy
quan 6 ho chi minh,2/3/2024 15:00,36.0,36.0,36.0,20.0,39.29,38.8,7.6,,180.0,,0.0,,,10.0,50.0,1009.0,,10.746,106.648,"Quận 6, Hồ Chí Minh, Việt Nam","Quận 6, Hồ Chí Minh, Việt Nam",,Partially cloudy
quan 6 ho chi minh,2/3/2024 16:00,34.0,34.0,34.0,22.0,49.64,38.2,20.5,,190.0,,0.0,,,10.0,88.0,1009.0,,10.746,106.648,"Quận 6, Hồ Chí Minh, Việt Nam","Quận 6, Hồ Chí Minh, Việt Nam",,Overcast
quan 6 ho chi minh,2/3/2024 17:00,31.9,31.9,31.9,22.0,55.55,35.7,16.6,,180.0,,0.0,,,10.0,50.0,1009.0,,10.746,106.648,"Quận 6, Hồ Chí Minh, Việt Nam","Quận 6, Hồ Chí Minh, Việt Nam",,Partially cloudy
quan 6 ho chi minh,2/3/2024 18:00,31.0,31.0,31.0,22.0,58.8,34.4,16.6,,180.0,,0.0,,,10.0,25.0,1010.0,,10.746,106.648,"Quận 6, Hồ Chí Minh, Việt Nam","Quận 6, Hồ Chí Minh, Việt Nam",,Clear
quan 6 ho chi minh,2/3/2024 19:00,30.0,30.0,30.0,21.0,58.57,32.5,16.6,,140.0,,0.0,,,10.0,25.0,1010.0,,10.746,106.648,"Quận 6, Hồ Chí Minh, Việt Nam","Quận 6, Hồ Chí Minh, Việt Nam",,Clear
quan 6 ho chi minh,2/3/2024 20:00,29.0,29.0,29.0,21.0,62.05,31.3,16.6,,140.0,,0.0,,,10.0,,1011.0,,10.746,106.648,"Quận 6, Hồ Chí Minh, Việt Nam","Quận 6, Hồ Chí Minh, Việt Nam",,Clear
quan 6 ho chi minh,2/3/2024 21:00,28.0,28.0,28.0,21.0,65.76,30.0,18.4,,130.0,,0.0,,,10.0,,1011.0,,10.746,106.648,"Quận 6, Hồ Chí Minh, Việt Nam","Quận 6, Hồ Chí Minh, Việt Nam",,Clear
quan 6 ho chi minh,2/3/2024 22:00,28.0,28.0,28.0,21.0,65.76,30.0,14.8,,110.0,,0.0,,,10.0,,1012.0,,10.746,106.648,"Quận 6, Hồ Chí Minh, Việt Nam","Quận 6, Hồ Chí Minh, Việt Nam",,Clear
quan 6 ho chi minh,2/3/2024 23:00,28.0,28.0,28.0,21.0,65.76,30.0,7.6,,110.0,,0.0,,,10.0,,1012.0,,10.746,106.648,"Quận 6, Hồ Chí Minh, Việt Nam","Quận 6, Hồ Chí Minh, Việt Nam",,Clear
quan 6 ho chi minh,3/3/2024 0:00,28.0,28.0,28.0,21.0,65.76,30.0,7.6,,130.0,,0.0,,,10.0,25.0,1012.0,,10.746,106.648,"Quận 6, Hồ Chí Minh, Việt Nam","Quận 6, Hồ Chí Minh, Việt Nam",,Clear
quan 6 ho chi minh,3/3/2024 1:00,28.0,28.0,28.0,21.0,65.76,30.0,9.4,,110.0,,0.0,,,10.0,25.0,1011.0,,10.746,106.648,"Quận 6, Hồ Chí Minh, Việt Nam","Quận 6, Hồ Chí Minh, Việt Nam",,Clear
quan 6 ho chi minh,3/3/2024 2:00,27.0,27.0,27.0,21.0,69.73,28.7,7.6,,140.0,,0.0,,,10.0,25.0,1011.0,,10.746,106.648,"Quận 6, Hồ Chí Minh, Việt Nam","Quận 6, Hồ Chí Minh, Việt Nam",,Clear
quan 6 ho chi minh,3/3/2024 3:00,27.0,27.0,27.0,21.0,69.73,28.7,5.4,,,,0.0,,,10.0,25.0,1011.0,,10.746,106.648,"Quận 6, Hồ Chí Minh, Việt Nam","Quận 6, Hồ Chí Minh, Việt Nam",,Clear
quan 6 ho chi minh,3/3/2024 4:00,26.0,26.0,26.0,21.0,73.96,,11.2,,100.0,,0.0,,,10.0,25.0,1011.0,,10.746,106.648,"Quận 6, Hồ Chí Minh, Việt Nam","Quận 6, Hồ Chí Minh, Việt Nam",,Clear
quan 6 ho chi minh,3/3/2024 5:00,26.0,26.0,26.0,21.0,73.96,,7.6,,110.0,,0.0,,,10.0,25.0,1011.0,,10.746,106.648,"Quận 6, Hồ Chí Minh, Việt Nam","Quận 6, Hồ Chí Minh, Việt Nam",,Clear
quan 6 ho chi minh,3/3/2024 6:00,25.0,25.0,25.0,22.0,83.45,,9.4,,80.0,,0.0,,,10.0,25.0,1012.0,,10.746,106.648,"Quận 6, Hồ Chí Minh, Việt Nam","Quận 6, Hồ Chí Minh, Việt Nam",,Clear
quan 6 ho chi minh,3/3/2024 7:00,27.0,27.0,27.0,22.0,74.13,29.1,3.6,,,,0.0,,,10.0,25.0,1013.0,,10.746,106.648,"Quận 6, Hồ Chí Minh, Việt Nam","Quận 6, Hồ Chí Minh, Việt Nam",,Clear
quan 6 ho chi minh,3/3/2024 8:00,29.0,29.0,29.0,21.0,62.05,31.3,5.4,,,,0.0,,,10.0,,1013.0,,10.746,106.648,"Quận 6, Hồ Chí Minh, Việt Nam","Quận 6, Hồ Chí Minh, Việt Nam",,Clear
quan 6 ho chi minh,3/3/2024 9:00,30.0,30.0,30.0,20.0,55.07,31.8,7.6,,120.0,,0.0,,,10.0,,1013.0,,10.746,106.648,"Quận 6, Hồ Chí Minh, Việt Nam","Quận 6, Hồ Chí Minh, Việt Nam",,Clear
quan 6 ho chi minh,3/3/2024 10:00,31.0,31.0,31.0,20.0,52.0,32.9,3.6,,,,0.0,,,10.0,25.0,1013.0,,10.746,106.648,"Quận 6, Hồ Chí Minh, Việt Nam","Quận 6, Hồ Chí Minh, Việt Nam",,Clear
quan 6 ho chi minh,3/3/2024 11:00,31.9,31.9,31.9,20.0,49.13,34.1,3.6,,,,0.0,,,10.0,25.0,1012.0,,10.746,106.648,"Quận 6, Hồ Chí Minh, Việt Nam","Quận 6, Hồ Chí Minh, Việt Nam",,Clear
quan 6 ho chi minh,3/3/2024 12:00,34.0,34.0,34.0,20.0,43.9,36.4,3.6,,,,0.0,,,10.0,50.0,1011.0,,10.746,106.648,"Quận 6, Hồ Chí Minh, Việt Nam","Quận 6, Hồ Chí Minh, Việt Nam",,Partially cloudy
quan 6 ho chi minh,3/3/2024 13:00,34.0,34.0,34.0,20.0,43.9,36.4,7.6,,40.0,,0.0,,,9.0,50.0,1010.0,,10.746,106.648,"Quận 6, Hồ Chí Minh, Việt Nam","Quận 6, Hồ Chí Minh, Việt Nam",,Partially cloudy
quan 6 ho chi minh,3/3/2024 14:00,34.0,34.0,34.0,20.0,43.9,36.4,7.6,,200.0,,0.0,,,9.0,50.0,1009.0,,10.746,106.648,"Quận 6, Hồ Chí Minh, Việt Nam","Quận 6, Hồ Chí Minh, Việt Nam",,Partially cloudy
quan 6 ho chi minh,3/3/2024 15:00,34.0,34.0,34.0,20.0,43.9,36.4,3.6,,,,0.0,,,10.0,50.0,1008.0,,10.746,106.648,"Quận 6, Hồ Chí Minh, Việt Nam","Quận 6, Hồ Chí Minh, Việt Nam",,Partially cloudy
quan 7 ho chi minh,1/3/2024 17:00,32.0,32.0,32.0,20.0,49.13,34.1,20.5,,180.0,,0.0,,,10.0,50.0,1009.0,,10.7051,106.737,"Quận 7, Hồ Chí Minh, Việt Nam","Quận 7, Hồ Chí Minh, Việt Nam",,Partially cloudy
quan 7 ho chi minh,1/3/2024 18:00,31.0,31.0,31.0,21.0,55.31,33.6,11.2,,170.0,,0.0,,,10.0,50.0,1010.0,,10.7051,106.737,"Quận 7, Hồ Chí Minh, Việt Nam","Quận 7, Hồ Chí Minh, Việt Nam",,Partially cloudy
quan 7 ho chi minh,1/3/2024 19:00,31.0,31.0,31.0,19.0,48.87,32.3,16.6,,150.0,,0.0,,,10.0,50.0,1010.0,,10.7051,106.737,"Quận 7, Hồ Chí Minh, Việt Nam","Quận 7, Hồ Chí Minh, Việt Nam",,Partially cloudy
quan 7 ho chi minh,1/3/2024 20:00,30.0,30.0,30.0,19.0,51.75,31.3,20.5,,140.0,,0.0,,,10.0,50.0,1011.0,,10.7051,106.737,"Quận 7, Hồ Chí Minh, Việt Nam","Quận 7, Hồ Chí Minh, Việt Nam",,Partially cloudy
quan 7 ho chi minh,1/3/2024 21:00,29.0,29.0,29.0,20.0,58.34,30.7,18.4,,140.0,,0.0,,,10.0,50.0,1012.0,,10.7051,106.737,"Quận 7, Hồ Chí Minh, Việt Nam","Quận 7, Hồ Chí Minh, Việt Nam",,Partially cloudy
quan 7 ho chi minh,1/3/2024 22:00,28.0,28.0,28.0,21.0,65.76,30.0,20.5,,140.0,,0.0,,,10.0,25.0,1012.0,,10.7051,106.737,"Quận 7, Hồ Chí Minh, Việt Nam","Quận 7, Hồ Chí Minh, Việt Nam",,Clear
quan 7 ho chi minh,1/3/2024 23:00,28.0,28.0,28.0,21.0,65.76,30.0,13.0,,130.0,,0.0,,,10.0,25.0,1012.0,,10.7051,106.737,"Quận 7, Hồ Chí Minh, Việt Nam","Quận 7, Hồ Chí Minh, Việt Nam",,Clear
quan 7 ho chi minh,2/3/2024 0:00,28.0,28.0,28.0,21.0,65.76,30.0,13.0,,120.0,,0.0,,,10.0,25.0,1011.0,,10.7051,106.737,"Quận 7, Hồ Chí Minh, Việt Nam","Quận 7, Hồ Chí Minh, Việt Nam",,Clear
quan 7 ho chi minh,2/3/2024 1:00,28.0,28.0,28.0,21.0,65.76,30.0,13.0,,130.0,,0.0,,,10.0,25.0,1011.0,,10.7051,106.737,"Quận 7, Hồ Chí Minh, Việt Nam","Quận 7, Hồ Chí Minh, Việt Nam",,Clear
quan 7 ho chi minh,2/3/2024 2:00,27.0,27.0,27.0,21.0,69.73,28.7,7.6,,120.0,,0.0,,,10.0,25.0,1011.0,,10.7051,106.737,"Quận 7, Hồ Chí Minh, Việt Nam","Quận 7, Hồ Chí Minh, Việt Nam",,Clear
quan 7 ho chi minh,2/3/2024 3:00,27.0,27.0,27.0,22.0,74.13,29.1,9.4,,100.0,,0.0,,,10.0,50.0,1011.0,,10.7051,106.737,"Quận 7, Hồ Chí Minh, Việt Nam","Quận 7, Hồ Chí Minh, Việt Nam",,Partially cloudy
quan 7 ho chi minh,2/3/2024 4:00,26.0,26.0,26.0,22.0,78.63,,5.4,,90.0,,0.0,,,10.0,50.0,1010.0,,10.7051,106.737,"Quận 7, Hồ Chí Minh, Việt Nam","Quận 7, Hồ Chí Minh, Việt Nam",,Partially cloudy
quan 7 ho chi minh,2/3/2024 5:00,26.0,26.0,26.0,22.0,78.63,,7.6,,90.0,,0.0,,,10.0,50.0,1010.0,,10.7051,106.737,"Quận 7, Hồ Chí Minh, Việt Nam","Quận 7, Hồ Chí Minh, Việt Nam",,Partially cloudy
quan 7 ho chi minh,2/3/2024 6:00,26.0,26.0,26.0,22.0,78.63,,9.4,,80.0,,0.0,,,10.0,25.0,1011.0,,10.7051,106.737,"Quận 7, Hồ Chí Minh, Việt Nam","Quận 7, Hồ Chí Minh, Việt Nam",,Clear
quan 7 ho chi minh,2/3/2024 7:00,27.0,27.0,27.0,22.0,74.13,29.1,5.4,,,,0.0,,,10.0,,1012.0,,10.7051,106.737,"Quận 7, Hồ Chí Minh, Việt Nam","Quận 7, Hồ Chí Minh, Việt Nam",,Clear
quan 7 ho chi minh,2/3/2024 8:00,29.0,29.0,29.0,22.0,65.97,31.9,1.8,,,,0.0,,,9.0,,1013.0,,10.7051,106.737,"Quận 7, Hồ Chí Minh, Việt Nam","Quận 7, Hồ Chí Minh, Việt Nam",,Clear
quan 7 ho chi minh,2/3/2024 9:00,31.0,31.0,31.0,21.0,55.31,33.6,7.6,,130.0,,0.0,,,10.0,,1014.0,,10.7051,106.737,"Quận 7, Hồ Chí Minh, Việt Nam","Quận 7, Hồ Chí Minh, Việt Nam",,Clear
quan 7 ho chi minh,2/3/2024 10:00,31.0,31.0,31.0,19.0,48.87,32.3,5.4,,,,0.0,,,10.0,,1014.0,,10.7051,106.737,"Quận 7, Hồ Chí Minh, Việt Nam","Quận 7, Hồ Chí Minh, Việt Nam",,Clear
quan 7 ho chi minh,2/3/2024 11:00,33.0,33.0,33.0,19.0,43.63,34.5,9.4,,,,0.0,,,10.0,,1013.0,,10.7051,106.737,"Quận 7, Hồ Chí Minh, Việt Nam","Quận 7, Hồ Chí Minh, Việt Nam",,Clear
quan 7 ho chi minh,2/3/2024 12:00,34.0,34.0,34.0,19.0,41.25,35.7,3.6,,110.0,,0.0,,,10.0,25.0,1012.0,,10.7051,106.737,"Quận 7, Hồ Chí Minh, Việt Nam","Quận 7, Hồ Chí Minh, Việt Nam",,Clear
quan 7 ho chi minh,2/3/2024 13:00,34.0,34.0,34.0,20.0,43.9,36.4,9.4,,230.0,,0.0,,,10.0,50.0,1011.0,,10.7051,106.737,"Quận 7, Hồ Chí Minh, Việt Nam","Quận 7, Hồ Chí Minh, Việt Nam",,Partially cloudy
quan 7 ho chi minh,2/3/2024 14:00,35.0,35.0,35.0,20.0,41.52,37.6,5.4,,,,0.0,,,10.0,50.0,1010.0,,10.7051,106.737,"Quận 7, Hồ Chí Minh, Việt Nam","Quận 7, Hồ Chí Minh, Việt Nam",,Partially cloudy
quan 7 ho chi minh,2/3/2024 15:00,36.0,36.0,36.0,20.0,39.29,38.8,7.6,,180.0,,0.0,,,10.0,50.0,1009.0,,10.7051,106.737,"Quận 7, Hồ Chí Minh, Việt Nam","Quận 7, Hồ Chí Minh, Việt Nam",,Partially cloudy
quan 7 ho chi minh,2/3/2024 16:00,34.0,34.0,34.0,22.0,49.64,38.2,20.5,,190.0,,0.0,,,10.0,88.0,1009.0,,10.7051,106.737,"Quận 7, Hồ Chí Minh, Việt Nam","Quận 7, Hồ Chí Minh, Việt Nam",,Overcast
quan 7 ho chi minh,2/3/2024 17:00,32.0,32.0,32.0,22.0,55.55,35.7,16.6,,180.0,,0.0,,,10.0,50.0,1009.0,,10.7051,106.737,"Quận 7, Hồ Chí Minh, Việt Nam","Quận 7, Hồ Chí Minh, Việt Nam",,Partially cloudy
quan 7 ho chi minh,2/3/2024 18:00,31.0,31.0,31.0,22.0,58.8,34.4,16.6,,180.0,,0.0,,,10.0,25.0,1010.0,,10.7051,106.737,"Quận 7, Hồ Chí Minh, Việt Nam","Quận 7, Hồ Chí Minh, Việt Nam",,Clear
quan 7 ho chi minh,2/3/2024 19:00,30.0,30.0,30.0,21.0,58.57,32.5,16.6,,140.0,,0.0,,,10.0,25.0,1010.0,,10.7051,106.737,"Quận 7, Hồ Chí Minh, Việt Nam","Quận 7, Hồ Chí Minh, Việt Nam",,Clear
quan 7 ho chi minh,2/3/2024 20:00,29.0,29.0,29.0,21.0,62.05,31.3,16.6,,140.0,,0.0,,,10.0,,1011.0,,10.7051,106.737,"Quận 7, Hồ Chí Minh, Việt Nam","Quận 7, Hồ Chí Minh, Việt Nam",,Clear
quan 7 ho chi minh,2/3/2024 21:00,28.0,28.0,28.0,21.0,65.76,30.0,18.4,,130.0,,0.0,,,10.0,,1011.0,,10.7051,106.737,"Quận 7, Hồ Chí Minh, Việt Nam","Quận 7, Hồ Chí Minh, Việt Nam",,Clear
quan 7 ho chi minh,2/3/2024 22:00,28.0,28.0,28.0,21.0,65.76,30.0,14.8,,110.0,,0.0,,,10.0,,1012.0,,10.7051,106.737,"Quận 7, Hồ Chí Minh, Việt Nam","Quận 7, Hồ Chí Minh, Việt Nam",,Clear
quan 7 ho chi minh,2/3/2024 23:00,28.0,28.0,28.0,21.0,65.76,30.0,7.6,,110.0,,0.0,,,10.0,,1012.0,,10.7051,106.737,"Quận 7, Hồ Chí Minh, Việt Nam","Quận 7, Hồ Chí Minh, Việt Nam",,Clear
quan 7 ho chi minh,3/3/2024 0:00,28.0,28.0,28.0,21.0,65.76,30.0,7.6,,130.0,,0.0,,,10.0,25.0,1012.0,,10.7051,106.737,"Quận 7, Hồ Chí Minh, Việt Nam","Quận 7, Hồ Chí Minh, Việt Nam",,Clear
quan 7 ho chi minh,3/3/2024 1:00,28.0,28.0,28.0,21.0,65.76,30.0,9.4,,110.0,,0.0,,,10.0,25.0,1011.0,,10.7051,106.737,"Quận 7, Hồ Chí Minh, Việt Nam","Quận 7, Hồ Chí Minh, Việt Nam",,Clear
quan 7 ho chi minh,3/3/2024 2:00,27.0,27.0,27.0,21.0,69.73,28.7,7.6,,140.0,,0.0,,,10.0,25.0,1011.0,,10.7051,106.737,"Quận 7, Hồ Chí Minh, Việt Nam","Quận 7, Hồ Chí Minh, Việt Nam",,Clear
quan 7 ho chi minh,3/3/2024 3:00,27.0,27.0,27.0,21.0,69.73,28.7,5.4,,,,0.0,,,10.0,25.0,1011.0,,10.7051,106.737,"Quận 7, Hồ Chí Minh, Việt Nam","Quận 7, Hồ Chí Minh, Việt Nam",,Clear
quan 7 ho chi minh,3/3/2024 4:00,26.0,26.0,26.0,21.0,73.96,,11.2,,100.0,,0.0,,,10.0,25.0,1011.0,,10.7051,106.737,"Quận 7, Hồ Chí Minh, Việt Nam","Quận 7, Hồ Chí Minh, Việt Nam",,Clear
quan 7 ho chi minh,3/3/2024 5:00,26.0,26.0,26.0,21.0,73.96,,7.6,,110.0,,0.0,,,10.0,25.0,1011.0,,10.7051,106.737,"Quận 7, Hồ Chí Minh, Việt Nam","Quận 7, Hồ Chí Minh, Việt Nam",,Clear
quan 7 ho chi minh,3/3/2024 6:00,25.0,25.0,25.0,22.0,83.45,,9.4,,80.0,,0.0,,,10.0,25.0,1012.0,,10.7051,106.737,"Quận 7, Hồ Chí Minh, Việt Nam","Quận 7, Hồ Chí Minh, Việt Nam",,Clear
quan 7 ho chi minh,3/3/2024 7:00,27.0,27.0,27.0,22.0,74.13,29.1,3.6,,,,0.0,,,10.0,25.0,1013.0,,10.7051,106.737,"Quận 7, Hồ Chí Minh, Việt Nam","Quận 7, Hồ Chí Minh, Việt Nam",,Clear
quan 7 ho chi minh,3/3/2024 8:00,29.0,29.0,29.0,21.0,62.05,31.3,5.4,,,,0.0,,,10.0,,1013.0,,10.7051,106.737,"Quận 7, Hồ Chí Minh, Việt Nam","Quận 7, Hồ Chí Minh, Việt Nam",,Clear
quan 7 ho chi minh,3/3/2024 9:00,30.0,30.0,30.0,20.0,55.07,31.8,7.6,,120.0,,0.0,,,10.0,,1013.0,,10.7051,106.737,"Quận 7, Hồ Chí Minh, Việt Nam","Quận 7, Hồ Chí Minh, Việt Nam",,Clear
quan 7 ho chi minh,3/3/2024 10:00,31.0,31.0,31.0,20.0,52.0,32.9,3.6,,,,0.0,,,10.0,25.0,1013.0,,10.7051,106.737,"Quận 7, Hồ Chí Minh, Việt Nam","Quận 7, Hồ Chí Minh, Việt Nam",,Clear
quan 7 ho chi minh,3/3/2024 11:00,32.0,32.0,32.0,20.0,49.13,34.1,3.6,,,,0.0,,,10.0,25.0,1012.0,,10.7051,106.737,"Quận 7, Hồ Chí Minh, Việt Nam","Quận 7, Hồ Chí Minh, Việt Nam",,Clear
quan 7 ho chi minh,3/3/2024 12:00,34.0,34.0,34.0,20.0,43.9,36.4,3.6,,,,0.0,,,10.0,50.0,1011.0,,10.7051,106.737,"Quận 7, Hồ Chí Minh, Việt Nam","Quận 7, Hồ Chí Minh, Việt Nam",,Partially cloudy
quan 7 ho chi minh,3/3/2024 13:00,34.0,34.0,34.0,20.0,43.9,36.4,7.6,,40.0,,0.0,,,9.0,50.0,1010.0,,10.7051,106.737,"Quận 7, Hồ Chí Minh, Việt Nam","Quận 7, Hồ Chí Minh, Việt Nam",,Partially cloudy
quan 7 ho chi minh,3/3/2024 14:00,34.0,34.0,34.0,20.0,43.9,36.4,7.6,,200.0,,0.0,,,9.0,50.0,1009.0,,10.7051,106.737,"Quận 7, Hồ Chí Minh, Việt Nam","Quận 7, Hồ Chí Minh, Việt Nam",,Partially cloudy
quan 7 ho chi minh,3/3/2024 15:00,34.0,34.0,34.0,20.0,43.9,36.4,3.6,,,,0.0,,,10.0,50.0,1008.0,,10.7051,106.737,"Quận 7, Hồ Chí Minh, Việt Nam","Quận 7, Hồ Chí Minh, Việt Nam",,Partially cloudy
quan 8 ho chi minh,1/3/2024 17:00,32.0,32.0,32.0,20.0,49.13,34.1,20.5,,180.0,,0.0,,,10.0,50.0,1009.0,,10.7478,106.663,"Quận 8, Hồ Chí Minh, Việt Nam","Quận 8, Hồ Chí Minh, Việt Nam",,Partially cloudy
quan 8 ho chi minh,1/3/2024 18:00,31.0,31.0,31.0,21.0,55.31,33.6,11.2,,170.0,,0.0,,,10.0,50.0,1010.0,,10.7478,106.663,"Quận 8, Hồ Chí Minh, Việt Nam","Quận 8, Hồ Chí Minh, Việt Nam",,Partially cloudy
quan 8 ho chi minh,1/3/2024 19:00,31.0,31.0,31.0,19.0,48.87,32.3,16.6,,150.0,,0.0,,,10.0,50.0,1010.0,,10.7478,106.663,"Quận 8, Hồ Chí Minh, Việt Nam","Quận 8, Hồ Chí Minh, Việt Nam",,Partially cloudy
quan 8 ho chi minh,1/3/2024 20:00,30.0,30.0,30.0,19.0,51.75,31.3,20.5,,140.0,,0.0,,,10.0,50.0,1011.0,,10.7478,106.663,"Quận 8, Hồ Chí Minh, Việt Nam","Quận 8, Hồ Chí Minh, Việt Nam",,Partially cloudy
quan 8 ho chi minh,1/3/2024 21:00,29.0,29.0,29.0,20.0,58.34,30.7,18.4,,140.0,,0.0,,,10.0,50.0,1012.0,,10.7478,106.663,"Quận 8, Hồ Chí Minh, Việt Nam","Quận 8, Hồ Chí Minh, Việt Nam",,Partially cloudy
quan 8 ho chi minh,1/3/2024 22:00,28.0,28.0,28.0,21.0,65.76,30.0,20.5,,140.0,,0.0,,,10.0,25.0,1012.0,,10.7478,106.663,"Quận 8, Hồ Chí Minh, Việt Nam","Quận 8, Hồ Chí Minh, Việt Nam",,Clear
quan 8 ho chi minh,1/3/2024 23:00,28.0,28.0,28.0,21.0,65.76,30.0,13.0,,130.0,,0.0,,,10.0,25.0,1012.0,,10.7478,106.663,"Quận 8, Hồ Chí Minh, Việt Nam","Quận 8, Hồ Chí Minh, Việt Nam",,Clear
quan 8 ho chi minh,2/3/2024 0:00,28.0,28.0,28.0,21.0,65.76,30.0,13.0,,120.0,,0.0,,,10.0,25.0,1011.0,,10.7478,106.663,"Quận 8, Hồ Chí Minh, Việt Nam","Quận 8, Hồ Chí Minh, Việt Nam",,Clear
quan 8 ho chi minh,2/3/2024 1:00,28.0,28.0,28.0,21.0,65.76,30.0,13.0,,130.0,,0.0,,,10.0,25.0,1011.0,,10.7478,106.663,"Quận 8, Hồ Chí Minh, Việt Nam","Quận 8, Hồ Chí Minh, Việt Nam",,Clear
quan 8 ho chi minh,2/3/2024 2:00,27.0,27.0,27.0,21.0,69.73,28.7,7.6,,120.0,,0.0,,,10.0,25.0,1011.0,,10.7478,106.663,"Quận 8, Hồ Chí Minh, Việt Nam","Quận 8, Hồ Chí Minh, Việt Nam",,Clear
quan 8 ho chi minh,2/3/2024 3:00,27.0,27.0,27.0,22.0,74.13,29.1,9.4,,100.0,,0.0,,,10.0,50.0,1011.0,,10.7478,106.663,"Quận 8, Hồ Chí Minh, Việt Nam","Quận 8, Hồ Chí Minh, Việt Nam",,Partially cloudy
quan 8 ho chi minh,2/3/2024 4:00,26.0,26.0,26.0,22.0,78.63,,5.4,,90.0,,0.0,,,10.0,50.0,1010.0,,10.7478,106.663,"Quận 8, Hồ Chí Minh, Việt Nam","Quận 8, Hồ Chí Minh, Việt Nam",,Partially cloudy
quan 8 ho chi minh,2/3/2024 5:00,26.0,26.0,26.0,22.0,78.63,,7.6,,90.0,,0.0,,,10.0,50.0,1010.0,,10.7478,106.663,"Quận 8, Hồ Chí Minh, Việt Nam","Quận 8, Hồ Chí Minh, Việt Nam",,Partially cloudy
quan 8 ho chi minh,2/3/2024 6:00,26.0,26.0,26.0,22.0,78.63,,9.4,,80.0,,0.0,,,10.0,25.0,1011.0,,10.7478,106.663,"Quận 8, Hồ Chí Minh, Việt Nam","Quận 8, Hồ Chí Minh, Việt Nam",,Clear
quan 8 ho chi minh,2/3/2024 7:00,27.0,27.0,27.0,22.0,74.13,29.1,5.4,,,,0.0,,,10.0,,1012.0,,10.7478,106.663,"Quận 8, Hồ Chí Minh, Việt Nam","Quận 8, Hồ Chí Minh, Việt Nam",,Clear
quan 8 ho chi minh,2/3/2024 8:00,29.0,29.0,29.0,22.0,65.97,31.9,1.8,,,,0.0,,,9.0,,1013.0,,10.7478,106.663,"Quận 8, Hồ Chí Minh, Việt Nam","Quận 8, Hồ Chí Minh, Việt Nam",,Clear
quan 8 ho chi minh,2/3/2024 9:00,31.0,31.0,31.0,21.0,55.31,33.6,7.6,,130.0,,0.0,,,10.0,,1014.0,,10.7478,106.663,"Quận 8, Hồ Chí Minh, Việt Nam","Quận 8, Hồ Chí Minh, Việt Nam",,Clear
quan 8 ho chi minh,2/3/2024 10:00,31.0,31.0,31.0,19.0,48.87,32.3,5.4,,,,0.0,,,10.0,,1014.0,,10.7478,106.663,"Quận 8, Hồ Chí Minh, Việt Nam","Quận 8, Hồ Chí Minh, Việt Nam",,Clear
quan 8 ho chi minh,2/3/2024 11:00,33.0,33.0,33.0,19.0,43.63,34.5,9.4,,,,0.0,,,10.0,,1013.0,,10.7478,106.663,"Quận 8, Hồ Chí Minh, Việt Nam","Quận 8, Hồ Chí Minh, Việt Nam",,Clear
quan 8 ho chi minh,2/3/2024 12:00,34.0,34.0,34.0,19.0,41.25,35.7,3.6,,110.0,,0.0,,,10.0,25.0,1012.0,,10.7478,106.663,"Quận 8, Hồ Chí Minh, Việt Nam","Quận 8, Hồ Chí Minh, Việt Nam",,Clear
quan 8 ho chi minh,2/3/2024 13:00,34.0,34.0,34.0,20.0,43.9,36.4,9.4,,230.0,,0.0,,,10.0,50.0,1011.0,,10.7478,106.663,"Quận 8, Hồ Chí Minh, Việt Nam","Quận 8, Hồ Chí Minh, Việt Nam",,Partially cloudy
quan 8 ho chi minh,2/3/2024 14:00,35.0,35.0,35.0,20.0,41.52,37.6,5.4,,,,0.0,,,10.0,50.0,1010.0,,10.7478,106.663,"Quận 8, Hồ Chí Minh, Việt Nam","Quận 8, Hồ Chí Minh, Việt Nam",,Partially cloudy
quan 8 ho chi minh,2/3/2024 15:00,36.0,36.0,36.0,20.0,39.29,38.8,7.6,,180.0,,0.0,,,10.0,50.0,1009.0,,10.7478,106.663,"Quận 8, Hồ Chí Minh, Việt Nam","Quận 8, Hồ Chí Minh, Việt Nam",,Partially cloudy
quan 8 ho chi minh,2/3/2024 16:00,34.0,34.0,34.0,22.0,49.64,38.2,20.5,,190.0,,0.0,,,10.0,88.0,1009.0,,10.7478,106.663,"Quận 8, Hồ Chí Minh, Việt Nam","Quận 8, Hồ Chí Minh, Việt Nam",,Overcast
quan 8 ho chi minh,2/3/2024 17:00,32.0,32.0,32.0,22.0,55.55,35.7,16.6,,180.0,,0.0,,,10.0,50.0,1009.0,,10.7478,106.663,"Quận 8, Hồ Chí Minh, Việt Nam","Quận 8, Hồ Chí Minh, Việt Nam",,Partially cloudy
quan 8 ho chi minh,2/3/2024 18:00,31.0,31.0,31.0,22.0,58.8,34.4,16.6,,180.0,,0.0,,,10.0,25.0,1010.0,,10.7478,106.663,"Quận 8, Hồ Chí Minh, Việt Nam","Quận 8, Hồ Chí Minh, Việt Nam",,Clear
quan 8 ho chi minh,2/3/2024 19:00,30.0,30.0,30.0,21.0,58.57,32.5,16.6,,140.0,,0.0,,,10.0,25.0,1010.0,,10.7478,106.663,"Quận 8, Hồ Chí Minh, Việt Nam","Quận 8, Hồ Chí Minh, Việt Nam",,Clear
quan 8 ho chi minh,2/3/2024 20:00,29.0,29.0,29.0,21.0,62.05,31.3,16.6,,140.0,,0.0,,,10.0,,1011.0,,10.7478,106.663,"Quận 8, Hồ Chí Minh, Việt Nam","Quận 8, Hồ Chí Minh, Việt Nam",,Clear
quan 8 ho chi minh,2/3/2024 21:00,28.0,28.0,28.0,21.0,65.76,30.0,18.4,,130.0,,0.0,,,10.0,,1011.0,,10.7478,106.663,"Quận 8, Hồ Chí Minh, Việt Nam","Quận 8, Hồ Chí Minh, Việt Nam",,Clear
quan 8 ho chi minh,2/3/2024 22:00,28.0,28.0,28.0,21.0,65.76,30.0,14.8,,110.0,,0.0,,,10.0,,1012.0,,10.7478,106.663,"Quận 8, Hồ Chí Minh, Việt Nam","Quận 8, Hồ Chí Minh, Việt Nam",,Clear
quan 8 ho chi minh,2/3/2024 23:00,28.0,28.0,28.0,21.0,65.76,30.0,7.6,,110.0,,0.0,,,10.0,,1012.0,,10.7478,106.663,"Quận 8, Hồ Chí Minh, Việt Nam","Quận 8, Hồ Chí Minh, Việt Nam",,Clear
quan 8 ho chi minh,3/3/2024 0:00,28.0,28.0,28.0,21.0,65.76,30.0,7.6,,130.0,,0.0,,,10.0,25.0,1012.0,,10.7478,106.663,"Quận 8, Hồ Chí Minh, Việt Nam","Quận 8, Hồ Chí Minh, Việt Nam",,Clear
quan 8 ho chi minh,3/3/2024 1:00,28.0,28.0,28.0,21.0,65.76,30.0,9.4,,110.0,,0.0,,,10.0,25.0,1011.0,,10.7478,106.663,"Quận 8, Hồ Chí Minh, Việt Nam","Quận 8, Hồ Chí Minh, Việt Nam",,Clear
quan 8 ho chi minh,3/3/2024 2:00,27.0,27.0,27.0,21.0,69.73,28.7,7.6,,140.0,,0.0,,,10.0,25.0,1011.0,,10.7478,106.663,"Quận 8, Hồ Chí Minh, Việt Nam","Quận 8, Hồ Chí Minh, Việt Nam",,Clear
quan 8 ho chi minh,3/3/2024 3:00,27.0,27.0,27.0,21.0,69.73,28.7,5.4,,,,0.0,,,10.0,25.0,1011.0,,10.7478,106.663,"Quận 8, Hồ Chí Minh, Việt Nam","Quận 8, Hồ Chí Minh, Việt Nam",,Clear
quan 8 ho chi minh,3/3/2024 4:00,26.0,26.0,26.0,21.0,73.96,,11.2,,100.0,,0.0,,,10.0,25.0,1011.0,,10.7478,106.663,"Quận 8, Hồ Chí Minh, Việt Nam","Quận 8, Hồ Chí Minh, Việt Nam",,Clear
quan 8 ho chi minh,3/3/2024 5:00,26.0,26.0,26.0,21.0,73.96,,7.6,,110.0,,0.0,,,10.0,25.0,1011.0,,10.7478,106.663,"Quận 8, Hồ Chí Minh, Việt Nam","Quận 8, Hồ Chí Minh, Việt Nam",,Clear
quan 8 ho chi minh,3/3/2024 6:00,25.0,25.0,25.0,22.0,83.45,,9.4,,80.0,,0.0,,,10.0,25.0,1012.0,,10.7478,106.663,"Quận 8, Hồ Chí Minh, Việt Nam","Quận 8, Hồ Chí Minh, Việt Nam",,Clear
quan 8 ho chi minh,3/3/2024 7:00,27.0,27.0,27.0,22.0,74.13,29.1,3.6,,,,0.0,,,10.0,25.0,1013.0,,10.7478,106.663,"Quận 8, Hồ Chí Minh, Việt Nam","Quận 8, Hồ Chí Minh, Việt Nam",,Clear
quan 8 ho chi minh,3/3/2024 8:00,29.0,29.0,29.0,21.0,62.05,31.3,5.4,,,,0.0,,,10.0,,1013.0,,10.7478,106.663,"Quận 8, Hồ Chí Minh, Việt Nam","Quận 8, Hồ Chí Minh, Việt Nam",,Clear
quan 8 ho chi minh,3/3/2024 9:00,30.0,30.0,30.0,20.0,55.07,31.8,7.6,,120.0,,0.0,,,10.0,,1013.0,,10.7478,106.663,"Quận 8, Hồ Chí Minh, Việt Nam","Quận 8, Hồ Chí Minh, Việt Nam",,Clear
quan 8 ho chi minh,3/3/2024 10:00,31.0,31.0,31.0,20.0,52.0,32.9,3.6,,,,0.0,,,10.0,25.0,1013.0,,10.7478,106.663,"Quận 8, Hồ Chí Minh, Việt Nam","Quận 8, Hồ Chí Minh, Việt Nam",,Clear
quan 8 ho chi minh,3/3/2024 11:00,32.0,32.0,32.0,20.0,49.13,34.1,3.6,,,,0.0,,,10.0,25.0,1012.0,,10.7478,106.663,"Quận 8, Hồ Chí Minh, Việt Nam","Quận 8, Hồ Chí Minh, Việt Nam",,Clear
quan 8 ho chi minh,3/3/2024 12:00,34.0,34.0,34.0,20.0,43.9,36.4,3.6,,,,0.0,,,10.0,50.0,1011.0,,10.7478,106.663,"Quận 8, Hồ Chí Minh, Việt Nam","Quận 8, Hồ Chí Minh, Việt Nam",,Partially cloudy
quan 8 ho chi minh,3/3/2024 13:00,34.0,34.0,34.0,20.0,43.9,36.4,7.6,,40.0,,0.0,,,9.0,50.0,1010.0,,10.7478,106.663,"Quận 8, Hồ Chí Minh, Việt Nam","Quận 8, Hồ Chí Minh, Việt Nam",,Partially cloudy
quan 8 ho chi minh,3/3/2024 14:00,34.0,34.0,34.0,20.0,43.9,36.4,7.6,,200.0,,0.0,,,9.0,50.0,1009.0,,10.7478,106.663,"Quận 8, Hồ Chí Minh, Việt Nam","Quận 8, Hồ Chí Minh, Việt Nam",,Partially cloudy
quan 8 ho chi minh,3/3/2024 15:00,34.0,34.0,34.0,20.0,43.9,36.4,3.6,,,,0.0,,,10.0,50.0,1008.0,,10.7478,106.663,"Quận 8, Hồ Chí Minh, Việt Nam","Quận 8, Hồ Chí Minh, Việt Nam",,Partially cloudy
quan 9 ho chi minh,1/3/2024 17:00,32.0,32.0,32.0,20.0,49.13,34.1,20.5,,180.0,,0.0,,,10.0,50.0,1009.0,,10.7467,106.739,"Đường 9, 72909 Hồ Chí Minh, Việt Nam","Đường 9, 72909 Hồ Chí Minh, Việt Nam",,Partially cloudy
quan 9 ho chi minh,1/3/2024 18:00,31.0,31.0,31.0,21.0,55.31,33.6,11.2,,170.0,,0.0,,,10.0,50.0,1010.0,,10.7467,106.739,"Đường 9, 72909 Hồ Chí Minh, Việt Nam","Đường 9, 72909 Hồ Chí Minh, Việt Nam",,Partially cloudy
quan 9 ho chi minh,1/3/2024 19:00,31.0,31.0,31.0,19.0,48.87,32.3,16.6,,150.0,,0.0,,,10.0,50.0,1010.0,,10.7467,106.739,"Đường 9, 72909 Hồ Chí Minh, Việt Nam","Đường 9, 72909 Hồ Chí Minh, Việt Nam",,Partially cloudy
quan 9 ho chi minh,1/3/2024 20:00,30.0,30.0,30.0,19.0,51.75,31.3,20.5,,140.0,,0.0,,,10.0,50.0,1011.0,,10.7467,106.739,"Đường 9, 72909 Hồ Chí Minh, Việt Nam","Đường 9, 72909 Hồ Chí Minh, Việt Nam",,Partially cloudy
quan 9 ho chi minh,1/3/2024 21:00,29.0,29.0,29.0,20.0,58.34,30.7,18.4,,140.0,,0.0,,,10.0,50.0,1012.0,,10.7467,106.739,"Đường 9, 72909 Hồ Chí Minh, Việt Nam","Đường 9, 72909 Hồ Chí Minh, Việt Nam",,Partially cloudy
quan 9 ho chi minh,1/3/2024 22:00,28.0,28.0,28.0,21.0,65.76,30.0,20.5,,140.0,,0.0,,,10.0,25.0,1012.0,,10.7467,106.739,"Đường 9, 72909 Hồ Chí Minh, Việt Nam","Đường 9, 72909 Hồ Chí Minh, Việt Nam",,Clear
quan 9 ho chi minh,1/3/2024 23:00,28.0,28.0,28.0,21.0,65.76,30.0,13.0,,130.0,,0.0,,,10.0,25.0,1012.0,,10.7467,106.739,"Đường 9, 72909 Hồ Chí Minh, Việt Nam","Đường 9, 72909 Hồ Chí Minh, Việt Nam",,Clear
quan 9 ho chi minh,2/3/2024 0:00,28.0,28.0,28.0,21.0,65.76,30.0,13.0,,120.0,,0.0,,,10.0,25.0,1011.0,,10.7467,106.739,"Đường 9, 72909 Hồ Chí Minh, Việt Nam","Đường 9, 72909 Hồ Chí Minh, Việt Nam",,Clear
quan 9 ho chi minh,2/3/2024 1:00,28.0,28.0,28.0,21.0,65.76,30.0,13.0,,130.0,,0.0,,,10.0,25.0,1011.0,,10.7467,106.739,"Đường 9, 72909 Hồ Chí Minh, Việt Nam","Đường 9, 72909 Hồ Chí Minh, Việt Nam",,Clear
quan 9 ho chi minh,2/3/2024 2:00,27.0,27.0,27.0,21.0,69.73,28.7,7.6,,120.0,,0.0,,,10.0,25.0,1011.0,,10.7467,106.739,"Đường 9, 72909 Hồ Chí Minh, Việt Nam","Đường 9, 72909 Hồ Chí Minh, Việt Nam",,Clear
quan 9 ho chi minh,2/3/2024 3:00,27.0,27.0,27.0,22.0,74.13,29.1,9.4,,100.0,,0.0,,,10.0,50.0,1011.0,,10.7467,106.739,"Đường 9, 72909 Hồ Chí Minh, Việt Nam","Đường 9, 72909 Hồ Chí Minh, Việt Nam",,Partially cloudy
quan 9 ho chi minh,2/3/2024 4:00,26.0,26.0,26.0,22.0,78.63,,5.4,,90.0,,0.0,,,10.0,50.0,1010.0,,10.7467,106.739,"Đường 9, 72909 Hồ Chí Minh, Việt Nam","Đường 9, 72909 Hồ Chí Minh, Việt Nam",,Partially cloudy
quan 9 ho chi minh,2/3/2024 5:00,26.0,26.0,26.0,22.0,78.63,,7.6,,90.0,,0.0,,,10.0,50.0,1010.0,,10.7467,106.739,"Đường 9, 72909 Hồ Chí Minh, Việt Nam","Đường 9, 72909 Hồ Chí Minh, Việt Nam",,Partially cloudy
quan 9 ho chi minh,2/3/2024 6:00,26.0,26.0,26.0,22.0,78.63,,9.4,,80.0,,0.0,,,10.0,25.0,1011.0,,10.7467,106.739,"Đường 9, 72909 Hồ Chí Minh, Việt Nam","Đường 9, 72909 Hồ Chí Minh, Việt Nam",,Clear
quan 9 ho chi minh,2/3/2024 7:00,27.0,27.0,27.0,22.0,74.13,29.1,5.4,,,,0.0,,,10.0,,1012.0,,10.7467,106.739,"Đường 9, 72909 Hồ Chí Minh, Việt Nam","Đường 9, 72909 Hồ Chí Minh, Việt Nam",,Clear
quan 9 ho chi minh,2/3/2024 8:00,29.0,29.0,29.0,22.0,65.97,31.9,1.8,,,,0.0,,,9.0,,1013.0,,10.7467,106.739,"Đường 9, 72909 Hồ Chí Minh, Việt Nam","Đường 9, 72909 Hồ Chí Minh, Việt Nam",,Clear
quan 9 ho chi minh,2/3/2024 9:00,31.0,31.0,31.0,21.0,55.31,33.6,7.6,,130.0,,0.0,,,10.0,,1014.0,,10.7467,106.739,"Đường 9, 72909 Hồ Chí Minh, Việt Nam","Đường 9, 72909 Hồ Chí Minh, Việt Nam",,Clear
quan 9 ho chi minh,2/3/2024 10:00,31.0,31.0,31.0,19.0,48.87,32.3,5.4,,,,0.0,,,10.0,,1014.0,,10.7467,106.739,"Đường 9, 72909 Hồ Chí Minh, Việt Nam","Đường 9, 72909 Hồ Chí Minh, Việt Nam",,Clear
quan 9 ho chi minh,2/3/2024 11:00,33.0,33.0,33.0,19.0,43.63,34.5,9.4,,,,0.0,,,10.0,,1013.0,,10.7467,106.739,"Đường 9, 72909 Hồ Chí Minh, Việt Nam","Đường 9, 72909 Hồ Chí Minh, Việt Nam",,Clear
quan 9 ho chi minh,2/3/2024 12:00,34.0,34.0,34.0,19.0,41.25,35.7,3.6,,110.0,,0.0,,,10.0,25.0,1012.0,,10.7467,106.739,"Đường 9, 72909 Hồ Chí Minh, Việt Nam","Đường 9, 72909 Hồ Chí Minh, Việt Nam",,Clear
quan 9 ho chi minh,2/3/2024 13:00,34.0,34.0,34.0,20.0,43.9,36.4,9.4,,230.0,,0.0,,,10.0,50.0,1011.0,,10.7467,106.739,"Đường 9, 72909 Hồ Chí Minh, Việt Nam","Đường 9, 72909 Hồ Chí Minh, Việt Nam",,Partially cloudy
quan 9 ho chi minh,2/3/2024 14:00,35.0,35.0,35.0,20.0,41.52,37.6,5.4,,,,0.0,,,10.0,50.0,1010.0,,10.7467,106.739,"Đường 9, 72909 Hồ Chí Minh, Việt Nam","Đường 9, 72909 Hồ Chí Minh, Việt Nam",,Partially cloudy
quan 9 ho chi minh,2/3/2024 15:00,36.0,36.0,36.0,20.0,39.29,38.8,7.6,,180.0,,0.0,,,10.0,50.0,1009.0,,10.7467,106.739,"Đường 9, 72909 Hồ Chí Minh, Việt Nam","Đường 9, 72909 Hồ Chí Minh, Việt Nam",,Partially cloudy
quan 9 ho chi minh,2/3/2024 16:00,34.0,34.0,34.0,22.0,49.64,38.2,20.5,,190.0,,0.0,,,10.0,88.0,1009.0,,10.7467,106.739,"Đường 9, 72909 Hồ Chí Minh, Việt Nam","Đường 9, 72909 Hồ Chí Minh, Việt Nam",,Overcast
quan 9 ho chi minh,2/3/2024 17:00,32.0,32.0,32.0,22.0,55.55,35.7,16.6,,180.0,,0.0,,,10.0,50.0,1009.0,,10.7467,106.739,"Đường 9, 72909 Hồ Chí Minh, Việt Nam","Đường 9, 72909 Hồ Chí Minh, Việt Nam",,Partially cloudy
quan 9 ho chi minh,2/3/2024 18:00,31.0,31.0,31.0,22.0,58.8,34.4,16.6,,180.0,,0.0,,,10.0,25.0,1010.0,,10.7467,106.739,"Đường 9, 72909 Hồ Chí Minh, Việt Nam","Đường 9, 72909 Hồ Chí Minh, Việt Nam",,Clear
quan 9 ho chi minh,2/3/2024 19:00,30.0,30.0,30.0,21.0,58.57,32.5,16.6,,140.0,,0.0,,,10.0,25.0,1010.0,,10.7467,106.739,"Đường 9, 72909 Hồ Chí Minh, Việt Nam","Đường 9, 72909 Hồ Chí Minh, Việt Nam",,Clear
quan 9 ho chi minh,2/3/2024 20:00,29.0,29.0,29.0,21.0,62.05,31.3,16.6,,140.0,,0.0,,,10.0,,1011.0,,10.7467,106.739,"Đường 9, 72909 Hồ Chí Minh, Việt Nam","Đường 9, 72909 Hồ Chí Minh, Việt Nam",,Clear
quan 9 ho chi minh,2/3/2024 21:00,28.0,28.0,28.0,21.0,65.76,30.0,18.4,,130.0,,0.0,,,10.0,,1011.0,,10.7467,106.739,"Đường 9, 72909 Hồ Chí Minh, Việt Nam","Đường 9, 72909 Hồ Chí Minh, Việt Nam",,Clear
quan 9 ho chi minh,2/3/2024 22:00,28.0,28.0,28.0,21.0,65.76,30.0,14.8,,110.0,,0.0,,,10.0,,1012.0,,10.7467,106.739,"Đường 9, 72909 Hồ Chí Minh, Việt Nam","Đường 9, 72909 Hồ Chí Minh, Việt Nam",,Clear
quan 9 ho chi minh,2/3/2024 23:00,28.0,28.0,28.0,21.0,65.76,30.0,7.6,,110.0,,0.0,,,10.0,,1012.0,,10.7467,106.739,"Đường 9, 72909 Hồ Chí Minh, Việt Nam","Đường 9, 72909 Hồ Chí Minh, Việt Nam",,Clear
quan 9 ho chi minh,3/3/2024 0:00,28.0,28.0,28.0,21.0,65.76,30.0,7.6,,130.0,,0.0,,,10.0,25.0,1012.0,,10.7467,106.739,"Đường 9, 72909 Hồ Chí Minh, Việt Nam","Đường 9, 72909 Hồ Chí Minh, Việt Nam",,Clear
quan 9 ho chi minh,3/3/2024 1:00,28.0,28.0,28.0,21.0,65.76,30.0,9.4,,110.0,,0.0,,,10.0,25.0,1011.0,,10.7467,106.739,"Đường 9, 72909 Hồ Chí Minh, Việt Nam","Đường 9, 72909 Hồ Chí Minh, Việt Nam",,Clear
quan 9 ho chi minh,3/3/2024 2:00,27.0,27.0,27.0,21.0,69.73,28.7,7.6,,140.0,,0.0,,,10.0,25.0,1011.0,,10.7467,106.739,"Đường 9, 72909 Hồ Chí Minh, Việt Nam","Đường 9, 72909 Hồ Chí Minh, Việt Nam",,Clear
quan 9 ho chi minh,3/3/2024 3:00,27.0,27.0,27.0,21.0,69.73,28.7,5.4,,,,0.0,,,10.0,25.0,1011.0,,10.7467,106.739,"Đường 9, 72909 Hồ Chí Minh, Việt Nam","Đường 9, 72909 Hồ Chí Minh, Việt Nam",,Clear
quan 9 ho chi minh,3/3/2024 4:00,26.0,26.0,26.0,21.0,73.96,,11.2,,100.0,,0.0,,,10.0,25.0,1011.0,,10.7467,106.739,"Đường 9, 72909 Hồ Chí Minh, Việt Nam","Đường 9, 72909 Hồ Chí Minh, Việt Nam",,Clear
quan 9 ho chi minh,3/3/2024 5:00,26.0,26.0,26.0,21.0,73.96,,7.6,,110.0,,0.0,,,10.0,25.0,1011.0,,10.7467,106.739,"Đường 9, 72909 Hồ Chí Minh, Việt Nam","Đường 9, 72909 Hồ Chí Minh, Việt Nam",,Clear
quan 9 ho chi minh,3/3/2024 6:00,25.0,25.0,25.0,22.0,83.45,,9.4,,80.0,,0.0,,,10.0,25.0,1012.0,,10.7467,106.739,"Đường 9, 72909 Hồ Chí Minh, Việt Nam","Đường 9, 72909 Hồ Chí Minh, Việt Nam",,Clear
quan 9 ho chi minh,3/3/2024 7:00,27.0,27.0,27.0,22.0,74.13,29.1,3.6,,,,0.0,,,10.0,25.0,1013.0,,10.7467,106.739,"Đường 9, 72909 Hồ Chí Minh, Việt Nam","Đường 9, 72909 Hồ Chí Minh, Việt Nam",,Clear
quan 9 ho chi minh,3/3/2024 8:00,29.0,29.0,29.0,21.0,62.05,31.3,5.4,,,,0.0,,,10.0,,1013.0,,10.7467,106.739,"Đường 9, 72909 Hồ Chí Minh, Việt Nam","Đường 9, 72909 Hồ Chí Minh, Việt Nam",,Clear
quan 9 ho chi minh,3/3/2024 9:00,30.0,30.0,30.0,20.0,55.07,31.8,7.6,,120.0,,0.0,,,10.0,,1013.0,,10.7467,106.739,"Đường 9, 72909 Hồ Chí Minh, Việt Nam","Đường 9, 72909 Hồ Chí Minh, Việt Nam",,Clear
quan 9 ho chi minh,3/3/2024 10:00,31.0,31.0,31.0,20.0,52.0,32.9,3.6,,,,0.0,,,10.0,25.0,1013.0,,10.7467,106.739,"Đường 9, 72909 Hồ Chí Minh, Việt Nam","Đường 9, 72909 Hồ Chí Minh, Việt Nam",,Clear
quan 9 ho chi minh,3/3/2024 11:00,32.0,32.0,32.0,20.0,49.13,34.1,3.6,,,,0.0,,,10.0,25.0,1012.0,,10.7467,106.739,"Đường 9, 72909 Hồ Chí Minh, Việt Nam","Đường 9, 72909 Hồ Chí Minh, Việt Nam",,Clear
quan 9 ho chi minh,3/3/2024 12:00,34.0,34.0,34.0,20.0,43.9,36.4,3.6,,,,0.0,,,10.0,50.0,1011.0,,10.7467,106.739,"Đường 9, 72909 Hồ Chí Minh, Việt Nam","Đường 9, 72909 Hồ Chí Minh, Việt Nam",,Partially cloudy
quan 9 ho chi minh,3/3/2024 13:00,34.0,34.0,34.0,20.0,43.9,36.4,7.6,,40.0,,0.0,,,9.0,50.0,1010.0,,10.7467,106.739,"Đường 9, 72909 Hồ Chí Minh, Việt Nam","Đường 9, 72909 Hồ Chí Minh, Việt Nam",,Partially cloudy
quan 9 ho chi minh,3/3/2024 14:00,34.0,34.0,34.0,20.0,43.9,36.4,7.6,,200.0,,0.0,,,9.0,50.0,1009.0,,10.7467,106.739,"Đường 9, 72909 Hồ Chí Minh, Việt Nam","Đường 9, 72909 Hồ Chí Minh, Việt Nam",,Partially cloudy
quan 9 ho chi minh,3/3/2024 15:00,34.0,34.0,34.0,20.0,43.9,36.4,3.6,,,,0.0,,,10.0,50.0,1008.0,,10.7467,106.739,"Đường 9, 72909 Hồ Chí Minh, Việt Nam","Đường 9, 72909 Hồ Chí Minh, Việt Nam",,Partially cloudy
quan 10 ho chi minh,1/3/2024 17:00,32.0,32.0,32.0,20.0,49.13,34.1,20.5,,180.0,,0.0,,,10.0,50.0,1009.0,,10.7672,106.667,"Quận 10, Hồ Chí Minh, Việt Nam","Quận 10, Hồ Chí Minh, Việt Nam",,Partially cloudy
quan 10 ho chi minh,1/3/2024 18:00,31.0,31.0,31.0,21.0,55.31,33.6,11.2,,170.0,,0.0,,,10.0,50.0,1010.0,,10.7672,106.667,"Quận 10, Hồ Chí Minh, Việt Nam","Quận 10, Hồ Chí Minh, Việt Nam",,Partially cloudy
quan 10 ho chi minh,1/3/2024 19:00,31.0,31.0,31.0,19.0,48.87,32.3,16.6,,150.0,,0.0,,,10.0,50.0,1010.0,,10.7672,106.667,"Quận 10, Hồ Chí Minh, Việt Nam","Quận 10, Hồ Chí Minh, Việt Nam",,Partially cloudy
quan 10 ho chi minh,1/3/2024 20:00,30.0,30.0,30.0,19.0,51.75,31.3,20.5,,140.0,,0.0,,,10.0,50.0,1011.0,,10.7672,106.667,"Quận 10, Hồ Chí Minh, Việt Nam","Quận 10, Hồ Chí Minh, Việt Nam",,Partially cloudy
quan 10 ho chi minh,1/3/2024 21:00,29.0,29.0,29.0,20.0,58.34,30.7,18.4,,140.0,,0.0,,,10.0,50.0,1012.0,,10.7672,106.667,"Quận 10, Hồ Chí Minh, Việt Nam","Quận 10, Hồ Chí Minh, Việt Nam",,Partially cloudy
quan 10 ho chi minh,1/3/2024 22:00,28.0,28.0,28.0,21.0,65.76,30.0,20.5,,140.0,,0.0,,,10.0,25.0,1012.0,,10.7672,106.667,"Quận 10, Hồ Chí Minh, Việt Nam","Quận 10, Hồ Chí Minh, Việt Nam",,Clear
quan 10 ho chi minh,1/3/2024 23:00,28.0,28.0,28.0,21.0,65.76,30.0,13.0,,130.0,,0.0,,,10.0,25.0,1012.0,,10.7672,106.667,"Quận 10, Hồ Chí Minh, Việt Nam","Quận 10, Hồ Chí Minh, Việt Nam",,Clear
quan 10 ho chi minh,2/3/2024 0:00,28.0,28.0,28.0,21.0,65.76,30.0,13.0,,120.0,,0.0,,,10.0,25.0,1011.0,,10.7672,106.667,"Quận 10, Hồ Chí Minh, Việt Nam","Quận 10, Hồ Chí Minh, Việt Nam",,Clear
quan 10 ho chi minh,2/3/2024 1:00,28.0,28.0,28.0,21.0,65.76,30.0,13.0,,130.0,,0.0,,,10.0,25.0,1011.0,,10.7672,106.667,"Quận 10, Hồ Chí Minh, Việt Nam","Quận 10, Hồ Chí Minh, Việt Nam",,Clear
quan 10 ho chi minh,2/3/2024 2:00,27.0,27.0,27.0,21.0,69.73,28.7,7.6,,120.0,,0.0,,,10.0,25.0,1011.0,,10.7672,106.667,"Quận 10, Hồ Chí Minh, Việt Nam","Quận 10, Hồ Chí Minh, Việt Nam",,Clear
quan 10 ho chi minh,2/3/2024 3:00,27.0,27.0,27.0,22.0,74.13,29.1,9.4,,100.0,,0.0,,,10.0,50.0,1011.0,,10.7672,106.667,"Quận 10, Hồ Chí Minh, Việt Nam","Quận 10, Hồ Chí Minh, Việt Nam",,Partially cloudy
quan 10 ho chi minh,2/3/2024 4:00,26.0,26.0,26.0,22.0,78.63,,5.4,,90.0,,0.0,,,10.0,50.0,1010.0,,10.7672,106.667,"Quận 10, Hồ Chí Minh, Việt Nam","Quận 10, Hồ Chí Minh, Việt Nam",,Partially cloudy
quan 10 ho chi minh,2/3/2024 5:00,26.0,26.0,26.0,22.0,78.63,,7.6,,90.0,,0.0,,,10.0,50.0,1010.0,,10.7672,106.667,"Quận 10, Hồ Chí Minh, Việt Nam","Quận 10, Hồ Chí Minh, Việt Nam",,Partially cloudy
quan 10 ho chi minh,2/3/2024 6:00,26.0,26.0,26.0,22.0,78.63,,9.4,,80.0,,0.0,,,10.0,25.0,1011.0,,10.7672,106.667,"Quận 10, Hồ Chí Minh, Việt Nam","Quận 10, Hồ Chí Minh, Việt Nam",,Clear
quan 10 ho chi minh,2/3/2024 7:00,27.0,27.0,27.0,22.0,74.13,29.1,5.4,,,,0.0,,,10.0,,1012.0,,10.7672,106.667,"Quận 10, Hồ Chí Minh, Việt Nam","Quận 10, Hồ Chí Minh, Việt Nam",,Clear
quan 10 ho chi minh,2/3/2024 8:00,29.0,29.0,29.0,22.0,65.97,31.9,1.8,,,,0.0,,,9.0,,1013.0,,10.7672,106.667,"Quận 10, Hồ Chí Minh, Việt Nam","Quận 10, Hồ Chí Minh, Việt Nam",,Clear
quan 10 ho chi minh,2/3/2024 9:00,31.0,31.0,31.0,21.0,55.31,33.6,7.6,,130.0,,0.0,,,10.0,,1014.0,,10.7672,106.667,"Quận 10, Hồ Chí Minh, Việt Nam","Quận 10, Hồ Chí Minh, Việt Nam",,Clear
quan 10 ho chi minh,2/3/2024 10:00,31.0,31.0,31.0,19.0,48.87,32.3,5.4,,,,0.0,,,10.0,,1014.0,,10.7672,106.667,"Quận 10, Hồ Chí Minh, Việt Nam","Quận 10, Hồ Chí Minh, Việt Nam",,Clear
quan 10 ho chi minh,2/3/2024 11:00,33.0,33.0,33.0,19.0,43.63,34.5,9.4,,,,0.0,,,10.0,,1013.0,,10.7672,106.667,"Quận 10, Hồ Chí Minh, Việt Nam","Quận 10, Hồ Chí Minh, Việt Nam",,Clear
quan 10 ho chi minh,2/3/2024 12:00,34.0,34.0,34.0,19.0,41.25,35.7,3.6,,110.0,,0.0,,,10.0,25.0,1012.0,,10.7672,106.667,"Quận 10, Hồ Chí Minh, Việt Nam","Quận 10, Hồ Chí Minh, Việt Nam",,Clear
quan 10 ho chi minh,2/3/2024 13:00,34.0,34.0,34.0,20.0,43.9,36.4,9.4,,230.0,,0.0,,,10.0,50.0,1011.0,,10.7672,106.667,"Quận 10, Hồ Chí Minh, Việt Nam","Quận 10, Hồ Chí Minh, Việt Nam",,Partially cloudy
quan 10 ho chi minh,2/3/2024 14:00,35.0,35.0,35.0,20.0,41.52,37.6,5.4,,,,0.0,,,10.0,50.0,1010.0,,10.7672,106.667,"Quận 10, Hồ Chí Minh, Việt Nam","Quận 10, Hồ Chí Minh, Việt Nam",,Partially cloudy
quan 10 ho chi minh,2/3/2024 15:00,36.0,36.0,36.0,20.0,39.29,38.8,7.6,,180.0,,0.0,,,10.0,50.0,1009.0,,10.7672,106.667,"Quận 10, Hồ Chí Minh, Việt Nam","Quận 10, Hồ Chí Minh, Việt Nam",,Partially cloudy
quan 10 ho chi minh,2/3/2024 16:00,34.0,34.0,34.0,22.0,49.64,38.2,20.5,,190.0,,0.0,,,10.0,88.0,1009.0,,10.7672,106.667,"Quận 10, Hồ Chí Minh, Việt Nam","Quận 10, Hồ Chí Minh, Việt Nam",,Overcast
quan 10 ho chi minh,2/3/2024 17:00,32.0,32.0,32.0,22.0,55.55,35.7,16.6,,180.0,,0.0,,,10.0,50.0,1009.0,,10.7672,106.667,"Quận 10, Hồ Chí Minh, Việt Nam","Quận 10, Hồ Chí Minh, Việt Nam",,Partially cloudy
quan 10 ho chi minh,2/3/2024 18:00,31.0,31.0,31.0,22.0,58.8,34.4,16.6,,180.0,,0.0,,,10.0,25.0,1010.0,,10.7672,106.667,"Quận 10, Hồ Chí Minh, Việt Nam","Quận 10, Hồ Chí Minh, Việt Nam",,Clear
quan 10 ho chi minh,2/3/2024 19:00,30.0,30.0,30.0,21.0,58.57,32.5,16.6,,140.0,,0.0,,,10.0,25.0,1010.0,,10.7672,106.667,"Quận 10, Hồ Chí Minh, Việt Nam","Quận 10, Hồ Chí Minh, Việt Nam",,Clear
quan 10 ho chi minh,2/3/2024 20:00,29.0,29.0,29.0,21.0,62.05,31.3,16.6,,140.0,,0.0,,,10.0,,1011.0,,10.7672,106.667,"Quận 10, Hồ Chí Minh, Việt Nam","Quận 10, Hồ Chí Minh, Việt Nam",,Clear
quan 10 ho chi minh,2/3/2024 21:00,28.0,28.0,28.0,21.0,65.76,30.0,18.4,,130.0,,0.0,,,10.0,,1011.0,,10.7672,106.667,"Quận 10, Hồ Chí Minh, Việt Nam","Quận 10, Hồ Chí Minh, Việt Nam",,Clear
quan 10 ho chi minh,2/3/2024 22:00,28.0,28.0,28.0,21.0,65.76,30.0,14.8,,110.0,,0.0,,,10.0,,1012.0,,10.7672,106.667,"Quận 10, Hồ Chí Minh, Việt Nam","Quận 10, Hồ Chí Minh, Việt Nam",,Clear
quan 10 ho chi minh,2/3/2024 23:00,28.0,28.0,28.0,21.0,65.76,30.0,7.6,,110.0,,0.0,,,10.0,,1012.0,,10.7672,106.667,"Quận 10, Hồ Chí Minh, Việt Nam","Quận 10, Hồ Chí Minh, Việt Nam",,Clear
quan 10 ho chi minh,3/3/2024 0:00,28.0,28.0,28.0,21.0,65.76,30.0,7.6,,130.0,,0.0,,,10.0,25.0,1012.0,,10.7672,106.667,"Quận 10, Hồ Chí Minh, Việt Nam","Quận 10, Hồ Chí Minh, Việt Nam",,Clear
quan 10 ho chi minh,3/3/2024 1:00,28.0,28.0,28.0,21.0,65.76,30.0,9.4,,110.0,,0.0,,,10.0,25.0,1011.0,,10.7672,106.667,"Quận 10, Hồ Chí Minh, Việt Nam","Quận 10, Hồ Chí Minh, Việt Nam",,Clear
quan 10 ho chi minh,3/3/2024 2:00,27.0,27.0,27.0,21.0,69.73,28.7,7.6,,140.0,,0.0,,,10.0,25.0,1011.0,,10.7672,106.667,"Quận 10, Hồ Chí Minh, Việt Nam","Quận 10, Hồ Chí Minh, Việt Nam",,Clear
quan 10 ho chi minh,3/3/2024 3:00,27.0,27.0,27.0,21.0,69.73,28.7,5.4,,,,0.0,,,10.0,25.0,1011.0,,10.7672,106.667,"Quận 10, Hồ Chí Minh, Việt Nam","Quận 10, Hồ Chí Minh, Việt Nam",,Clear
quan 10 ho chi minh,3/3/2024 4:00,26.0,26.0,26.0,21.0,73.96,,11.2,,100.0,,0.0,,,10.0,25.0,1011.0,,10.7672,106.667,"Quận 10, Hồ Chí Minh, Việt Nam","Quận 10, Hồ Chí Minh, Việt Nam",,Clear
quan 10 ho chi minh,3/3/2024 5:00,26.0,26.0,26.0,21.0,73.96,,7.6,,110.0,,0.0,,,10.0,25.0,1011.0,,10.7672,106.667,"Quận 10, Hồ Chí Minh, Việt Nam","Quận 10, Hồ Chí Minh, Việt Nam",,Clear
quan 10 ho chi minh,3/3/2024 6:00,25.0,25.0,25.0,22.0,83.45,,9.4,,80.0,,0.0,,,10.0,25.0,1012.0,,10.7672,106.667,"Quận 10, Hồ Chí Minh, Việt Nam","Quận 10, Hồ Chí Minh, Việt Nam",,Clear
quan 10 ho chi minh,3/3/2024 7:00,27.0,27.0,27.0,22.0,74.13,29.1,3.6,,,,0.0,,,10.0,25.0,1013.0,,10.7672,106.667,"Quận 10, Hồ Chí Minh, Việt Nam","Quận 10, Hồ Chí Minh, Việt Nam",,Clear
quan 10 ho chi minh,3/3/2024 8:00,29.0,29.0,29.0,21.0,62.05,31.3,5.4,,,,0.0,,,10.0,,1013.0,,10.7672,106.667,"Quận 10, Hồ Chí Minh, Việt Nam","Quận 10, Hồ Chí Minh, Việt Nam",,Clear
quan 10 ho chi minh,3/3/2024 9:00,30.0,30.0,30.0,20.0,55.07,31.8,7.6,,120.0,,0.0,,,10.0,,1013.0,,10.7672,106.667,"Quận 10, Hồ Chí Minh, Việt Nam","Quận 10, Hồ Chí Minh, Việt Nam",,Clear
quan 10 ho chi minh,3/3/2024 10:00,31.0,31.0,31.0,20.0,52.0,32.9,3.6,,,,0.0,,,10.0,25.0,1013.0,,10.7672,106.667,"Quận 10, Hồ Chí Minh, Việt Nam","Quận 10, Hồ Chí Minh, Việt Nam",,Clear
quan 10 ho chi minh,3/3/2024 11:00,32.0,32.0,32.0,20.0,49.13,34.1,3.6,,,,0.0,,,10.0,25.0,1012.0,,10.7672,106.667,"Quận 10, Hồ Chí Minh, Việt Nam","Quận 10, Hồ Chí Minh, Việt Nam",,Clear
quan 10 ho chi minh,3/3/2024 12:00,34.0,34.0,34.0,20.0,43.9,36.4,3.6,,,,0.0,,,10.0,50.0,1011.0,,10.7672,106.667,"Quận 10, Hồ Chí Minh, Việt Nam","Quận 10, Hồ Chí Minh, Việt Nam",,Partially cloudy
quan 10 ho chi minh,3/3/2024 13:00,34.0,34.0,34.0,20.0,43.9,36.4,7.6,,40.0,,0.0,,,9.0,50.0,1010.0,,10.7672,106.667,"Quận 10, Hồ Chí Minh, Việt Nam","Quận 10, Hồ Chí Minh, Việt Nam",,Partially cloudy
quan 10 ho chi minh,3/3/2024 14:00,34.0,34.0,34.0,20.0,43.9,36.4,7.6,,200.0,,0.0,,,9.0,50.0,1009.0,,10.7672,106.667,"Quận 10, Hồ Chí Minh, Việt Nam","Quận 10, Hồ Chí Minh, Việt Nam",,Partially cloudy
quan 10 ho chi minh,3/3/2024 15:00,34.0,34.0,34.0,20.0,43.9,36.4,3.6,,,,0.0,,,10.0,50.0,1008.0,,10.7672,106.667,"Quận 10, Hồ Chí Minh, Việt Nam","Quận 10, Hồ Chí Minh, Việt Nam",,Partially cloudy
quan 11 ho chi minh,1/3/2024 17:00,32.0,32.0,32.0,20.0,49.13,34.1,20.5,,180.0,,0.0,,,10.0,50.0,1009.0,,10.7632,106.643,"Quận 11, Hồ Chí Minh, Việt Nam","Quận 11, Hồ Chí Minh, Việt Nam",,Partially cloudy
quan 11 ho chi minh,1/3/2024 18:00,31.0,31.0,31.0,21.0,55.31,33.6,11.2,,170.0,,0.0,,,10.0,50.0,1010.0,,10.7632,106.643,"Quận 11, Hồ Chí Minh, Việt Nam","Quận 11, Hồ Chí Minh, Việt Nam",,Partially cloudy
quan 11 ho chi minh,1/3/2024 19:00,31.0,31.0,31.0,19.0,48.87,32.3,16.6,,150.0,,0.0,,,10.0,50.0,1010.0,,10.7632,106.643,"Quận 11, Hồ Chí Minh, Việt Nam","Quận 11, Hồ Chí Minh, Việt Nam",,Partially cloudy
quan 11 ho chi minh,1/3/2024 20:00,30.0,30.0,30.0,19.0,51.75,31.3,20.5,,140.0,,0.0,,,10.0,50.0,1011.0,,10.7632,106.643,"Quận 11, Hồ Chí Minh, Việt Nam","Quận 11, Hồ Chí Minh, Việt Nam",,Partially cloudy
quan 11 ho chi minh,1/3/2024 21:00,29.0,29.0,29.0,20.0,58.34,30.7,18.4,,140.0,,0.0,,,10.0,50.0,1012.0,,10.7632,106.643,"Quận 11, Hồ Chí Minh, Việt Nam","Quận 11, Hồ Chí Minh, Việt Nam",,Partially cloudy
quan 11 ho chi minh,1/3/2024 22:00,28.0,28.0,28.0,21.0,65.76,30.0,20.5,,140.0,,0.0,,,10.0,25.0,1012.0,,10.7632,106.643,"Quận 11, Hồ Chí Minh, Việt Nam","Quận 11, Hồ Chí Minh, Việt Nam",,Clear
quan 11 ho chi minh,1/3/2024 23:00,28.0,28.0,28.0,21.0,65.76,30.0,13.0,,130.0,,0.0,,,10.0,25.0,1012.0,,10.7632,106.643,"Quận 11, Hồ Chí Minh, Việt Nam","Quận 11, Hồ Chí Minh, Việt Nam",,Clear
quan 11 ho chi minh,2/3/2024 0:00,28.0,28.0,28.0,21.0,65.76,30.0,13.0,,120.0,,0.0,,,10.0,25.0,1011.0,,10.7632,106.643,"Quận 11, Hồ Chí Minh, Việt Nam","Quận 11, Hồ Chí Minh, Việt Nam",,Clear
quan 11 ho chi minh,2/3/2024 1:00,28.0,28.0,28.0,21.0,65.76,30.0,13.0,,130.0,,0.0,,,10.0,25.0,1011.0,,10.7632,106.643,"Quận 11, Hồ Chí Minh, Việt Nam","Quận 11, Hồ Chí Minh, Việt Nam",,Clear
quan 11 ho chi minh,2/3/2024 2:00,27.0,27.0,27.0,21.0,69.73,28.7,7.6,,120.0,,0.0,,,10.0,25.0,1011.0,,10.7632,106.643,"Quận 11, Hồ Chí Minh, Việt Nam","Quận 11, Hồ Chí Minh, Việt Nam",,Clear
quan 11 ho chi minh,2/3/2024 3:00,27.0,27.0,27.0,22.0,74.13,29.1,9.4,,100.0,,0.0,,,10.0,50.0,1011.0,,10.7632,106.643,"Quận 11, Hồ Chí Minh, Việt Nam","Quận 11, Hồ Chí Minh, Việt Nam",,Partially cloudy
quan 11 ho chi minh,2/3/2024 4:00,26.0,26.0,26.0,22.0,78.63,,5.4,,90.0,,0.0,,,10.0,50.0,1010.0,,10.7632,106.643,"Quận 11, Hồ Chí Minh, Việt Nam","Quận 11, Hồ Chí Minh, Việt Nam",,Partially cloudy
quan 11 ho chi minh,2/3/2024 5:00,26.0,26.0,26.0,22.0,78.63,,7.6,,90.0,,0.0,,,10.0,50.0,1010.0,,10.7632,106.643,"Quận 11, Hồ Chí Minh, Việt Nam","Quận 11, Hồ Chí Minh, Việt Nam",,Partially cloudy
quan 11 ho chi minh,2/3/2024 6:00,26.0,26.0,26.0,22.0,78.63,,9.4,,80.0,,0.0,,,10.0,25.0,1011.0,,10.7632,106.643,"Quận 11, Hồ Chí Minh, Việt Nam","Quận 11, Hồ Chí Minh, Việt Nam",,Clear
quan 11 ho chi minh,2/3/2024 7:00,27.0,27.0,27.0,22.0,74.13,29.1,5.4,,,,0.0,,,10.0,,1012.0,,10.7632,106.643,"Quận 11, Hồ Chí Minh, Việt Nam","Quận 11, Hồ Chí Minh, Việt Nam",,Clear
quan 11 ho chi minh,2/3/2024 8:00,29.0,29.0,29.0,22.0,65.97,31.9,1.8,,,,0.0,,,9.0,,1013.0,,10.7632,106.643,"Quận 11, Hồ Chí Minh, Việt Nam","Quận 11, Hồ Chí Minh, Việt Nam",,Clear
quan 11 ho chi minh,2/3/2024 9:00,31.0,31.0,31.0,21.0,55.31,33.6,7.6,,130.0,,0.0,,,10.0,,1014.0,,10.7632,106.643,"Quận 11, Hồ Chí Minh, Việt Nam","Quận 11, Hồ Chí Minh, Việt Nam",,Clear
quan 11 ho chi minh,2/3/2024 10:00,31.0,31.0,31.0,19.0,48.87,32.3,5.4,,,,0.0,,,10.0,,1014.0,,10.7632,106.643,"Quận 11, Hồ Chí Minh, Việt Nam","Quận 11, Hồ Chí Minh, Việt Nam",,Clear
quan 11 ho chi minh,2/3/2024 11:00,33.0,33.0,33.0,19.0,43.63,34.5,9.4,,,,0.0,,,10.0,,1013.0,,10.7632,106.643,"Quận 11, Hồ Chí Minh, Việt Nam","Quận 11, Hồ Chí Minh, Việt Nam",,Clear
quan 11 ho chi minh,2/3/2024 12:00,34.0,34.0,34.0,19.0,41.25,35.7,3.6,,110.0,,0.0,,,10.0,25.0,1012.0,,10.7632,106.643,"Quận 11, Hồ Chí Minh, Việt Nam","Quận 11, Hồ Chí Minh, Việt Nam",,Clear
quan 11 ho chi minh,2/3/2024 13:00,34.0,34.0,34.0,20.0,43.9,36.4,9.4,,230.0,,0.0,,,10.0,50.0,1011.0,,10.7632,106.643,"Quận 11, Hồ Chí Minh, Việt Nam","Quận 11, Hồ Chí Minh, Việt Nam",,Partially cloudy
quan 11 ho chi minh,2/3/2024 14:00,35.0,35.0,35.0,20.0,41.52,37.6,5.4,,,,0.0,,,10.0,50.0,1010.0,,10.7632,106.643,"Quận 11, Hồ Chí Minh, Việt Nam","Quận 11, Hồ Chí Minh, Việt Nam",,Partially cloudy
quan 11 ho chi minh,2/3/2024 15:00,36.0,36.0,36.0,20.0,39.29,38.8,7.6,,180.0,,0.0,,,10.0,50.0,1009.0,,10.7632,106.643,"Quận 11, Hồ Chí Minh, Việt Nam","Quận 11, Hồ Chí Minh, Việt Nam",,Partially cloudy
quan 11 ho chi minh,2/3/2024 16:00,34.0,34.0,34.0,22.0,49.64,38.2,20.5,,190.0,,0.0,,,10.0,88.0,1009.0,,10.7632,106.643,"Quận 11, Hồ Chí Minh, Việt Nam","Quận 11, Hồ Chí Minh, Việt Nam",,Overcast
quan 11 ho chi minh,2/3/2024 17:00,32.0,32.0,32.0,22.0,55.55,35.7,16.6,,180.0,,0.0,,,10.0,50.0,1009.0,,10.7632,106.643,"Quận 11, Hồ Chí Minh, Việt Nam","Quận 11, Hồ Chí Minh, Việt Nam",,Partially cloudy
quan 11 ho chi minh,2/3/2024 18:00,31.0,31.0,31.0,22.0,58.8,34.4,16.6,,180.0,,0.0,,,10.0,25.0,1010.0,,10.7632,106.643,"Quận 11, Hồ Chí Minh, Việt Nam","Quận 11, Hồ Chí Minh, Việt Nam",,Clear
quan 11 ho chi minh,2/3/2024 19:00,30.0,30.0,30.0,21.0,58.57,32.5,16.6,,140.0,,0.0,,,10.0,25.0,1010.0,,10.7632,106.643,"Quận 11, Hồ Chí Minh, Việt Nam","Quận 11, Hồ Chí Minh, Việt Nam",,Clear
quan 11 ho chi minh,2/3/2024 20:00,29.0,29.0,29.0,21.0,62.05,31.3,16.6,,140.0,,0.0,,,10.0,,1011.0,,10.7632,106.643,"Quận 11, Hồ Chí Minh, Việt Nam","Quận 11, Hồ Chí Minh, Việt Nam",,Clear
quan 11 ho chi minh,2/3/2024 21:00,28.0,28.0,28.0,21.0,65.76,30.0,18.4,,130.0,,0.0,,,10.0,,1011.0,,10.7632,106.643,"Quận 11, Hồ Chí Minh, Việt Nam","Quận 11, Hồ Chí Minh, Việt Nam",,Clear
quan 11 ho chi minh,2/3/2024 22:00,28.0,28.0,28.0,21.0,65.76,30.0,14.8,,110.0,,0.0,,,10.0,,1012.0,,10.7632,106.643,"Quận 11, Hồ Chí Minh, Việt Nam","Quận 11, Hồ Chí Minh, Việt Nam",,Clear
quan 11 ho chi minh,2/3/2024 23:00,28.0,28.0,28.0,21.0,65.76,30.0,7.6,,110.0,,0.0,,,10.0,,1012.0,,10.7632,106.643,"Quận 11, Hồ Chí Minh, Việt Nam","Quận 11, Hồ Chí Minh, Việt Nam",,Clear
quan 11 ho chi minh,3/3/2024 0:00,28.0,28.0,28.0,21.0,65.76,30.0,7.6,,130.0,,0.0,,,10.0,25.0,1012.0,,10.7632,106.643,"Quận 11, Hồ Chí Minh, Việt Nam","Quận 11, Hồ Chí Minh, Việt Nam",,Clear
quan 11 ho chi minh,3/3/2024 1:00,28.0,28.0,28.0,21.0,65.76,30.0,9.4,,110.0,,0.0,,,10.0,25.0,1011.0,,10.7632,106.643,"Quận 11, Hồ Chí Minh, Việt Nam","Quận 11, Hồ Chí Minh, Việt Nam",,Clear
quan 11 ho chi minh,3/3/2024 2:00,27.0,27.0,27.0,21.0,69.73,28.7,7.6,,140.0,,0.0,,,10.0,25.0,1011.0,,10.7632,106.643,"Quận 11, Hồ Chí Minh, Việt Nam","Quận 11, Hồ Chí Minh, Việt Nam",,Clear
quan 11 ho chi minh,3/3/2024 3:00,27.0,27.0,27.0,21.0,69.73,28.7,5.4,,,,0.0,,,10.0,25.0,1011.0,,10.7632,106.643,"Quận 11, Hồ Chí Minh, Việt Nam","Quận 11, Hồ Chí Minh, Việt Nam",,Clear
quan 11 ho chi minh,3/3/2024 4:00,26.0,26.0,26.0,21.0,73.96,,11.2,,100.0,,0.0,,,10.0,25.0,1011.0,,10.7632,106.643,"Quận 11, Hồ Chí Minh, Việt Nam","Quận 11, Hồ Chí Minh, Việt Nam",,Clear
quan 11 ho chi minh,3/3/2024 5:00,26.0,26.0,26.0,21.0,73.96,,7.6,,110.0,,0.0,,,10.0,25.0,1011.0,,10.7632,106.643,"Quận 11, Hồ Chí Minh, Việt Nam","Quận 11, Hồ Chí Minh, Việt Nam",,Clear
quan 11 ho chi minh,3/3/2024 6:00,25.0,25.0,25.0,22.0,83.45,,9.4,,80.0,,0.0,,,10.0,25.0,1012.0,,10.7632,106.643,"Quận 11, Hồ Chí Minh, Việt Nam","Quận 11, Hồ Chí Minh, Việt Nam",,Clear
quan 11 ho chi minh,3/3/2024 7:00,27.0,27.0,27.0,22.0,74.13,29.1,3.6,,,,0.0,,,10.0,25.0,1013.0,,10.7632,106.643,"Quận 11, Hồ Chí Minh, Việt Nam","Quận 11, Hồ Chí Minh, Việt Nam",,Clear
quan 11 ho chi minh,3/3/2024 8:00,29.0,29.0,29.0,21.0,62.05,31.3,5.4,,,,0.0,,,10.0,,1013.0,,10.7632,106.643,"Quận 11, Hồ Chí Minh, Việt Nam","Quận 11, Hồ Chí Minh, Việt Nam",,Clear
quan 11 ho chi minh,3/3/2024 9:00,30.0,30.0,30.0,20.0,55.07,31.8,7.6,,120.0,,0.0,,,10.0,,1013.0,,10.7632,106.643,"Quận 11, Hồ Chí Minh, Việt Nam","Quận 11, Hồ Chí Minh, Việt Nam",,Clear
quan 11 ho chi minh,3/3/2024 10:00,31.0,31.0,31.0,20.0,52.0,32.9,3.6,,,,0.0,,,10.0,25.0,1013.0,,10.7632,106.643,"Quận 11, Hồ Chí Minh, Việt Nam","Quận 11, Hồ Chí Minh, Việt Nam",,Clear
quan 11 ho chi minh,3/3/2024 11:00,32.0,32.0,32.0,20.0,49.13,34.1,3.6,,,,0.0,,,10.0,25.0,1012.0,,10.7632,106.643,"Quận 11, Hồ Chí Minh, Việt Nam","Quận 11, Hồ Chí Minh, Việt Nam",,Clear
quan 11 ho chi minh,3/3/2024 12:00,34.0,34.0,34.0,20.0,43.9,36.4,3.6,,,,0.0,,,10.0,50.0,1011.0,,10.7632,106.643,"Quận 11, Hồ Chí Minh, Việt Nam","Quận 11, Hồ Chí Minh, Việt Nam",,Partially cloudy
quan 11 ho chi minh,3/3/2024 13:00,34.0,34.0,34.0,20.0,43.9,36.4,7.6,,40.0,,0.0,,,9.0,50.0,1010.0,,10.7632,106.643,"Quận 11, Hồ Chí Minh, Việt Nam","Quận 11, Hồ Chí Minh, Việt Nam",,Partially cloudy
quan 11 ho chi minh,3/3/2024 14:00,34.0,34.0,34.0,20.0,43.9,36.4,7.6,,200.0,,0.0,,,9.0,50.0,1009.0,,10.7632,106.643,"Quận 11, Hồ Chí Minh, Việt Nam","Quận 11, Hồ Chí Minh, Việt Nam",,Partially cloudy
quan 11 ho chi minh,3/3/2024 15:00,34.0,34.0,34.0,20.0,43.9,36.4,3.6,,,,0.0,,,10.0,50.0,1008.0,,10.7632,106.643,"Quận 11, Hồ Chí Minh, Việt Nam","Quận 11, Hồ Chí Minh, Việt Nam",,Partially cloudy
quan 12 ho chi minh,1/3/2024 17:00,32.0,32.0,32.0,20.0,49.13,34.1,20.5,,180.0,,0.0,,,10.0,50.0,1009.0,,10.8504,106.627,"Quận 12, Hồ Chí Minh, Việt Nam","Quận 12, Hồ Chí Minh, Việt Nam",,Partially cloudy
quan 12 ho chi minh,1/3/2024 18:00,31.0,31.0,31.0,21.0,55.31,33.6,11.2,,170.0,,0.0,,,10.0,50.0,1010.0,,10.8504,106.627,"Quận 12, Hồ Chí Minh, Việt Nam","Quận 12, Hồ Chí Minh, Việt Nam",,Partially cloudy
quan 12 ho chi minh,1/3/2024 19:00,31.0,31.0,31.0,19.0,48.87,32.3,16.6,,150.0,,0.0,,,10.0,50.0,1010.0,,10.8504,106.627,"Quận 12, Hồ Chí Minh, Việt Nam","Quận 12, Hồ Chí Minh, Việt Nam",,Partially cloudy
quan 12 ho chi minh,1/3/2024 20:00,30.0,30.0,30.0,19.0,51.75,31.3,20.5,,140.0,,0.0,,,10.0,50.0,1011.0,,10.8504,106.627,"Quận 12, Hồ Chí Minh, Việt Nam","Quận 12, Hồ Chí Minh, Việt Nam",,Partially cloudy
quan 12 ho chi minh,1/3/2024 21:00,29.0,29.0,29.0,20.0,58.34,30.7,18.4,,140.0,,0.0,,,10.0,50.0,1012.0,,10.8504,106.627,"Quận 12, Hồ Chí Minh, Việt Nam","Quận 12, Hồ Chí Minh, Việt Nam",,Partially cloudy
quan 12 ho chi minh,1/3/2024 22:00,28.0,28.0,28.0,21.0,65.76,30.0,20.5,,140.0,,0.0,,,10.0,25.0,1012.0,,10.8504,106.627,"Quận 12, Hồ Chí Minh, Việt Nam","Quận 12, Hồ Chí Minh, Việt Nam",,Clear
quan 12 ho chi minh,1/3/2024 23:00,28.0,28.0,28.0,21.0,65.76,30.0,13.0,,130.0,,0.0,,,10.0,25.0,1012.0,,10.8504,106.627,"Quận 12, Hồ Chí Minh, Việt Nam","Quận 12, Hồ Chí Minh, Việt Nam",,Clear
quan 12 ho chi minh,2/3/2024 0:00,28.0,28.0,28.0,21.0,65.76,30.0,13.0,,120.0,,0.0,,,10.0,25.0,1011.0,,10.8504,106.627,"Quận 12, Hồ Chí Minh, Việt Nam","Quận 12, Hồ Chí Minh, Việt Nam",,Clear
quan 12 ho chi minh,2/3/2024 1:00,28.0,28.0,28.0,21.0,65.76,30.0,13.0,,130.0,,0.0,,,10.0,25.0,1011.0,,10.8504,106.627,"Quận 12, Hồ Chí Minh, Việt Nam","Quận 12, Hồ Chí Minh, Việt Nam",,Clear
quan 12 ho chi minh,2/3/2024 2:00,27.0,27.0,27.0,21.0,69.73,28.7,7.6,,120.0,,0.0,,,10.0,25.0,1011.0,,10.8504,106.627,"Quận 12, Hồ Chí Minh, Việt Nam","Quận 12, Hồ Chí Minh, Việt Nam",,Clear
quan 12 ho chi minh,2/3/2024 3:00,27.0,27.0,27.0,22.0,74.13,29.1,9.4,,100.0,,0.0,,,10.0,50.0,1011.0,,10.8504,106.627,"Quận 12, Hồ Chí Minh, Việt Nam","Quận 12, Hồ Chí Minh, Việt Nam",,Partially cloudy
quan 12 ho chi minh,2/3/2024 4:00,26.0,26.0,26.0,22.0,78.63,,5.4,,90.0,,0.0,,,10.0,50.0,1010.0,,10.8504,106.627,"Quận 12, Hồ Chí Minh, Việt Nam","Quận 12, Hồ Chí Minh, Việt Nam",,Partially cloudy
quan 12 ho chi minh,2/3/2024 5:00,26.0,26.0,26.0,22.0,78.63,,7.6,,90.0,,0.0,,,10.0,50.0,1010.0,,10.8504,106.627,"Quận 12, Hồ Chí Minh, Việt Nam","Quận 12, Hồ Chí Minh, Việt Nam",,Partially cloudy
quan 12 ho chi minh,2/3/2024 6:00,26.0,26.0,26.0,22.0,78.63,,9.4,,80.0,,0.0,,,10.0,25.0,1011.0,,10.8504,106.627,"Quận 12, Hồ Chí Minh, Việt Nam","Quận 12, Hồ Chí Minh, Việt Nam",,Clear
quan 12 ho chi minh,2/3/2024 7:00,27.0,27.0,27.0,22.0,74.13,29.1,5.4,,,,0.0,,,10.0,,1012.0,,10.8504,106.627,"Quận 12, Hồ Chí Minh, Việt Nam","Quận 12, Hồ Chí Minh, Việt Nam",,Clear
quan 12 ho chi minh,2/3/2024 8:00,29.0,29.0,29.0,22.0,65.97,31.9,1.8,,,,0.0,,,9.0,,1013.0,,10.8504,106.627,"Quận 12, Hồ Chí Minh, Việt Nam","Quận 12, Hồ Chí Minh, Việt Nam",,Clear
quan 12 ho chi minh,2/3/2024 9:00,31.0,31.0,31.0,21.0,55.31,33.6,7.6,,130.0,,0.0,,,10.0,,1014.0,,10.8504,106.627,"Quận 12, Hồ Chí Minh, Việt Nam","Quận 12, Hồ Chí Minh, Việt Nam",,Clear
quan 12 ho chi minh,2/3/2024 10:00,31.0,31.0,31.0,19.0,48.87,32.3,5.4,,,,0.0,,,10.0,,1014.0,,10.8504,106.627,"Quận 12, Hồ Chí Minh, Việt Nam","Quận 12, Hồ Chí Minh, Việt Nam",,Clear
quan 12 ho chi minh,2/3/2024 11:00,33.0,33.0,33.0,19.0,43.63,34.5,9.4,,,,0.0,,,10.0,,1013.0,,10.8504,106.627,"Quận 12, Hồ Chí Minh, Việt Nam","Quận 12, Hồ Chí Minh, Việt Nam",,Clear
quan 12 ho chi minh,2/3/2024 12:00,34.0,34.0,34.0,19.0,41.25,35.7,3.6,,110.0,,0.0,,,10.0,25.0,1012.0,,10.8504,106.627,"Quận 12, Hồ Chí Minh, Việt Nam","Quận 12, Hồ Chí Minh, Việt Nam",,Clear
quan 12 ho chi minh,2/3/2024 13:00,34.0,34.0,34.0,20.0,43.9,36.4,9.4,,230.0,,0.0,,,10.0,50.0,1011.0,,10.8504,106.627,"Quận 12, Hồ Chí Minh, Việt Nam","Quận 12, Hồ Chí Minh, Việt Nam",,Partially cloudy
quan 12 ho chi minh,2/3/2024 14:00,35.0,35.0,35.0,20.0,41.52,37.6,5.4,,,,0.0,,,10.0,50.0,1010.0,,10.8504,106.627,"Quận 12, Hồ Chí Minh, Việt Nam","Quận 12, Hồ Chí Minh, Việt Nam",,Partially cloudy
quan 12 ho chi minh,2/3/2024 15:00,36.0,36.0,36.0,20.0,39.29,38.8,7.6,,180.0,,0.0,,,10.0,50.0,1009.0,,10.8504,106.627,"Quận 12, Hồ Chí Minh, Việt Nam","Quận 12, Hồ Chí Minh, Việt Nam",,Partially cloudy
quan 12 ho chi minh,2/3/2024 16:00,34.0,34.0,34.0,22.0,49.64,38.2,20.5,,190.0,,0.0,,,10.0,88.0,1009.0,,10.8504,106.627,"Quận 12, Hồ Chí Minh, Việt Nam","Quận 12, Hồ Chí Minh, Việt Nam",,Overcast
quan 12 ho chi minh,2/3/2024 17:00,32.0,32.0,32.0,22.0,55.55,35.7,16.6,,180.0,,0.0,,,10.0,50.0,1009.0,,10.8504,106.627,"Quận 12, Hồ Chí Minh, Việt Nam","Quận 12, Hồ Chí Minh, Việt Nam",,Partially cloudy
quan 12 ho chi minh,2/3/2024 18:00,31.0,31.0,31.0,22.0,58.8,34.4,16.6,,180.0,,0.0,,,10.0,25.0,1010.0,,10.8504,106.627,"Quận 12, Hồ Chí Minh, Việt Nam","Quận 12, Hồ Chí Minh, Việt Nam",,Clear
quan 12 ho chi minh,2/3/2024 19:00,30.0,30.0,30.0,21.0,58.57,32.5,16.6,,140.0,,0.0,,,10.0,25.0,1010.0,,10.8504,106.627,"Quận 12, Hồ Chí Minh, Việt Nam","Quận 12, Hồ Chí Minh, Việt Nam",,Clear
quan 12 ho chi minh,2/3/2024 20:00,29.0,29.0,29.0,21.0,62.05,31.3,16.6,,140.0,,0.0,,,10.0,,1011.0,,10.8504,106.627,"Quận 12, Hồ Chí Minh, Việt Nam","Quận 12, Hồ Chí Minh, Việt Nam",,Clear
quan 12 ho chi minh,2/3/2024 21:00,28.0,28.0,28.0,21.0,65.76,30.0,18.4,,130.0,,0.0,,,10.0,,1011.0,,10.8504,106.627,"Quận 12, Hồ Chí Minh, Việt Nam","Quận 12, Hồ Chí Minh, Việt Nam",,Clear
quan 12 ho chi minh,2/3/2024 22:00,28.0,28.0,28.0,21.0,65.76,30.0,14.8,,110.0,,0.0,,,10.0,,1012.0,,10.8504,106.627,"Quận 12, Hồ Chí Minh, Việt Nam","Quận 12, Hồ Chí Minh, Việt Nam",,Clear
quan 12 ho chi minh,2/3/2024 23:00,28.0,28.0,28.0,21.0,65.76,30.0,7.6,,110.0,,0.0,,,10.0,,1012.0,,10.8504,106.627,"Quận 12, Hồ Chí Minh, Việt Nam","Quận 12, Hồ Chí Minh, Việt Nam",,Clear
quan 12 ho chi minh,3/3/2024 0:00,28.0,28.0,28.0,21.0,65.76,30.0,7.6,,130.0,,0.0,,,10.0,25.0,1012.0,,10.8504,106.627,"Quận 12, Hồ Chí Minh, Việt Nam","Quận 12, Hồ Chí Minh, Việt Nam",,Clear
quan 12 ho chi minh,3/3/2024 1:00,28.0,28.0,28.0,21.0,65.76,30.0,9.4,,110.0,,0.0,,,10.0,25.0,1011.0,,10.8504,106.627,"Quận 12, Hồ Chí Minh, Việt Nam","Quận 12, Hồ Chí Minh, Việt Nam",,Clear
quan 12 ho chi minh,3/3/2024 2:00,27.0,27.0,27.0,21.0,69.73,28.7,7.6,,140.0,,0.0,,,10.0,25.0,1011.0,,10.8504,106.627,"Quận 12, Hồ Chí Minh, Việt Nam","Quận 12, Hồ Chí Minh, Việt Nam",,Clear
quan 12 ho chi minh,3/3/2024 3:00,27.0,27.0,27.0,21.0,69.73,28.7,5.4,,,,0.0,,,10.0,25.0,1011.0,,10.8504,106.627,"Quận 12, Hồ Chí Minh, Việt Nam","Quận 12, Hồ Chí Minh, Việt Nam",,Clear
quan 12 ho chi minh,3/3/2024 4:00,26.0,26.0,26.0,21.0,73.96,,11.2,,100.0,,0.0,,,10.0,25.0,1011.0,,10.8504,106.627,"Quận 12, Hồ Chí Minh, Việt Nam","Quận 12, Hồ Chí Minh, Việt Nam",,Clear
quan 12 ho chi minh,3/3/2024 5:00,26.0,26.0,26.0,21.0,73.96,,7.6,,110.0,,0.0,,,10.0,25.0,1011.0,,10.8504,106.627,"Quận 12, Hồ Chí Minh, Việt Nam","Quận 12, Hồ Chí Minh, Việt Nam",,Clear
quan 12 ho chi minh,3/3/2024 6:00,25.0,25.0,25.0,22.0,83.45,,9.4,,80.0,,0.0,,,10.0,25.0,1012.0,,10.8504,106.627,"Quận 12, Hồ Chí Minh, Việt Nam","Quận 12, Hồ Chí Minh, Việt Nam",,Clear
quan 12 ho chi minh,3/3/2024 7:00,27.0,27.0,27.0,22.0,74.13,29.1,3.6,,,,0.0,,,10.0,25.0,1013.0,,10.8504,106.627,"Quận 12, Hồ Chí Minh, Việt Nam","Quận 12, Hồ Chí Minh, Việt Nam",,Clear
quan 12 ho chi minh,3/3/2024 8:00,29.0,29.0,29.0,21.0,62.05,31.3,5.4,,,,0.0,,,10.0,,1013.0,,10.8504,106.627,"Quận 12, Hồ Chí Minh, Việt Nam","Quận 12, Hồ Chí Minh, Việt Nam",,Clear
quan 12 ho chi minh,3/3/2024 9:00,30.0,30.0,30.0,20.0,55.07,31.8,7.6,,120.0,,0.0,,,10.0,,1013.0,,10.8504,106.627,"Quận 12, Hồ Chí Minh, Việt Nam","Quận 12, Hồ Chí Minh, Việt Nam",,Clear
quan 12 ho chi minh,3/3/2024 10:00,31.0,31.0,31.0,20.0,52.0,32.9,3.6,,,,0.0,,,10.0,25.0,1013.0,,10.8504,106.627,"Quận 12, Hồ Chí Minh, Việt Nam","Quận 12, Hồ Chí Minh, Việt Nam",,Clear
quan 12 ho chi minh,3/3/2024 11:00,32.0,32.0,32.0,20.0,49.13,34.1,3.6,,,,0.0,,,10.0,25.0,1012.0,,10.8504,106.627,"Quận 12, Hồ Chí Minh, Việt Nam","Quận 12, Hồ Chí Minh, Việt Nam",,Clear
quan 12 ho chi minh,3/3/2024 12:00,34.0,34.0,34.0,20.0,43.9,36.4,3.6,,,,0.0,,,10.0,50.0,1011.0,,10.8504,106.627,"Quận 12, Hồ Chí Minh, Việt Nam","Quận 12, Hồ Chí Minh, Việt Nam",,Partially cloudy
quan 12 ho chi minh,3/3/2024 13:00,34.0,34.0,34.0,20.0,43.9,36.4,7.6,,40.0,,0.0,,,9.0,50.0,1010.0,,10.8504,106.627,"Quận 12, Hồ Chí Minh, Việt Nam","Quận 12, Hồ Chí Minh, Việt Nam",,Partially cloudy
quan 12 ho chi minh,3/3/2024 14:00,34.0,34.0,34.0,20.0,43.9,36.4,7.6,,200.0,,0.0,,,9.0,50.0,1009.0,,10.8504,106.627,"Quận 12, Hồ Chí Minh, Việt Nam","Quận 12, Hồ Chí Minh, Việt Nam",,Partially cloudy
quan 12 ho chi minh,3/3/2024 15:00,34.0,34.0,34.0,20.0,43.9,36.4,3.6,,,,0.0,,,10.0,50.0,1008.0,,10.8504,106.627,"Quận 12, Hồ Chí Minh, Việt Nam","Quận 12, Hồ Chí Minh, Việt Nam",,Partially cloudy
quan thu duc ho chi minh,1/3/2024 17:00,32.0,32.0,32.0,20.0,49.13,34.1,20.5,,180.0,,0.0,,,10.0,50.0,1009.0,,10.7693,106.8,"Đường Hải Quân, 71115 Hồ Chí Minh, Việt Nam","Đường Hải Quân, 71115 Hồ Chí Minh, Việt Nam",,Partially cloudy
quan thu duc ho chi minh,1/3/2024 18:00,31.0,31.0,31.0,21.0,55.31,33.6,11.2,,170.0,,0.0,,,10.0,50.0,1010.0,,10.7693,106.8,"Đường Hải Quân, 71115 Hồ Chí Minh, Việt Nam","Đường Hải Quân, 71115 Hồ Chí Minh, Việt Nam",,Partially cloudy
quan thu duc ho chi minh,1/3/2024 19:00,31.0,31.0,31.0,19.0,48.87,32.3,16.6,,150.0,,0.0,,,10.0,50.0,1010.0,,10.7693,106.8,"Đường Hải Quân, 71115 Hồ Chí Minh, Việt Nam","Đường Hải Quân, 71115 Hồ Chí Minh, Việt Nam",,Partially cloudy
quan thu duc ho chi minh,1/3/2024 20:00,30.0,30.0,30.0,19.0,51.75,31.3,20.5,,140.0,,0.0,,,10.0,50.0,1011.0,,10.7693,106.8,"Đường Hải Quân, 71115 Hồ Chí Minh, Việt Nam","Đường Hải Quân, 71115 Hồ Chí Minh, Việt Nam",,Partially cloudy
quan thu duc ho chi minh,1/3/2024 21:00,29.0,29.0,29.0,20.0,58.34,30.7,18.4,,140.0,,0.0,,,10.0,50.0,1012.0,,10.7693,106.8,"Đường Hải Quân, 71115 Hồ Chí Minh, Việt Nam","Đường Hải Quân, 71115 Hồ Chí Minh, Việt Nam",,Partially cloudy
quan thu duc ho chi minh,1/3/2024 22:00,28.0,28.0,28.0,21.0,65.76,30.0,20.5,,140.0,,0.0,,,10.0,25.0,1012.0,,10.7693,106.8,"Đường Hải Quân, 71115 Hồ Chí Minh, Việt Nam","Đường Hải Quân, 71115 Hồ Chí Minh, Việt Nam",,Clear
quan thu duc ho chi minh,1/3/2024 23:00,28.0,28.0,28.0,21.0,65.76,30.0,13.0,,130.0,,0.0,,,10.0,25.0,1012.0,,10.7693,106.8,"Đường Hải Quân, 71115 Hồ Chí Minh, Việt Nam","Đường Hải Quân, 71115 Hồ Chí Minh, Việt Nam",,Clear
quan thu duc ho chi minh,2/3/2024 0:00,28.0,28.0,28.0,21.0,65.76,30.0,13.0,,120.0,,0.0,,,10.0,25.0,1011.0,,10.7693,106.8,"Đường Hải Quân, 71115 Hồ Chí Minh, Việt Nam","Đường Hải Quân, 71115 Hồ Chí Minh, Việt Nam",,Clear
quan thu duc ho chi minh,2/3/2024 1:00,28.0,28.0,28.0,21.0,65.76,30.0,13.0,,130.0,,0.0,,,10.0,25.0,1011.0,,10.7693,106.8,"Đường Hải Quân, 71115 Hồ Chí Minh, Việt Nam","Đường Hải Quân, 71115 Hồ Chí Minh, Việt Nam",,Clear
quan thu duc ho chi minh,2/3/2024 2:00,27.0,27.0,27.0,21.0,69.73,28.7,7.6,,120.0,,0.0,,,10.0,25.0,1011.0,,10.7693,106.8,"Đường Hải Quân, 71115 Hồ Chí Minh, Việt Nam","Đường Hải Quân, 71115 Hồ Chí Minh, Việt Nam",,Clear
quan thu duc ho chi minh,2/3/2024 3:00,27.0,27.0,27.0,22.0,74.13,29.1,9.4,,100.0,,0.0,,,10.0,50.0,1011.0,,10.7693,106.8,"Đường Hải Quân, 71115 Hồ Chí Minh, Việt Nam","Đường Hải Quân, 71115 Hồ Chí Minh, Việt Nam",,Partially cloudy
quan thu duc ho chi minh,2/3/2024 4:00,26.0,26.0,26.0,22.0,78.63,,5.4,,90.0,,0.0,,,10.0,50.0,1010.0,,10.7693,106.8,"Đường Hải Quân, 71115 Hồ Chí Minh, Việt Nam","Đường Hải Quân, 71115 Hồ Chí Minh, Việt Nam",,Partially cloudy
quan thu duc ho chi minh,2/3/2024 5:00,26.0,26.0,26.0,22.0,78.63,,7.6,,90.0,,0.0,,,10.0,50.0,1010.0,,10.7693,106.8,"Đường Hải Quân, 71115 Hồ Chí Minh, Việt Nam","Đường Hải Quân, 71115 Hồ Chí Minh, Việt Nam",,Partially cloudy
quan thu duc ho chi minh,2/3/2024 6:00,26.0,26.0,26.0,22.0,78.63,,9.4,,80.0,,0.0,,,10.0,25.0,1011.0,,10.7693,106.8,"Đường Hải Quân, 71115 Hồ Chí Minh, Việt Nam","Đường Hải Quân, 71115 Hồ Chí Minh, Việt Nam",,Clear
quan thu duc ho chi minh,2/3/2024 7:00,27.0,27.0,27.0,22.0,74.13,29.1,5.4,,,,0.0,,,10.0,,1012.0,,10.7693,106.8,"Đường Hải Quân, 71115 Hồ Chí Minh, Việt Nam","Đường Hải Quân, 71115 Hồ Chí Minh, Việt Nam",,Clear
quan thu duc ho chi minh,2/3/2024 8:00,29.0,29.0,29.0,22.0,65.97,31.9,1.8,,,,0.0,,,9.0,,1013.0,,10.7693,106.8,"Đường Hải Quân, 71115 Hồ Chí Minh, Việt Nam","Đường Hải Quân, 71115 Hồ Chí Minh, Việt Nam",,Clear
quan thu duc ho chi minh,2/3/2024 9:00,31.0,31.0,31.0,21.0,55.31,33.6,7.6,,130.0,,0.0,,,10.0,,1014.0,,10.7693,106.8,"Đường Hải Quân, 71115 Hồ Chí Minh, Việt Nam","Đường Hải Quân, 71115 Hồ Chí Minh, Việt Nam",,Clear
quan thu duc ho chi minh,2/3/2024 10:00,31.0,31.0,31.0,19.0,48.87,32.3,5.4,,,,0.0,,,10.0,,1014.0,,10.7693,106.8,"Đường Hải Quân, 71115 Hồ Chí Minh, Việt Nam","Đường Hải Quân, 71115 Hồ Chí Minh, Việt Nam",,Clear
quan thu duc ho chi minh,2/3/2024 11:00,33.0,33.0,33.0,19.0,43.63,34.5,9.4,,,,0.0,,,10.0,,1013.0,,10.7693,106.8,"Đường Hải Quân, 71115 Hồ Chí Minh, Việt Nam","Đường Hải Quân, 71115 Hồ Chí Minh, Việt Nam",,Clear
quan thu duc ho chi minh,2/3/2024 12:00,34.0,34.0,34.0,19.0,41.25,35.7,3.6,,110.0,,0.0,,,10.0,25.0,1012.0,,10.7693,106.8,"Đường Hải Quân, 71115 Hồ Chí Minh, Việt Nam","Đường Hải Quân, 71115 Hồ Chí Minh, Việt Nam",,Clear
quan thu duc ho chi minh,2/3/2024 13:00,34.0,34.0,34.0,20.0,43.9,36.4,9.4,,230.0,,0.0,,,10.0,50.0,1011.0,,10.7693,106.8,"Đường Hải Quân, 71115 Hồ Chí Minh, Việt Nam","Đường Hải Quân, 71115 Hồ Chí Minh, Việt Nam",,Partially cloudy
quan thu duc ho chi minh,2/3/2024 14:00,35.0,35.0,35.0,20.0,41.52,37.6,5.4,,,,0.0,,,10.0,50.0,1010.0,,10.7693,106.8,"Đường Hải Quân, 71115 Hồ Chí Minh, Việt Nam","Đường Hải Quân, 71115 Hồ Chí Minh, Việt Nam",,Partially cloudy
quan thu duc ho chi minh,2/3/2024 15:00,36.0,36.0,36.0,20.0,39.29,38.8,7.6,,180.0,,0.0,,,10.0,50.0,1009.0,,10.7693,106.8,"Đường Hải Quân, 71115 Hồ Chí Minh, Việt Nam","Đường Hải Quân, 71115 Hồ Chí Minh, Việt Nam",,Partially cloudy
quan thu duc ho chi minh,2/3/2024 16:00,34.0,34.0,34.0,22.0,49.64,38.2,20.5,,190.0,,0.0,,,10.0,88.0,1009.0,,10.7693,106.8,"Đường Hải Quân, 71115 Hồ Chí Minh, Việt Nam","Đường Hải Quân, 71115 Hồ Chí Minh, Việt Nam",,Overcast
quan thu duc ho chi minh,2/3/2024 17:00,32.0,32.0,32.0,22.0,55.55,35.7,16.6,,180.0,,0.0,,,10.0,50.0,1009.0,,10.7693,106.8,"Đường Hải Quân, 71115 Hồ Chí Minh, Việt Nam","Đường Hải Quân, 71115 Hồ Chí Minh, Việt Nam",,Partially cloudy
quan thu duc ho chi minh,2/3/2024 18:00,31.0,31.0,31.0,22.0,58.8,34.4,16.6,,180.0,,0.0,,,10.0,25.0,1010.0,,10.7693,106.8,"Đường Hải Quân, 71115 Hồ Chí Minh, Việt Nam","Đường Hải Quân, 71115 Hồ Chí Minh, Việt Nam",,Clear
quan thu duc ho chi minh,2/3/2024 19:00,30.0,30.0,30.0,21.0,58.57,32.5,16.6,,140.0,,0.0,,,10.0,25.0,1010.0,,10.7693,106.8,"Đường Hải Quân, 71115 Hồ Chí Minh, Việt Nam","Đường Hải Quân, 71115 Hồ Chí Minh, Việt Nam",,Clear
quan thu duc ho chi minh,2/3/2024 20:00,29.0,29.0,29.0,21.0,62.05,31.3,16.6,,140.0,,0.0,,,10.0,,1011.0,,10.7693,106.8,"Đường Hải Quân, 71115 Hồ Chí Minh, Việt Nam","Đường Hải Quân, 71115 Hồ Chí Minh, Việt Nam",,Clear
quan thu duc ho chi minh,2/3/2024 21:00,28.0,28.0,28.0,21.0,65.76,30.0,18.4,,130.0,,0.0,,,10.0,,1011.0,,10.7693,106.8,"Đường Hải Quân, 71115 Hồ Chí Minh, Việt Nam","Đường Hải Quân, 71115 Hồ Chí Minh, Việt Nam",,Clear
quan thu duc ho chi minh,2/3/2024 22:00,28.0,28.0,28.0,21.0,65.76,30.0,14.8,,110.0,,0.0,,,10.0,,1012.0,,10.7693,106.8,"Đường Hải Quân, 71115 Hồ Chí Minh, Việt Nam","Đường Hải Quân, 71115 Hồ Chí Minh, Việt Nam",,Clear
quan thu duc ho chi minh,2/3/2024 23:00,28.0,28.0,28.0,21.0,65.76,30.0,7.6,,110.0,,0.0,,,10.0,,1012.0,,10.7693,106.8,"Đường Hải Quân, 71115 Hồ Chí Minh, Việt Nam","Đường Hải Quân, 71115 Hồ Chí Minh, Việt Nam",,Clear
quan thu duc ho chi minh,3/3/2024 0:00,28.0,28.0,28.0,21.0,65.76,30.0,7.6,,130.0,,0.0,,,10.0,25.0,1012.0,,10.7693,106.8,"Đường Hải Quân, 71115 Hồ Chí Minh, Việt Nam","Đường Hải Quân, 71115 Hồ Chí Minh, Việt Nam",,Clear
quan thu duc ho chi minh,3/3/2024 1:00,28.0,28.0,28.0,21.0,65.76,30.0,9.4,,110.0,,0.0,,,10.0,25.0,1011.0,,10.7693,106.8,"Đường Hải Quân, 71115 Hồ Chí Minh, Việt Nam","Đường Hải Quân, 71115 Hồ Chí Minh, Việt Nam",,Clear
quan thu duc ho chi minh,3/3/2024 2:00,27.0,27.0,27.0,21.0,69.73,28.7,7.6,,140.0,,0.0,,,10.0,25.0,1011.0,,10.7693,106.8,"Đường Hải Quân, 71115 Hồ Chí Minh, Việt Nam","Đường Hải Quân, 71115 Hồ Chí Minh, Việt Nam",,Clear
quan thu duc ho chi minh,3/3/2024 3:00,27.0,27.0,27.0,21.0,69.73,28.7,5.4,,,,0.0,,,10.0,25.0,1011.0,,10.7693,106.8,"Đường Hải Quân, 71115 Hồ Chí Minh, Việt Nam","Đường Hải Quân, 71115 Hồ Chí Minh, Việt Nam",,Clear
quan thu duc ho chi minh,3/3/2024 4:00,26.0,26.0,26.0,21.0,73.96,,11.2,,100.0,,0.0,,,10.0,25.0,1011.0,,10.7693,106.8,"Đường Hải Quân, 71115 Hồ Chí Minh, Việt Nam","Đường Hải Quân, 71115 Hồ Chí Minh, Việt Nam",,Clear
quan thu duc ho chi minh,3/3/2024 5:00,26.0,26.0,26.0,21.0,73.96,,7.6,,110.0,,0.0,,,10.0,25.0,1011.0,,10.7693,106.8,"Đường Hải Quân, 71115 Hồ Chí Minh, Việt Nam","Đường Hải Quân, 71115 Hồ Chí Minh, Việt Nam",,Clear
quan thu duc ho chi minh,3/3/2024 6:00,25.0,25.0,25.0,22.0,83.45,,9.4,,80.0,,0.0,,,10.0,25.0,1012.0,,10.7693,106.8,"Đường Hải Quân, 71115 Hồ Chí Minh, Việt Nam","Đường Hải Quân, 71115 Hồ Chí Minh, Việt Nam",,Clear
quan thu duc ho chi minh,3/3/2024 7:00,27.0,27.0,27.0,22.0,74.13,29.1,3.6,,,,0.0,,,10.0,25.0,1013.0,,10.7693,106.8,"Đường Hải Quân, 71115 Hồ Chí Minh, Việt Nam","Đường Hải Quân, 71115 Hồ Chí Minh, Việt Nam",,Clear
quan thu duc ho chi minh,3/3/2024 8:00,29.0,29.0,29.0,21.0,62.05,31.3,5.4,,,,0.0,,,10.0,,1013.0,,10.7693,106.8,"Đường Hải Quân, 71115 Hồ Chí Minh, Việt Nam","Đường Hải Quân, 71115 Hồ Chí Minh, Việt Nam",,Clear
quan thu duc ho chi minh,3/3/2024 9:00,30.0,30.0,30.0,20.0,55.07,31.8,7.6,,120.0,,0.0,,,10.0,,1013.0,,10.7693,106.8,"Đường Hải Quân, 71115 Hồ Chí Minh, Việt Nam","Đường Hải Quân, 71115 Hồ Chí Minh, Việt Nam",,Clear
quan thu duc ho chi minh,3/3/2024 10:00,31.0,31.0,31.0,20.0,52.0,32.9,3.6,,,,0.0,,,10.0,25.0,1013.0,,10.7693,106.8,"Đường Hải Quân, 71115 Hồ Chí Minh, Việt Nam","Đường Hải Quân, 71115 Hồ Chí Minh, Việt Nam",,Clear
quan thu duc ho chi minh,3/3/2024 11:00,32.0,32.0,32.0,20.0,49.13,34.1,3.6,,,,0.0,,,10.0,25.0,1012.0,,10.7693,106.8,"Đường Hải Quân, 71115 Hồ Chí Minh, Việt Nam","Đường Hải Quân, 71115 Hồ Chí Minh, Việt Nam",,Clear
quan thu duc ho chi minh,3/3/2024 12:00,34.0,34.0,34.0,20.0,43.9,36.4,3.6,,,,0.0,,,10.0,50.0,1011.0,,10.7693,106.8,"Đường Hải Quân, 71115 Hồ Chí Minh, Việt Nam","Đường Hải Quân, 71115 Hồ Chí Minh, Việt Nam",,Partially cloudy
quan thu duc ho chi minh,3/3/2024 13:00,34.0,34.0,34.0,20.0,43.9,36.4,7.6,,40.0,,0.0,,,9.0,50.0,1010.0,,10.7693,106.8,"Đường Hải Quân, 71115 Hồ Chí Minh, Việt Nam","Đường Hải Quân, 71115 Hồ Chí Minh, Việt Nam",,Partially cloudy
quan thu duc ho chi minh,3/3/2024 14:00,34.0,34.0,34.0,20.0,43.9,36.4,7.6,,200.0,,0.0,,,9.0,50.0,1009.0,,10.7693,106.8,"Đường Hải Quân, 71115 Hồ Chí Minh, Việt Nam","Đường Hải Quân, 71115 Hồ Chí Minh, Việt Nam",,Partially cloudy
quan thu duc ho chi minh,3/3/2024 15:00,34.0,34.0,34.0,20.0,43.9,36.4,3.6,,,,0.0,,,10.0,50.0,1008.0,,10.7693,106.8,"Đường Hải Quân, 71115 Hồ Chí Minh, Việt Nam","Đường Hải Quân, 71115 Hồ Chí Minh, Việt Nam",,Partially cloudy
quan binh tan ho chi minh,1/3/2024 17:00,32.0,32.0,32.0,20.0,49.13,34.1,20.5,,180.0,,0.0,,,10.0,50.0,1009.0,,10.7368,106.614,"Quận Bình Tân, Hồ Chí Minh, Việt Nam","Quận Bình Tân, Hồ Chí Minh, Việt Nam",,Partially cloudy
quan binh tan ho chi minh,1/3/2024 18:00,31.0,31.0,31.0,21.0,55.31,33.6,11.2,,170.0,,0.0,,,10.0,50.0,1010.0,,10.7368,106.614,"Quận Bình Tân, Hồ Chí Minh, Việt Nam","Quận Bình Tân, Hồ Chí Minh, Việt Nam",,Partially cloudy
quan binh tan ho chi minh,1/3/2024 19:00,31.0,31.0,31.0,19.0,48.87,32.3,16.6,,150.0,,0.0,,,10.0,50.0,1010.0,,10.7368,106.614,"Quận Bình Tân, Hồ Chí Minh, Việt Nam","Quận Bình Tân, Hồ Chí Minh, Việt Nam",,Partially cloudy
quan binh tan ho chi minh,1/3/2024 20:00,30.0,30.0,30.0,19.0,51.75,31.3,20.5,,140.0,,0.0,,,10.0,50.0,1011.0,,10.7368,106.614,"Quận Bình Tân, Hồ Chí Minh, Việt Nam","Quận Bình Tân, Hồ Chí Minh, Việt Nam",,Partially cloudy
quan binh tan ho chi minh,1/3/2024 21:00,29.0,29.0,29.0,20.0,58.34,30.7,18.4,,140.0,,0.0,,,10.0,50.0,1012.0,,10.7368,106.614,"Quận Bình Tân, Hồ Chí Minh, Việt Nam","Quận Bình Tân, Hồ Chí Minh, Việt Nam",,Partially cloudy
quan binh tan ho chi minh,1/3/2024 22:00,28.0,28.0,28.0,21.0,65.76,30.0,20.5,,140.0,,0.0,,,10.0,25.0,1012.0,,10.7368,106.614,"Quận Bình Tân, Hồ Chí Minh, Việt Nam","Quận Bình Tân, Hồ Chí Minh, Việt Nam",,Clear
quan binh tan ho chi minh,1/3/2024 23:00,28.0,28.0,28.0,21.0,65.76,30.0,13.0,,130.0,,0.0,,,10.0,25.0,1012.0,,10.7368,106.614,"Quận Bình Tân, Hồ Chí Minh, Việt Nam","Quận Bình Tân, Hồ Chí Minh, Việt Nam",,Clear
quan binh tan ho chi minh,2/3/2024 0:00,28.0,28.0,28.0,21.0,65.76,30.0,13.0,,120.0,,0.0,,,10.0,25.0,1011.0,,10.7368,106.614,"Quận Bình Tân, Hồ Chí Minh, Việt Nam","Quận Bình Tân, Hồ Chí Minh, Việt Nam",,Clear
quan binh tan ho chi minh,2/3/2024 1:00,28.0,28.0,28.0,21.0,65.76,30.0,13.0,,130.0,,0.0,,,10.0,25.0,1011.0,,10.7368,106.614,"Quận Bình Tân, Hồ Chí Minh, Việt Nam","Quận Bình Tân, Hồ Chí Minh, Việt Nam",,Clear
quan binh tan ho chi minh,2/3/2024 2:00,27.0,27.0,27.0,21.0,69.73,28.7,7.6,,120.0,,0.0,,,10.0,25.0,1011.0,,10.7368,106.614,"Quận Bình Tân, Hồ Chí Minh, Việt Nam","Quận Bình Tân, Hồ Chí Minh, Việt Nam",,Clear
quan binh tan ho chi minh,2/3/2024 3:00,27.0,27.0,27.0,22.0,74.13,29.1,9.4,,100.0,,0.0,,,10.0,50.0,1011.0,,10.7368,106.614,"Quận Bình Tân, Hồ Chí Minh, Việt Nam","Quận Bình Tân, Hồ Chí Minh, Việt Nam",,Partially cloudy
quan binh tan ho chi minh,2/3/2024 4:00,26.0,26.0,26.0,22.0,78.63,,5.4,,90.0,,0.0,,,10.0,50.0,1010.0,,10.7368,106.614,"Quận Bình Tân, Hồ Chí Minh, Việt Nam","Quận Bình Tân, Hồ Chí Minh, Việt Nam",,Partially cloudy
quan binh tan ho chi minh,2/3/2024 5:00,26.0,26.0,26.0,22.0,78.63,,7.6,,90.0,,0.0,,,10.0,50.0,1010.0,,10.7368,106.614,"Quận Bình Tân, Hồ Chí Minh, Việt Nam","Quận Bình Tân, Hồ Chí Minh, Việt Nam",,Partially cloudy
quan binh tan ho chi minh,2/3/2024 6:00,26.0,26.0,26.0,22.0,78.63,,9.4,,80.0,,0.0,,,10.0,25.0,1011.0,,10.7368,106.614,"Quận Bình Tân, Hồ Chí Minh, Việt Nam","Quận Bình Tân, Hồ Chí Minh, Việt Nam",,Clear
quan binh tan ho chi minh,2/3/2024 7:00,27.0,27.0,27.0,22.0,74.13,29.1,5.4,,,,0.0,,,10.0,,1012.0,,10.7368,106.614,"Quận Bình Tân, Hồ Chí Minh, Việt Nam","Quận Bình Tân, Hồ Chí Minh, Việt Nam",,Clear
quan binh tan ho chi minh,2/3/2024 8:00,29.0,29.0,29.0,22.0,65.97,31.9,1.8,,,,0.0,,,9.0,,1013.0,,10.7368,106.614,"Quận Bình Tân, Hồ Chí Minh, Việt Nam","Quận Bình Tân, Hồ Chí Minh, Việt Nam",,Clear
quan binh tan ho chi minh,2/3/2024 9:00,31.0,31.0,31.0,21.0,55.31,33.6,7.6,,130.0,,0.0,,,10.0,,1014.0,,10.7368,106.614,"Quận Bình Tân, Hồ Chí Minh, Việt Nam","Quận Bình Tân, Hồ Chí Minh, Việt Nam",,Clear
quan binh tan ho chi minh,2/3/2024 10:00,31.0,31.0,31.0,19.0,48.87,32.3,5.4,,,,0.0,,,10.0,,1014.0,,10.7368,106.614,"Quận Bình Tân, Hồ Chí Minh, Việt Nam","Quận Bình Tân, Hồ Chí Minh, Việt Nam",,Clear
quan binh tan ho chi minh,2/3/2024 11:00,33.0,33.0,33.0,19.0,43.63,34.5,9.4,,,,0.0,,,10.0,,1013.0,,10.7368,106.614,"Quận Bình Tân, Hồ Chí Minh, Việt Nam","Quận Bình Tân, Hồ Chí Minh, Việt Nam",,Clear
quan binh tan ho chi minh,2/3/2024 12:00,34.0,34.0,34.0,19.0,41.25,35.7,3.6,,110.0,,0.0,,,10.0,25.0,1012.0,,10.7368,106.614,"Quận Bình Tân, Hồ Chí Minh, Việt Nam","Quận Bình Tân, Hồ Chí Minh, Việt Nam",,Clear
quan binh tan ho chi minh,2/3/2024 13:00,34.0,34.0,34.0,20.0,43.9,36.4,9.4,,230.0,,0.0,,,10.0,50.0,1011.0,,10.7368,106.614,"Quận Bình Tân, Hồ Chí Minh, Việt Nam","Quận Bình Tân, Hồ Chí Minh, Việt Nam",,Partially cloudy
quan binh tan ho chi minh,2/3/2024 14:00,35.0,35.0,35.0,20.0,41.52,37.6,5.4,,,,0.0,,,10.0,50.0,1010.0,,10.7368,106.614,"Quận Bình Tân, Hồ Chí Minh, Việt Nam","Quận Bình Tân, Hồ Chí Minh, Việt Nam",,Partially cloudy
quan binh tan ho chi minh,2/3/2024 15:00,36.0,36.0,36.0,20.0,39.29,38.8,7.6,,180.0,,0.0,,,10.0,50.0,1009.0,,10.7368,106.614,"Quận Bình Tân, Hồ Chí Minh, Việt Nam","Quận Bình Tân, Hồ Chí Minh, Việt Nam",,Partially cloudy
quan binh tan ho chi minh,2/3/2024 16:00,34.0,34.0,34.0,22.0,49.64,38.2,20.5,,190.0,,0.0,,,10.0,88.0,1009.0,,10.7368,106.614,"Quận Bình Tân, Hồ Chí Minh, Việt Nam","Quận Bình Tân, Hồ Chí Minh, Việt Nam",,Overcast
quan binh tan ho chi minh,2/3/2024 17:00,32.0,32.0,32.0,22.0,55.55,35.7,16.6,,180.0,,0.0,,,10.0,50.0,1009.0,,10.7368,106.614,"Quận Bình Tân, Hồ Chí Minh, Việt Nam","Quận Bình Tân, Hồ Chí Minh, Việt Nam",,Partially cloudy
quan binh tan ho chi minh,2/3/2024 18:00,31.0,31.0,31.0,22.0,58.8,34.4,16.6,,180.0,,0.0,,,10.0,25.0,1010.0,,10.7368,106.614,"Quận Bình Tân, Hồ Chí Minh, Việt Nam","Quận Bình Tân, Hồ Chí Minh, Việt Nam",,Clear
quan binh tan ho chi minh,2/3/2024 19:00,30.0,30.0,30.0,21.0,58.57,32.5,16.6,,140.0,,0.0,,,10.0,25.0,1010.0,,10.7368,106.614,"Quận Bình Tân, Hồ Chí Minh, Việt Nam","Quận Bình Tân, Hồ Chí Minh, Việt Nam",,Clear
quan binh tan ho chi minh,2/3/2024 20:00,29.0,29.0,29.0,21.0,62.05,31.3,16.6,,140.0,,0.0,,,10.0,,1011.0,,10.7368,106.614,"Quận Bình Tân, Hồ Chí Minh, Việt Nam","Quận Bình Tân, Hồ Chí Minh, Việt Nam",,Clear
quan binh tan ho chi minh,2/3/2024 21:00,28.0,28.0,28.0,21.0,65.76,30.0,18.4,,130.0,,0.0,,,10.0,,1011.0,,10.7368,106.614,"Quận Bình Tân, Hồ Chí Minh, Việt Nam","Quận Bình Tân, Hồ Chí Minh, Việt Nam",,Clear
quan binh tan ho chi minh,2/3/2024 22:00,28.0,28.0,28.0,21.0,65.76,30.0,14.8,,110.0,,0.0,,,10.0,,1012.0,,10.7368,106.614,"Quận Bình Tân, Hồ Chí Minh, Việt Nam","Quận Bình Tân, Hồ Chí Minh, Việt Nam",,Clear
quan binh tan ho chi minh,2/3/2024 23:00,28.0,28.0,28.0,21.0,65.76,30.0,7.6,,110.0,,0.0,,,10.0,,1012.0,,10.7368,106.614,"Quận Bình Tân, Hồ Chí Minh, Việt Nam","Quận Bình Tân, Hồ Chí Minh, Việt Nam",,Clear
quan binh tan ho chi minh,3/3/2024 0:00,28.0,28.0,28.0,21.0,65.76,30.0,7.6,,130.0,,0.0,,,10.0,25.0,1012.0,,10.7368,106.614,"Quận Bình Tân, Hồ Chí Minh, Việt Nam","Quận Bình Tân, Hồ Chí Minh, Việt Nam",,Clear
quan binh tan ho chi minh,3/3/2024 1:00,28.0,28.0,28.0,21.0,65.76,30.0,9.4,,110.0,,0.0,,,10.0,25.0,1011.0,,10.7368,106.614,"Quận Bình Tân, Hồ Chí Minh, Việt Nam","Quận Bình Tân, Hồ Chí Minh, Việt Nam",,Clear
quan binh tan ho chi minh,3/3/2024 2:00,27.0,27.0,27.0,21.0,69.73,28.7,7.6,,140.0,,0.0,,,10.0,25.0,1011.0,,10.7368,106.614,"Quận Bình Tân, Hồ Chí Minh, Việt Nam","Quận Bình Tân, Hồ Chí Minh, Việt Nam",,Clear
quan binh tan ho chi minh,3/3/2024 3:00,27.0,27.0,27.0,21.0,69.73,28.7,5.4,,,,0.0,,,10.0,25.0,1011.0,,10.7368,106.614,"Quận Bình Tân, Hồ Chí Minh, Việt Nam","Quận Bình Tân, Hồ Chí Minh, Việt Nam",,Clear
quan binh tan ho chi minh,3/3/2024 4:00,26.0,26.0,26.0,21.0,73.96,,11.2,,100.0,,0.0,,,10.0,25.0,1011.0,,10.7368,106.614,"Quận Bình Tân, Hồ Chí Minh, Việt Nam","Quận Bình Tân, Hồ Chí Minh, Việt Nam",,Clear
quan binh tan ho chi minh,3/3/2024 5:00,26.0,26.0,26.0,21.0,73.96,,7.6,,110.0,,0.0,,,10.0,25.0,1011.0,,10.7368,106.614,"Quận Bình Tân, Hồ Chí Minh, Việt Nam","Quận Bình Tân, Hồ Chí Minh, Việt Nam",,Clear
quan binh tan ho chi minh,3/3/2024 6:00,25.0,25.0,25.0,22.0,83.45,,9.4,,80.0,,0.0,,,10.0,25.0,1012.0,,10.7368,106.614,"Quận Bình Tân, Hồ Chí Minh, Việt Nam","Quận Bình Tân, Hồ Chí Minh, Việt Nam",,Clear
quan binh tan ho chi minh,3/3/2024 7:00,27.0,27.0,27.0,22.0,74.13,29.1,3.6,,,,0.0,,,10.0,25.0,1013.0,,10.7368,106.614,"Quận Bình Tân, Hồ Chí Minh, Việt Nam","Quận Bình Tân, Hồ Chí Minh, Việt Nam",,Clear
quan binh tan ho chi minh,3/3/2024 8:00,29.0,29.0,29.0,21.0,62.05,31.3,5.4,,,,0.0,,,10.0,,1013.0,,10.7368,106.614,"Quận Bình Tân, Hồ Chí Minh, Việt Nam","Quận Bình Tân, Hồ Chí Minh, Việt Nam",,Clear
quan binh tan ho chi minh,3/3/2024 9:00,30.0,30.0,30.0,20.0,55.07,31.8,7.6,,120.0,,0.0,,,10.0,,1013.0,,10.7368,106.614,"Quận Bình Tân, Hồ Chí Minh, Việt Nam","Quận Bình Tân, Hồ Chí Minh, Việt Nam",,Clear
quan binh tan ho chi minh,3/3/2024 10:00,31.0,31.0,31.0,20.0,52.0,32.9,3.6,,,,0.0,,,10.0,25.0,1013.0,,10.7368,106.614,"Quận Bình Tân, Hồ Chí Minh, Việt Nam","Quận Bình Tân, Hồ Chí Minh, Việt Nam",,Clear
quan binh tan ho chi minh,3/3/2024 11:00,32.0,32.0,32.0,20.0,49.13,34.1,3.6,,,,0.0,,,10.0,25.0,1012.0,,10.7368,106.614,"Quận Bình Tân, Hồ Chí Minh, Việt Nam","Quận Bình Tân, Hồ Chí Minh, Việt Nam",,Clear
quan binh tan ho chi minh,3/3/2024 12:00,34.0,34.0,34.0,20.0,43.9,36.4,3.6,,,,0.0,,,10.0,50.0,1011.0,,10.7368,106.614,"Quận Bình Tân, Hồ Chí Minh, Việt Nam","Quận Bình Tân, Hồ Chí Minh, Việt Nam",,Partially cloudy
quan binh tan ho chi minh,3/3/2024 13:00,34.0,34.0,34.0,20.0,43.9,36.4,7.6,,40.0,,0.0,,,9.0,50.0,1010.0,,10.7368,106.614,"Quận Bình Tân, Hồ Chí Minh, Việt Nam","Quận Bình Tân, Hồ Chí Minh, Việt Nam",,Partially cloudy
quan binh tan ho chi minh,3/3/2024 14:00,34.0,34.0,34.0,20.0,43.9,36.4,7.6,,200.0,,0.0,,,9.0,50.0,1009.0,,10.7368,106.614,"Quận Bình Tân, Hồ Chí Minh, Việt Nam","Quận Bình Tân, Hồ Chí Minh, Việt Nam",,Partially cloudy
quan binh tan ho chi minh,3/3/2024 15:00,34.0,34.0,34.0,20.0,43.9,36.4,3.6,,,,0.0,,,10.0,50.0,1008.0,,10.7368,106.614,"Quận Bình Tân, Hồ Chí Minh, Việt Nam","Quận Bình Tân, Hồ Chí Minh, Việt Nam",,Partially cloudy
quan tan binh ho chi minh,1/3/2024 17:00,32.0,32.0,32.0,20.0,49.13,34.1,20.5,,180.0,,0.0,,,10.0,50.0,1009.0,,10.7958,106.659,"Quận Tân Bình, Hồ Chí Minh, Việt Nam","Quận Tân Bình, Hồ Chí Minh, Việt Nam",,Partially cloudy
quan tan binh ho chi minh,1/3/2024 18:00,31.0,31.0,31.0,21.0,55.31,33.6,11.2,,170.0,,0.0,,,10.0,50.0,1010.0,,10.7958,106.659,"Quận Tân Bình, Hồ Chí Minh, Việt Nam","Quận Tân Bình, Hồ Chí Minh, Việt Nam",,Partially cloudy
quan tan binh ho chi minh,1/3/2024 19:00,31.0,31.0,31.0,19.0,48.87,32.3,16.6,,150.0,,0.0,,,10.0,50.0,1010.0,,10.7958,106.659,"Quận Tân Bình, Hồ Chí Minh, Việt Nam","Quận Tân Bình, Hồ Chí Minh, Việt Nam",,Partially cloudy
quan tan binh ho chi minh,1/3/2024 20:00,30.0,30.0,30.0,19.0,51.75,31.3,20.5,,140.0,,0.0,,,10.0,50.0,1011.0,,10.7958,106.659,"Quận Tân Bình, Hồ Chí Minh, Việt Nam","Quận Tân Bình, Hồ Chí Minh, Việt Nam",,Partially cloudy
quan tan binh ho chi minh,1/3/2024 21:00,29.0,29.0,29.0,20.0,58.34,30.7,18.4,,140.0,,0.0,,,10.0,50.0,1012.0,,10.7958,106.659,"Quận Tân Bình, Hồ Chí Minh, Việt Nam","Quận Tân Bình, Hồ Chí Minh, Việt Nam",,Partially cloudy
quan tan binh ho chi minh,1/3/2024 22:00,28.0,28.0,28.0,21.0,65.76,30.0,20.5,,140.0,,0.0,,,10.0,25.0,1012.0,,10.7958,106.659,"Quận Tân Bình, Hồ Chí Minh, Việt Nam","Quận Tân Bình, Hồ Chí Minh, Việt Nam",,Clear
quan tan binh ho chi minh,1/3/2024 23:00,28.0,28.0,28.0,21.0,65.76,30.0,13.0,,130.0,,0.0,,,10.0,25.0,1012.0,,10.7958,106.659,"Quận Tân Bình, Hồ Chí Minh, Việt Nam","Quận Tân Bình, Hồ Chí Minh, Việt Nam",,Clear
quan tan binh ho chi minh,2/3/2024 0:00,28.0,28.0,28.0,21.0,65.76,30.0,13.0,,120.0,,0.0,,,10.0,25.0,1011.0,,10.7958,106.659,"Quận Tân Bình, Hồ Chí Minh, Việt Nam","Quận Tân Bình, Hồ Chí Minh, Việt Nam",,Clear
quan tan binh ho chi minh,2/3/2024 1:00,28.0,28.0,28.0,21.0,65.76,30.0,13.0,,130.0,,0.0,,,10.0,25.0,1011.0,,10.7958,106.659,"Quận Tân Bình, Hồ Chí Minh, Việt Nam","Quận Tân Bình, Hồ Chí Minh, Việt Nam",,Clear
quan tan binh ho chi minh,2/3/2024 2:00,27.0,27.0,27.0,21.0,69.73,28.7,7.6,,120.0,,0.0,,,10.0,25.0,1011.0,,10.7958,106.659,"Quận Tân Bình, Hồ Chí Minh, Việt Nam","Quận Tân Bình, Hồ Chí Minh, Việt Nam",,Clear
quan tan binh ho chi minh,2/3/2024 3:00,27.0,27.0,27.0,22.0,74.13,29.1,9.4,,100.0,,0.0,,,10.0,50.0,1011.0,,10.7958,106.659,"Quận Tân Bình, Hồ Chí Minh, Việt Nam","Quận Tân Bình, Hồ Chí Minh, Việt Nam",,Partially cloudy
quan tan binh ho chi minh,2/3/2024 4:00,26.0,26.0,26.0,22.0,78.63,,5.4,,90.0,,0.0,,,10.0,50.0,1010.0,,10.7958,106.659,"Quận Tân Bình, Hồ Chí Minh, Việt Nam","Quận Tân Bình, Hồ Chí Minh, Việt Nam",,Partially cloudy
quan tan binh ho chi minh,2/3/2024 5:00,26.0,26.0,26.0,22.0,78.63,,7.6,,90.0,,0.0,,,10.0,50.0,1010.0,,10.7958,106.659,"Quận Tân Bình, Hồ Chí Minh, Việt Nam","Quận Tân Bình, Hồ Chí Minh, Việt Nam",,Partially cloudy
quan tan binh ho chi minh,2/3/2024 6:00,26.0,26.0,26.0,22.0,78.63,,9.4,,80.0,,0.0,,,10.0,25.0,1011.0,,10.7958,106.659,"Quận Tân Bình, Hồ Chí Minh, Việt Nam","Quận Tân Bình, Hồ Chí Minh, Việt Nam",,Clear
quan tan binh ho chi minh,2/3/2024 7:00,27.0,27.0,27.0,22.0,74.13,29.1,5.4,,,,0.0,,,10.0,,1012.0,,10.7958,106.659,"Quận Tân Bình, Hồ Chí Minh, Việt Nam","Quận Tân Bình, Hồ Chí Minh, Việt Nam",,Clear
quan tan binh ho chi minh,2/3/2024 8:00,29.0,29.0,29.0,22.0,65.97,31.9,1.8,,,,0.0,,,9.0,,1013.0,,10.7958,106.659,"Quận Tân Bình, Hồ Chí Minh, Việt Nam","Quận Tân Bình, Hồ Chí Minh, Việt Nam",,Clear
quan tan binh ho chi minh,2/3/2024 9:00,31.0,31.0,31.0,21.0,55.31,33.6,7.6,,130.0,,0.0,,,10.0,,1014.0,,10.7958,106.659,"Quận Tân Bình, Hồ Chí Minh, Việt Nam","Quận Tân Bình, Hồ Chí Minh, Việt Nam",,Clear
quan tan binh ho chi minh,2/3/2024 10:00,31.0,31.0,31.0,19.0,48.87,32.3,5.4,,,,0.0,,,10.0,,1014.0,,10.7958,106.659,"Quận Tân Bình, Hồ Chí Minh, Việt Nam","Quận Tân Bình, Hồ Chí Minh, Việt Nam",,Clear
quan tan binh ho chi minh,2/3/2024 11:00,33.0,33.0,33.0,19.0,43.63,34.5,9.4,,,,0.0,,,10.0,,1013.0,,10.7958,106.659,"Quận Tân Bình, Hồ Chí Minh, Việt Nam","Quận Tân Bình, Hồ Chí Minh, Việt Nam",,Clear
quan tan binh ho chi minh,2/3/2024 12:00,34.0,34.0,34.0,19.0,41.25,35.7,3.6,,110.0,,0.0,,,10.0,25.0,1012.0,,10.7958,106.659,"Quận Tân Bình, Hồ Chí Minh, Việt Nam","Quận Tân Bình, Hồ Chí Minh, Việt Nam",,Clear
quan tan binh ho chi minh,2/3/2024 13:00,34.0,34.0,34.0,20.0,43.9,36.4,9.4,,230.0,,0.0,,,10.0,50.0,1011.0,,10.7958,106.659,"Quận Tân Bình, Hồ Chí Minh, Việt Nam","Quận Tân Bình, Hồ Chí Minh, Việt Nam",,Partially cloudy
quan tan binh ho chi minh,2/3/2024 14:00,35.0,35.0,35.0,20.0,41.52,37.6,5.4,,,,0.0,,,10.0,50.0,1010.0,,10.7958,106.659,"Quận Tân Bình, Hồ Chí Minh, Việt Nam","Quận Tân Bình, Hồ Chí Minh, Việt Nam",,Partially cloudy
quan tan binh ho chi minh,2/3/2024 15:00,36.0,36.0,36.0,20.0,39.29,38.8,7.6,,180.0,,0.0,,,10.0,50.0,1009.0,,10.7958,106.659,"Quận Tân Bình, Hồ Chí Minh, Việt Nam","Quận Tân Bình, Hồ Chí Minh, Việt Nam",,Partially cloudy
quan tan binh ho chi minh,2/3/2024 16:00,34.0,34.0,34.0,22.0,49.64,38.2,20.5,,190.0,,0.0,,,10.0,88.0,1009.0,,10.7958,106.659,"Quận Tân Bình, Hồ Chí Minh, Việt Nam","Quận Tân Bình, Hồ Chí Minh, Việt Nam",,Overcast
quan tan binh ho chi minh,2/3/2024 17:00,32.0,32.0,32.0,22.0,55.55,35.7,16.6,,180.0,,0.0,,,10.0,50.0,1009.0,,10.7958,106.659,"Quận Tân Bình, Hồ Chí Minh, Việt Nam","Quận Tân Bình, Hồ Chí Minh, Việt Nam",,Partially cloudy
quan tan binh ho chi minh,2/3/2024 18:00,31.0,31.0,31.0,22.0,58.8,34.4,16.6,,180.0,,0.0,,,10.0,25.0,1010.0,,10.7958,106.659,"Quận Tân Bình, Hồ Chí Minh, Việt Nam","Quận Tân Bình, Hồ Chí Minh, Việt Nam",,Clear
quan tan binh ho chi minh,2/3/2024 19:00,30.0,30.0,30.0,21.0,58.57,32.5,16.6,,140.0,,0.0,,,10.0,25.0,1010.0,,10.7958,106.659,"Quận Tân Bình, Hồ Chí Minh, Việt Nam","Quận Tân Bình, Hồ Chí Minh, Việt Nam",,Clear
quan tan binh ho chi minh,2/3/2024 20:00,29.0,29.0,29.0,21.0,62.05,31.3,16.6,,140.0,,0.0,,,10.0,,1011.0,,10.7958,106.659,"Quận Tân Bình, Hồ Chí Minh, Việt Nam","Quận Tân Bình, Hồ Chí Minh, Việt Nam",,Clear
quan tan binh ho chi minh,2/3/2024 21:00,28.0,28.0,28.0,21.0,65.76,30.0,18.4,,130.0,,0.0,,,10.0,,1011.0,,10.7958,106.659,"Quận Tân Bình, Hồ Chí Minh, Việt Nam","Quận Tân Bình, Hồ Chí Minh, Việt Nam",,Clear
quan tan binh ho chi minh,2/3/2024 22:00,28.0,28.0,28.0,21.0,65.76,30.0,14.8,,110.0,,0.0,,,10.0,,1012.0,,10.7958,106.659,"Quận Tân Bình, Hồ Chí Minh, Việt Nam","Quận Tân Bình, Hồ Chí Minh, Việt Nam",,Clear
quan tan binh ho chi minh,2/3/2024 23:00,28.0,28.0,28.0,21.0,65.76,30.0,7.6,,110.0,,0.0,,,10.0,,1012.0,,10.7958,106.659,"Quận Tân Bình, Hồ Chí Minh, Việt Nam","Quận Tân Bình, Hồ Chí Minh, Việt Nam",,Clear
quan tan binh ho chi minh,3/3/2024 0:00,28.0,28.0,28.0,21.0,65.76,30.0,7.6,,130.0,,0.0,,,10.0,25.0,1012.0,,10.7958,106.659,"Quận Tân Bình, Hồ Chí Minh, Việt Nam","Quận Tân Bình, Hồ Chí Minh, Việt Nam",,Clear
quan tan binh ho chi minh,3/3/2024 1:00,28.0,28.0,28.0,21.0,65.76,30.0,9.4,,110.0,,0.0,,,10.0,25.0,1011.0,,10.7958,106.659,"Quận Tân Bình, Hồ Chí Minh, Việt Nam","Quận Tân Bình, Hồ Chí Minh, Việt Nam",,Clear
quan tan binh ho chi minh,3/3/2024 2:00,27.0,27.0,27.0,21.0,69.73,28.7,7.6,,140.0,,0.0,,,10.0,25.0,1011.0,,10.7958,106.659,"Quận Tân Bình, Hồ Chí Minh, Việt Nam","Quận Tân Bình, Hồ Chí Minh, Việt Nam",,Clear
quan tan binh ho chi minh,3/3/2024 3:00,27.0,27.0,27.0,21.0,69.73,28.7,5.4,,,,0.0,,,10.0,25.0,1011.0,,10.7958,106.659,"Quận Tân Bình, Hồ Chí Minh, Việt Nam","Quận Tân Bình, Hồ Chí Minh, Việt Nam",,Clear
quan tan binh ho chi minh,3/3/2024 4:00,26.0,26.0,26.0,21.0,73.96,,11.2,,100.0,,0.0,,,10.0,25.0,1011.0,,10.7958,106.659,"Quận Tân Bình, Hồ Chí Minh, Việt Nam","Quận Tân Bình, Hồ Chí Minh, Việt Nam",,Clear
quan tan binh ho chi minh,3/3/2024 5:00,26.0,26.0,26.0,21.0,73.96,,7.6,,110.0,,0.0,,,10.0,25.0,1011.0,,10.7958,106.659,"Quận Tân Bình, Hồ Chí Minh, Việt Nam","Quận Tân Bình, Hồ Chí Minh, Việt Nam",,Clear
quan tan binh ho chi minh,3/3/2024 6:00,25.0,25.0,25.0,22.0,83.45,,9.4,,80.0,,0.0,,,10.0,25.0,1012.0,,10.7958,106.659,"Quận Tân Bình, Hồ Chí Minh, Việt Nam","Quận Tân Bình, Hồ Chí Minh, Việt Nam",,Clear
quan tan binh ho chi minh,3/3/2024 7:00,27.0,27.0,27.0,22.0,74.13,29.1,3.6,,,,0.0,,,10.0,25.0,1013.0,,10.7958,106.659,"Quận Tân Bình, Hồ Chí Minh, Việt Nam","Quận Tân Bình, Hồ Chí Minh, Việt Nam",,Clear
quan tan binh ho chi minh,3/3/2024 8:00,29.0,29.0,29.0,21.0,62.05,31.3,5.4,,,,0.0,,,10.0,,1013.0,,10.7958,106.659,"Quận Tân Bình, Hồ Chí Minh, Việt Nam","Quận Tân Bình, Hồ Chí Minh, Việt Nam",,Clear
quan tan binh ho chi minh,3/3/2024 9:00,30.0,30.0,30.0,20.0,55.07,31.8,7.6,,120.0,,0.0,,,10.0,,1013.0,,10.7958,106.659,"Quận Tân Bình, Hồ Chí Minh, Việt Nam","Quận Tân Bình, Hồ Chí Minh, Việt Nam",,Clear
quan tan binh ho chi minh,3/3/2024 10:00,31.0,31.0,31.0,20.0,52.0,32.9,3.6,,,,0.0,,,10.0,25.0,1013.0,,10.7958,106.659,"Quận Tân Bình, Hồ Chí Minh, Việt Nam","Quận Tân Bình, Hồ Chí Minh, Việt Nam",,Clear
quan tan binh ho chi minh,3/3/2024 11:00,32.0,32.0,32.0,20.0,49.13,34.1,3.6,,,,0.0,,,10.0,25.0,1012.0,,10.7958,106.659,"Quận Tân Bình, Hồ Chí Minh, Việt Nam","Quận Tân Bình, Hồ Chí Minh, Việt Nam",,Clear
quan tan binh ho chi minh,3/3/2024 12:00,34.0,34.0,34.0,20.0,43.9,36.4,3.6,,,,0.0,,,10.0,50.0,1011.0,,10.7958,106.659,"Quận Tân Bình, Hồ Chí Minh, Việt Nam","Quận Tân Bình, Hồ Chí Minh, Việt Nam",,Partially cloudy
quan tan binh ho chi minh,3/3/2024 13:00,34.0,34.0,34.0,20.0,43.9,36.4,7.6,,40.0,,0.0,,,9.0,50.0,1010.0,,10.7958,106.659,"Quận Tân Bình, Hồ Chí Minh, Việt Nam","Quận Tân Bình, Hồ Chí Minh, Việt Nam",,Partially cloudy
quan tan binh ho chi minh,3/3/2024 14:00,34.0,34.0,34.0,20.0,43.9,36.4,7.6,,200.0,,0.0,,,9.0,50.0,1009.0,,10.7958,106.659,"Quận Tân Bình, Hồ Chí Minh, Việt Nam","Quận Tân Bình, Hồ Chí Minh, Việt Nam",,Partially cloudy
quan tan binh ho chi minh,3/3/2024 15:00,34.0,34.0,34.0,20.0,43.9,36.4,3.6,,,,0.0,,,10.0,50.0,1008.0,,10.7958,106.659,"Quận Tân Bình, Hồ Chí Minh, Việt Nam","Quận Tân Bình, Hồ Chí Minh, Việt Nam",,Partially cloudy
quan binh thanh ho chi minh,1/3/2024 17:00,32.0,32.0,32.0,20.0,49.13,34.1,20.5,,180.0,,0.0,,,10.0,50.0,1009.0,,10.8061,106.693,"Quận Bình Thạnh, Hồ Chí Minh, Việt Nam","Quận Bình Thạnh, Hồ Chí Minh, Việt Nam",,Partially cloudy
quan binh thanh ho chi minh,1/3/2024 18:00,31.0,31.0,31.0,21.0,55.31,33.6,11.2,,170.0,,0.0,,,10.0,50.0,1010.0,,10.8061,106.693,"Quận Bình Thạnh, Hồ Chí Minh, Việt Nam","Quận Bình Thạnh, Hồ Chí Minh, Việt Nam",,Partially cloudy
quan binh thanh ho chi minh,1/3/2024 19:00,31.0,31.0,31.0,19.0,48.87,32.3,16.6,,150.0,,0.0,,,10.0,50.0,1010.0,,10.8061,106.693,"Quận Bình Thạnh, Hồ Chí Minh, Việt Nam","Quận Bình Thạnh, Hồ Chí Minh, Việt Nam",,Partially cloudy
quan binh thanh ho chi minh,1/3/2024 20:00,30.0,30.0,30.0,19.0,51.75,31.3,20.5,,140.0,,0.0,,,10.0,50.0,1011.0,,10.8061,106.693,"Quận Bình Thạnh, Hồ Chí Minh, Việt Nam","Quận Bình Thạnh, Hồ Chí Minh, Việt Nam",,Partially cloudy
quan binh thanh ho chi minh,1/3/2024 21:00,29.0,29.0,29.0,20.0,58.34,30.7,18.4,,140.0,,0.0,,,10.0,50.0,1012.0,,10.8061,106.693,"Quận Bình Thạnh, Hồ Chí Minh, Việt Nam","Quận Bình Thạnh, Hồ Chí Minh, Việt Nam",,Partially cloudy
quan binh thanh ho chi minh,1/3/2024 22:00,28.0,28.0,28.0,21.0,65.76,30.0,20.5,,140.0,,0.0,,,10.0,25.0,1012.0,,10.8061,106.693,"Quận Bình Thạnh, Hồ Chí Minh, Việt Nam","Quận Bình Thạnh, Hồ Chí Minh, Việt Nam",,Clear
quan binh thanh ho chi minh,1/3/2024 23:00,28.0,28.0,28.0,21.0,65.76,30.0,13.0,,130.0,,0.0,,,10.0,25.0,1012.0,,10.8061,106.693,"Quận Bình Thạnh, Hồ Chí Minh, Việt Nam","Quận Bình Thạnh, Hồ Chí Minh, Việt Nam",,Clear
quan binh thanh ho chi minh,2/3/2024 0:00,28.0,28.0,28.0,21.0,65.76,30.0,13.0,,120.0,,0.0,,,10.0,25.0,1011.0,,10.8061,106.693,"Quận Bình Thạnh, Hồ Chí Minh, Việt Nam","Quận Bình Thạnh, Hồ Chí Minh, Việt Nam",,Clear
quan binh thanh ho chi minh,2/3/2024 1:00,28.0,28.0,28.0,21.0,65.76,30.0,13.0,,130.0,,0.0,,,10.0,25.0,1011.0,,10.8061,106.693,"Quận Bình Thạnh, Hồ Chí Minh, Việt Nam","Quận Bình Thạnh, Hồ Chí Minh, Việt Nam",,Clear
quan binh thanh ho chi minh,2/3/2024 2:00,27.0,27.0,27.0,21.0,69.73,28.7,7.6,,120.0,,0.0,,,10.0,25.0,1011.0,,10.8061,106.693,"Quận Bình Thạnh, Hồ Chí Minh, Việt Nam","Quận Bình Thạnh, Hồ Chí Minh, Việt Nam",,Clear
quan binh thanh ho chi minh,2/3/2024 3:00,27.0,27.0,27.0,22.0,74.13,29.1,9.4,,100.0,,0.0,,,10.0,50.0,1011.0,,10.8061,106.693,"Quận Bình Thạnh, Hồ Chí Minh, Việt Nam","Quận Bình Thạnh, Hồ Chí Minh, Việt Nam",,Partially cloudy
quan binh thanh ho chi minh,2/3/2024 4:00,26.0,26.0,26.0,22.0,78.63,,5.4,,90.0,,0.0,,,10.0,50.0,1010.0,,10.8061,106.693,"Quận Bình Thạnh, Hồ Chí Minh, Việt Nam","Quận Bình Thạnh, Hồ Chí Minh, Việt Nam",,Partially cloudy
quan binh thanh ho chi minh,2/3/2024 5:00,26.0,26.0,26.0,22.0,78.63,,7.6,,90.0,,0.0,,,10.0,50.0,1010.0,,10.8061,106.693,"Quận Bình Thạnh, Hồ Chí Minh, Việt Nam","Quận Bình Thạnh, Hồ Chí Minh, Việt Nam",,Partially cloudy
quan binh thanh ho chi minh,2/3/2024 6:00,26.0,26.0,26.0,22.0,78.63,,9.4,,80.0,,0.0,,,10.0,25.0,1011.0,,10.8061,106.693,"Quận Bình Thạnh, Hồ Chí Minh, Việt Nam","Quận Bình Thạnh, Hồ Chí Minh, Việt Nam",,Clear
quan binh thanh ho chi minh,2/3/2024 7:00,27.0,27.0,27.0,22.0,74.13,29.1,5.4,,,,0.0,,,10.0,,1012.0,,10.8061,106.693,"Quận Bình Thạnh, Hồ Chí Minh, Việt Nam","Quận Bình Thạnh, Hồ Chí Minh, Việt Nam",,Clear
quan binh thanh ho chi minh,2/3/2024 8:00,29.0,29.0,29.0,22.0,65.97,31.9,1.8,,,,0.0,,,9.0,,1013.0,,10.8061,106.693,"Quận Bình Thạnh, Hồ Chí Minh, Việt Nam","Quận Bình Thạnh, Hồ Chí Minh, Việt Nam",,Clear
quan binh thanh ho chi minh,2/3/2024 9:00,31.0,31.0,31.0,21.0,55.31,33.6,7.6,,130.0,,0.0,,,10.0,,1014.0,,10.8061,106.693,"Quận Bình Thạnh, Hồ Chí Minh, Việt Nam","Quận Bình Thạnh, Hồ Chí Minh, Việt Nam",,Clear
quan binh thanh ho chi minh,2/3/2024 10:00,31.0,31.0,31.0,19.0,48.87,32.3,5.4,,,,0.0,,,10.0,,1014.0,,10.8061,106.693,"Quận Bình Thạnh, Hồ Chí Minh, Việt Nam","Quận Bình Thạnh, Hồ Chí Minh, Việt Nam",,Clear
quan binh thanh ho chi minh,2/3/2024 11:00,33.0,33.0,33.0,19.0,43.63,34.5,9.4,,,,0.0,,,10.0,,1013.0,,10.8061,106.693,"Quận Bình Thạnh, Hồ Chí Minh, Việt Nam","Quận Bình Thạnh, Hồ Chí Minh, Việt Nam",,Clear
quan binh thanh ho chi minh,2/3/2024 12:00,34.0,34.0,34.0,19.0,41.25,35.7,3.6,,110.0,,0.0,,,10.0,25.0,1012.0,,10.8061,106.693,"Quận Bình Thạnh, Hồ Chí Minh, Việt Nam","Quận Bình Thạnh, Hồ Chí Minh, Việt Nam",,Clear
quan binh thanh ho chi minh,2/3/2024 13:00,34.0,34.0,34.0,20.0,43.9,36.4,9.4,,230.0,,0.0,,,10.0,50.0,1011.0,,10.8061,106.693,"Quận Bình Thạnh, Hồ Chí Minh, Việt Nam","Quận Bình Thạnh, Hồ Chí Minh, Việt Nam",,Partially cloudy
quan binh thanh ho chi minh,2/3/2024 14:00,35.0,35.0,35.0,20.0,41.52,37.6,5.4,,,,0.0,,,10.0,50.0,1010.0,,10.8061,106.693,"Quận Bình Thạnh, Hồ Chí Minh, Việt Nam","Quận Bình Thạnh, Hồ Chí Minh, Việt Nam",,Partially cloudy
quan binh thanh ho chi minh,2/3/2024 15:00,36.0,36.0,36.0,20.0,39.29,38.8,7.6,,180.0,,0.0,,,10.0,50.0,1009.0,,10.8061,106.693,"Quận Bình Thạnh, Hồ Chí Minh, Việt Nam","Quận Bình Thạnh, Hồ Chí Minh, Việt Nam",,Partially cloudy
quan binh thanh ho chi minh,2/3/2024 16:00,34.0,34.0,34.0,22.0,49.64,38.2,20.5,,190.0,,0.0,,,10.0,88.0,1009.0,,10.8061,106.693,"Quận Bình Thạnh, Hồ Chí Minh, Việt Nam","Quận Bình Thạnh, Hồ Chí Minh, Việt Nam",,Overcast
quan binh thanh ho chi minh,2/3/2024 17:00,32.0,32.0,32.0,22.0,55.55,35.7,16.6,,180.0,,0.0,,,10.0,50.0,1009.0,,10.8061,106.693,"Quận Bình Thạnh, Hồ Chí Minh, Việt Nam","Quận Bình Thạnh, Hồ Chí Minh, Việt Nam",,Partially cloudy
quan binh thanh ho chi minh,2/3/2024 18:00,31.0,31.0,31.0,22.0,58.8,34.4,16.6,,180.0,,0.0,,,10.0,25.0,1010.0,,10.8061,106.693,"Quận Bình Thạnh, Hồ Chí Minh, Việt Nam","Quận Bình Thạnh, Hồ Chí Minh, Việt Nam",,Clear
quan binh thanh ho chi minh,2/3/2024 19:00,30.0,30.0,30.0,21.0,58.57,32.5,16.6,,140.0,,0.0,,,10.0,25.0,1010.0,,10.8061,106.693,"Quận Bình Thạnh, Hồ Chí Minh, Việt Nam","Quận Bình Thạnh, Hồ Chí Minh, Việt Nam",,Clear
quan binh thanh ho chi minh,2/3/2024 20:00,29.0,29.0,29.0,21.0,62.05,31.3,16.6,,140.0,,0.0,,,10.0,,1011.0,,10.8061,106.693,"Quận Bình Thạnh, Hồ Chí Minh, Việt Nam","Quận Bình Thạnh, Hồ Chí Minh, Việt Nam",,Clear
quan binh thanh ho chi minh,2/3/2024 21:00,28.0,28.0,28.0,21.0,65.76,30.0,18.4,,130.0,,0.0,,,10.0,,1011.0,,10.8061,106.693,"Quận Bình Thạnh, Hồ Chí Minh, Việt Nam","Quận Bình Thạnh, Hồ Chí Minh, Việt Nam",,Clear
quan binh thanh ho chi minh,2/3/2024 22:00,28.0,28.0,28.0,21.0,65.76,30.0,14.8,,110.0,,0.0,,,10.0,,1012.0,,10.8061,106.693,"Quận Bình Thạnh, Hồ Chí Minh, Việt Nam","Quận Bình Thạnh, Hồ Chí Minh, Việt Nam",,Clear
quan binh thanh ho chi minh,2/3/2024 23:00,28.0,28.0,28.0,21.0,65.76,30.0,7.6,,110.0,,0.0,,,10.0,,1012.0,,10.8061,106.693,"Quận Bình Thạnh, Hồ Chí Minh, Việt Nam","Quận Bình Thạnh, Hồ Chí Minh, Việt Nam",,Clear
quan binh thanh ho chi minh,3/3/2024 0:00,28.0,28.0,28.0,21.0,65.76,30.0,7.6,,130.0,,0.0,,,10.0,25.0,1012.0,,10.8061,106.693,"Quận Bình Thạnh, Hồ Chí Minh, Việt Nam","Quận Bình Thạnh, Hồ Chí Minh, Việt Nam",,Clear
quan binh thanh ho chi minh,3/3/2024 1:00,28.0,28.0,28.0,21.0,65.76,30.0,9.4,,110.0,,0.0,,,10.0,25.0,1011.0,,10.8061,106.693,"Quận Bình Thạnh, Hồ Chí Minh, Việt Nam","Quận Bình Thạnh, Hồ Chí Minh, Việt Nam",,Clear
quan binh thanh ho chi minh,3/3/2024 2:00,27.0,27.0,27.0,21.0,69.73,28.7,7.6,,140.0,,0.0,,,10.0,25.0,1011.0,,10.8061,106.693,"Quận Bình Thạnh, Hồ Chí Minh, Việt Nam","Quận Bình Thạnh, Hồ Chí Minh, Việt Nam",,Clear
quan binh thanh ho chi minh,3/3/2024 3:00,27.0,27.0,27.0,21.0,69.73,28.7,5.4,,,,0.0,,,10.0,25.0,1011.0,,10.8061,106.693,"Quận Bình Thạnh, Hồ Chí Minh, Việt Nam","Quận Bình Thạnh, Hồ Chí Minh, Việt Nam",,Clear
quan binh thanh ho chi minh,3/3/2024 4:00,26.0,26.0,26.0,21.0,73.96,,11.2,,100.0,,0.0,,,10.0,25.0,1011.0,,10.8061,106.693,"Quận Bình Thạnh, Hồ Chí Minh, Việt Nam","Quận Bình Thạnh, Hồ Chí Minh, Việt Nam",,Clear
quan binh thanh ho chi minh,3/3/2024 5:00,26.0,26.0,26.0,21.0,73.96,,7.6,,110.0,,0.0,,,10.0,25.0,1011.0,,10.8061,106.693,"Quận Bình Thạnh, Hồ Chí Minh, Việt Nam","Quận Bình Thạnh, Hồ Chí Minh, Việt Nam",,Clear
quan binh thanh ho chi minh,3/3/2024 6:00,25.0,25.0,25.0,22.0,83.45,,9.4,,80.0,,0.0,,,10.0,25.0,1012.0,,10.8061,106.693,"Quận Bình Thạnh, Hồ Chí Minh, Việt Nam","Quận Bình Thạnh, Hồ Chí Minh, Việt Nam",,Clear
quan binh thanh ho chi minh,3/3/2024 7:00,27.0,27.0,27.0,22.0,74.13,29.1,3.6,,,,0.0,,,10.0,25.0,1013.0,,10.8061,106.693,"Quận Bình Thạnh, Hồ Chí Minh, Việt Nam","Quận Bình Thạnh, Hồ Chí Minh, Việt Nam",,Clear
quan binh thanh ho chi minh,3/3/2024 8:00,29.0,29.0,29.0,21.0,62.05,31.3,5.4,,,,0.0,,,10.0,,1013.0,,10.8061,106.693,"Quận Bình Thạnh, Hồ Chí Minh, Việt Nam","Quận Bình Thạnh, Hồ Chí Minh, Việt Nam",,Clear
quan binh thanh ho chi minh,3/3/2024 9:00,30.0,30.0,30.0,20.0,55.07,31.8,7.6,,120.0,,0.0,,,10.0,,1013.0,,10.8061,106.693,"Quận Bình Thạnh, Hồ Chí Minh, Việt Nam","Quận Bình Thạnh, Hồ Chí Minh, Việt Nam",,Clear
quan binh thanh ho chi minh,3/3/2024 10:00,31.0,31.0,31.0,20.0,52.0,32.9,3.6,,,,0.0,,,10.0,25.0,1013.0,,10.8061,106.693,"Quận Bình Thạnh, Hồ Chí Minh, Việt Nam","Quận Bình Thạnh, Hồ Chí Minh, Việt Nam",,Clear
quan binh thanh ho chi minh,3/3/2024 11:00,32.0,32.0,32.0,20.0,49.13,34.1,3.6,,,,0.0,,,10.0,25.0,1012.0,,10.8061,106.693,"Quận Bình Thạnh, Hồ Chí Minh, Việt Nam","Quận Bình Thạnh, Hồ Chí Minh, Việt Nam",,Clear
quan binh thanh ho chi minh,3/3/2024 12:00,34.0,34.0,34.0,20.0,43.9,36.4,3.6,,,,0.0,,,10.0,50.0,1011.0,,10.8061,106.693,"Quận Bình Thạnh, Hồ Chí Minh, Việt Nam","Quận Bình Thạnh, Hồ Chí Minh, Việt Nam",,Partially cloudy
quan binh thanh ho chi minh,3/3/2024 13:00,34.0,34.0,34.0,20.0,43.9,36.4,7.6,,40.0,,0.0,,,9.0,50.0,1010.0,,10.8061,106.693,"Quận Bình Thạnh, Hồ Chí Minh, Việt Nam","Quận Bình Thạnh, Hồ Chí Minh, Việt Nam",,Partially cloudy
quan binh thanh ho chi minh,3/3/2024 14:00,34.0,34.0,34.0,20.0,43.9,36.4,7.6,,200.0,,0.0,,,9.0,50.0,1009.0,,10.8061,106.693,"Quận Bình Thạnh, Hồ Chí Minh, Việt Nam","Quận Bình Thạnh, Hồ Chí Minh, Việt Nam",,Partially cloudy
quan binh thanh ho chi minh,3/3/2024 15:00,34.0,34.0,34.0,20.0,43.9,36.4,3.6,,,,0.0,,,10.0,50.0,1008.0,,10.8061,106.693,"Quận Bình Thạnh, Hồ Chí Minh, Việt Nam","Quận Bình Thạnh, Hồ Chí Minh, Việt Nam",,Partially cloudy
quan tan phu ho chi minh,1/3/2024 17:00,32.0,32.0,32.0,20.0,49.13,34.1,20.5,,180.0,,0.0,,,10.0,50.0,1009.0,,10.7823,106.637,"Quận Tân Phú, Hồ Chí Minh, Việt Nam","Quận Tân Phú, Hồ Chí Minh, Việt Nam",,Partially cloudy
quan tan phu ho chi minh,1/3/2024 18:00,31.0,31.0,31.0,21.0,55.31,33.6,11.2,,170.0,,0.0,,,10.0,50.0,1010.0,,10.7823,106.637,"Quận Tân Phú, Hồ Chí Minh, Việt Nam","Quận Tân Phú, Hồ Chí Minh, Việt Nam",,Partially cloudy
quan tan phu ho chi minh,1/3/2024 19:00,31.0,31.0,31.0,19.0,48.87,32.3,16.6,,150.0,,0.0,,,10.0,50.0,1010.0,,10.7823,106.637,"Quận Tân Phú, Hồ Chí Minh, Việt Nam","Quận Tân Phú, Hồ Chí Minh, Việt Nam",,Partially cloudy
quan tan phu ho chi minh,1/3/2024 20:00,30.0,30.0,30.0,19.0,51.75,31.3,20.5,,140.0,,0.0,,,10.0,50.0,1011.0,,10.7823,106.637,"Quận Tân Phú, Hồ Chí Minh, Việt Nam","Quận Tân Phú, Hồ Chí Minh, Việt Nam",,Partially cloudy
quan tan phu ho chi minh,1/3/2024 21:00,29.0,29.0,29.0,20.0,58.34,30.7,18.4,,140.0,,0.0,,,10.0,50.0,1012.0,,10.7823,106.637,"Quận Tân Phú, Hồ Chí Minh, Việt Nam","Quận Tân Phú, Hồ Chí Minh, Việt Nam",,Partially cloudy
quan tan phu ho chi minh,1/3/2024 22:00,28.0,28.0,28.0,21.0,65.76,30.0,20.5,,140.0,,0.0,,,10.0,25.0,1012.0,,10.7823,106.637,"Quận Tân Phú, Hồ Chí Minh, Việt Nam","Quận Tân Phú, Hồ Chí Minh, Việt Nam",,Clear
quan tan phu ho chi minh,1/3/2024 23:00,28.0,28.0,28.0,21.0,65.76,30.0,13.0,,130.0,,0.0,,,10.0,25.0,1012.0,,10.7823,106.637,"Quận Tân Phú, Hồ Chí Minh, Việt Nam","Quận Tân Phú, Hồ Chí Minh, Việt Nam",,Clear
quan tan phu ho chi minh,2/3/2024 0:00,28.0,28.0,28.0,21.0,65.76,30.0,13.0,,120.0,,0.0,,,10.0,25.0,1011.0,,10.7823,106.637,"Quận Tân Phú, Hồ Chí Minh, Việt Nam","Quận Tân Phú, Hồ Chí Minh, Việt Nam",,Clear
quan tan phu ho chi minh,2/3/2024 1:00,28.0,28.0,28.0,21.0,65.76,30.0,13.0,,130.0,,0.0,,,10.0,25.0,1011.0,,10.7823,106.637,"Quận Tân Phú, Hồ Chí Minh, Việt Nam","Quận Tân Phú, Hồ Chí Minh, Việt Nam",,Clear
quan tan phu ho chi minh,2/3/2024 2:00,27.0,27.0,27.0,21.0,69.73,28.7,7.6,,120.0,,0.0,,,10.0,25.0,1011.0,,10.7823,106.637,"Quận Tân Phú, Hồ Chí Minh, Việt Nam","Quận Tân Phú, Hồ Chí Minh, Việt Nam",,Clear
quan tan phu ho chi minh,2/3/2024 3:00,27.0,27.0,27.0,22.0,74.13,29.1,9.4,,100.0,,0.0,,,10.0,50.0,1011.0,,10.7823,106.637,"Quận Tân Phú, Hồ Chí Minh, Việt Nam","Quận Tân Phú, Hồ Chí Minh, Việt Nam",,Partially cloudy
quan tan phu ho chi minh,2/3/2024 4:00,26.0,26.0,26.0,22.0,78.63,,5.4,,90.0,,0.0,,,10.0,50.0,1010.0,,10.7823,106.637,"Quận Tân Phú, Hồ Chí Minh, Việt Nam","Quận Tân Phú, Hồ Chí Minh, Việt Nam",,Partially cloudy
quan tan phu ho chi minh,2/3/2024 5:00,26.0,26.0,26.0,22.0,78.63,,7.6,,90.0,,0.0,,,10.0,50.0,1010.0,,10.7823,106.637,"Quận Tân Phú, Hồ Chí Minh, Việt Nam","Quận Tân Phú, Hồ Chí Minh, Việt Nam",,Partially cloudy
quan tan phu ho chi minh,2/3/2024 6:00,26.0,26.0,26.0,22.0,78.63,,9.4,,80.0,,0.0,,,10.0,25.0,1011.0,,10.7823,106.637,"Quận Tân Phú, Hồ Chí Minh, Việt Nam","Quận Tân Phú, Hồ Chí Minh, Việt Nam",,Clear
quan tan phu ho chi minh,2/3/2024 7:00,27.0,27.0,27.0,22.0,74.13,29.1,5.4,,,,0.0,,,10.0,,1012.0,,10.7823,106.637,"Quận Tân Phú, Hồ Chí Minh, Việt Nam","Quận Tân Phú, Hồ Chí Minh, Việt Nam",,Clear
quan tan phu ho chi minh,2/3/2024 8:00,29.0,29.0,29.0,22.0,65.97,31.9,1.8,,,,0.0,,,9.0,,1013.0,,10.7823,106.637,"Quận Tân Phú, Hồ Chí Minh, Việt Nam","Quận Tân Phú, Hồ Chí Minh, Việt Nam",,Clear
quan tan phu ho chi minh,2/3/2024 9:00,31.0,31.0,31.0,21.0,55.31,33.6,7.6,,130.0,,0.0,,,10.0,,1014.0,,10.7823,106.637,"Quận Tân Phú, Hồ Chí Minh, Việt Nam","Quận Tân Phú, Hồ Chí Minh, Việt Nam",,Clear
quan tan phu ho chi minh,2/3/2024 10:00,31.0,31.0,31.0,19.0,48.87,32.3,5.4,,,,0.0,,,10.0,,1014.0,,10.7823,106.637,"Quận Tân Phú, Hồ Chí Minh, Việt Nam","Quận Tân Phú, Hồ Chí Minh, Việt Nam",,Clear
quan tan phu ho chi minh,2/3/2024 11:00,33.0,33.0,33.0,19.0,43.63,34.5,9.4,,,,0.0,,,10.0,,1013.0,,10.7823,106.637,"Quận Tân Phú, Hồ Chí Minh, Việt Nam","Quận Tân Phú, Hồ Chí Minh, Việt Nam",,Clear
quan tan phu ho chi minh,2/3/2024 12:00,34.0,34.0,34.0,19.0,41.25,35.7,3.6,,110.0,,0.0,,,10.0,25.0,1012.0,,10.7823,106.637,"Quận Tân Phú, Hồ Chí Minh, Việt Nam","Quận Tân Phú, Hồ Chí Minh, Việt Nam",,Clear
quan tan phu ho chi minh,2/3/2024 13:00,34.0,34.0,34.0,20.0,43.9,36.4,9.4,,230.0,,0.0,,,10.0,50.0,1011.0,,10.7823,106.637,"Quận Tân Phú, Hồ Chí Minh, Việt Nam","Quận Tân Phú, Hồ Chí Minh, Việt Nam",,Partially cloudy
quan tan phu ho chi minh,2/3/2024 14:00,35.0,35.0,35.0,20.0,41.52,37.6,5.4,,,,0.0,,,10.0,50.0,1010.0,,10.7823,106.637,"Quận Tân Phú, Hồ Chí Minh, Việt Nam","Quận Tân Phú, Hồ Chí Minh, Việt Nam",,Partially cloudy
quan tan phu ho chi minh,2/3/2024 15:00,36.0,36.0,36.0,20.0,39.29,38.8,7.6,,180.0,,0.0,,,10.0,50.0,1009.0,,10.7823,106.637,"Quận Tân Phú, Hồ Chí Minh, Việt Nam","Quận Tân Phú, Hồ Chí Minh, Việt Nam",,Partially cloudy
quan tan phu ho chi minh,2/3/2024 16:00,34.0,34.0,34.0,22.0,49.64,38.2,20.5,,190.0,,0.0,,,10.0,88.0,1009.0,,10.7823,106.637,"Quận Tân Phú, Hồ Chí Minh, Việt Nam","Quận Tân Phú, Hồ Chí Minh, Việt Nam",,Overcast
quan tan phu ho chi minh,2/3/2024 17:00,32.0,32.0,32.0,22.0,55.55,35.7,16.6,,180.0,,0.0,,,10.0,50.0,1009.0,,10.7823,106.637,"Quận Tân Phú, Hồ Chí Minh, Việt Nam","Quận Tân Phú, Hồ Chí Minh, Việt Nam",,Partially cloudy
quan tan phu ho chi minh,2/3/2024 18:00,31.0,31.0,31.0,22.0,58.8,34.4,16.6,,180.0,,0.0,,,10.0,25.0,1010.0,,10.7823,106.637,"Quận Tân Phú, Hồ Chí Minh, Việt Nam","Quận Tân Phú, Hồ Chí Minh, Việt Nam",,Clear
quan tan phu ho chi minh,2/3/2024 19:00,30.0,30.0,30.0,21.0,58.57,32.5,16.6,,140.0,,0.0,,,10.0,25.0,1010.0,,10.7823,106.637,"Quận Tân Phú, Hồ Chí Minh, Việt Nam","Quận Tân Phú, Hồ Chí Minh, Việt Nam",,Clear
quan tan phu ho chi minh,2/3/2024 20:00,29.0,29.0,29.0,21.0,62.05,31.3,16.6,,140.0,,0.0,,,10.0,,1011.0,,10.7823,106.637,"Quận Tân Phú, Hồ Chí Minh, Việt Nam","Quận Tân Phú, Hồ Chí Minh, Việt Nam",,Clear
quan tan phu ho chi minh,2/3/2024 21:00,28.0,28.0,28.0,21.0,65.76,30.0,18.4,,130.0,,0.0,,,10.0,,1011.0,,10.7823,106.637,"Quận Tân Phú, Hồ Chí Minh, Việt Nam","Quận Tân Phú, Hồ Chí Minh, Việt Nam",,Clear
quan tan phu ho chi minh,2/3/2024 22:00,28.0,28.0,28.0,21.0,65.76,30.0,14.8,,110.0,,0.0,,,10.0,,1012.0,,10.7823,106.637,"Quận Tân Phú, Hồ Chí Minh, Việt Nam","Quận Tân Phú, Hồ Chí Minh, Việt Nam",,Clear
quan tan phu ho chi minh,2/3/2024 23:00,28.0,28.0,28.0,21.0,65.76,30.0,7.6,,110.0,,0.0,,,10.0,,1012.0,,10.7823,106.637,"Quận Tân Phú, Hồ Chí Minh, Việt Nam","Quận Tân Phú, Hồ Chí Minh, Việt Nam",,Clear
quan tan phu ho chi minh,3/3/2024 0:00,28.0,28.0,28.0,21.0,65.76,30.0,7.6,,130.0,,0.0,,,10.0,25.0,1012.0,,10.7823,106.637,"Quận Tân Phú, Hồ Chí Minh, Việt Nam","Quận Tân Phú, Hồ Chí Minh, Việt Nam",,Clear
quan tan phu ho chi minh,3/3/2024 1:00,28.0,28.0,28.0,21.0,65.76,30.0,9.4,,110.0,,0.0,,,10.0,25.0,1011.0,,10.7823,106.637,"Quận Tân Phú, Hồ Chí Minh, Việt Nam","Quận Tân Phú, Hồ Chí Minh, Việt Nam",,Clear
quan tan phu ho chi minh,3/3/2024 2:00,27.0,27.0,27.0,21.0,69.73,28.7,7.6,,140.0,,0.0,,,10.0,25.0,1011.0,,10.7823,106.637,"Quận Tân Phú, Hồ Chí Minh, Việt Nam","Quận Tân Phú, Hồ Chí Minh, Việt Nam",,Clear
quan tan phu ho chi minh,3/3/2024 3:00,27.0,27.0,27.0,21.0,69.73,28.7,5.4,,,,0.0,,,10.0,25.0,1011.0,,10.7823,106.637,"Quận Tân Phú, Hồ Chí Minh, Việt Nam","Quận Tân Phú, Hồ Chí Minh, Việt Nam",,Clear
quan tan phu ho chi minh,3/3/2024 4:00,26.0,26.0,26.0,21.0,73.96,,11.2,,100.0,,0.0,,,10.0,25.0,1011.0,,10.7823,106.637,"Quận Tân Phú, Hồ Chí Minh, Việt Nam","Quận Tân Phú, Hồ Chí Minh, Việt Nam",,Clear
quan tan phu ho chi minh,3/3/2024 5:00,26.0,26.0,26.0,21.0,73.96,,7.6,,110.0,,0.0,,,10.0,25.0,1011.0,,10.7823,106.637,"Quận Tân Phú, Hồ Chí Minh, Việt Nam","Quận Tân Phú, Hồ Chí Minh, Việt Nam",,Clear
quan tan phu ho chi minh,3/3/2024 6:00,25.0,25.0,25.0,22.0,83.45,,9.4,,80.0,,0.0,,,10.0,25.0,1012.0,,10.7823,106.637,"Quận Tân Phú, Hồ Chí Minh, Việt Nam","Quận Tân Phú, Hồ Chí Minh, Việt Nam",,Clear
quan tan phu ho chi minh,3/3/2024 7:00,27.0,27.0,27.0,22.0,74.13,29.1,3.6,,,,0.0,,,10.0,25.0,1013.0,,10.7823,106.637,"Quận Tân Phú, Hồ Chí Minh, Việt Nam","Quận Tân Phú, Hồ Chí Minh, Việt Nam",,Clear
quan tan phu ho chi minh,3/3/2024 8:00,29.0,29.0,29.0,21.0,62.05,31.3,5.4,,,,0.0,,,10.0,,1013.0,,10.7823,106.637,"Quận Tân Phú, Hồ Chí Minh, Việt Nam","Quận Tân Phú, Hồ Chí Minh, Việt Nam",,Clear
quan tan phu ho chi minh,3/3/2024 9:00,30.0,30.0,30.0,20.0,55.07,31.8,7.6,,120.0,,0.0,,,10.0,,1013.0,,10.7823,106.637,"Quận Tân Phú, Hồ Chí Minh, Việt Nam","Quận Tân Phú, Hồ Chí Minh, Việt Nam",,Clear
quan tan phu ho chi minh,3/3/2024 10:00,31.0,31.0,31.0,20.0,52.0,32.9,3.6,,,,0.0,,,10.0,25.0,1013.0,,10.7823,106.637,"Quận Tân Phú, Hồ Chí Minh, Việt Nam","Quận Tân Phú, Hồ Chí Minh, Việt Nam",,Clear
quan tan phu ho chi minh,3/3/2024 11:00,32.0,32.0,32.0,20.0,49.13,34.1,3.6,,,,0.0,,,10.0,25.0,1012.0,,10.7823,106.637,"Quận Tân Phú, Hồ Chí Minh, Việt Nam","Quận Tân Phú, Hồ Chí Minh, Việt Nam",,Clear
quan tan phu ho chi minh,3/3/2024 12:00,34.0,34.0,34.0,20.0,43.9,36.4,3.6,,,,0.0,,,10.0,50.0,1011.0,,10.7823,106.637,"Quận Tân Phú, Hồ Chí Minh, Việt Nam","Quận Tân Phú, Hồ Chí Minh, Việt Nam",,Partially cloudy
quan tan phu ho chi minh,3/3/2024 13:00,34.0,34.0,34.0,20.0,43.9,36.4,7.6,,40.0,,0.0,,,9.0,50.0,1010.0,,10.7823,106.637,"Quận Tân Phú, Hồ Chí Minh, Việt Nam","Quận Tân Phú, Hồ Chí Minh, Việt Nam",,Partially cloudy
quan tan phu ho chi minh,3/3/2024 14:00,34.0,34.0,34.0,20.0,43.9,36.4,7.6,,200.0,,0.0,,,9.0,50.0,1009.0,,10.7823,106.637,"Quận Tân Phú, Hồ Chí Minh, Việt Nam","Quận Tân Phú, Hồ Chí Minh, Việt Nam",,Partially cloudy
quan tan phu ho chi minh,3/3/2024 15:00,34.0,34.0,34.0,20.0,43.9,36.4,3.6,,,,0.0,,,10.0,50.0,1008.0,,10.7823,106.637,"Quận Tân Phú, Hồ Chí Minh, Việt Nam","Quận Tân Phú, Hồ Chí Minh, Việt Nam",,Partially cloudy
quan go vap ho chi minh,1/3/2024 17:00,32.0,32.0,32.0,20.0,49.13,34.1,20.5,,180.0,,0.0,,,10.0,50.0,1009.0,,10.8338,106.666,"Quận Gò Vấp, Hồ Chí Minh, Việt Nam","Quận Gò Vấp, Hồ Chí Minh, Việt Nam",,Partially cloudy
quan go vap ho chi minh,1/3/2024 18:00,31.0,31.0,31.0,21.0,55.31,33.6,11.2,,170.0,,0.0,,,10.0,50.0,1010.0,,10.8338,106.666,"Quận Gò Vấp, Hồ Chí Minh, Việt Nam","Quận Gò Vấp, Hồ Chí Minh, Việt Nam",,Partially cloudy
quan go vap ho chi minh,1/3/2024 19:00,31.0,31.0,31.0,19.0,48.87,32.3,16.6,,150.0,,0.0,,,10.0,50.0,1010.0,,10.8338,106.666,"Quận Gò Vấp, Hồ Chí Minh, Việt Nam","Quận Gò Vấp, Hồ Chí Minh, Việt Nam",,Partially cloudy
quan go vap ho chi minh,1/3/2024 20:00,30.0,30.0,30.0,19.0,51.75,31.3,20.5,,140.0,,0.0,,,10.0,50.0,1011.0,,10.8338,106.666,"Quận Gò Vấp, Hồ Chí Minh, Việt Nam","Quận Gò Vấp, Hồ Chí Minh, Việt Nam",,Partially cloudy
quan go vap ho chi minh,1/3/2024 21:00,29.0,29.0,29.0,20.0,58.34,30.7,18.4,,140.0,,0.0,,,10.0,50.0,1012.0,,10.8338,106.666,"Quận Gò Vấp, Hồ Chí Minh, Việt Nam","Quận Gò Vấp, Hồ Chí Minh, Việt Nam",,Partially cloudy
quan go vap ho chi minh,1/3/2024 22:00,28.0,28.0,28.0,21.0,65.76,30.0,20.5,,140.0,,0.0,,,10.0,25.0,1012.0,,10.8338,106.666,"Quận Gò Vấp, Hồ Chí Minh, Việt Nam","Quận Gò Vấp, Hồ Chí Minh, Việt Nam",,Clear
quan go vap ho chi minh,1/3/2024 23:00,28.0,28.0,28.0,21.0,65.76,30.0,13.0,,130.0,,0.0,,,10.0,25.0,1012.0,,10.8338,106.666,"Quận Gò Vấp, Hồ Chí Minh, Việt Nam","Quận Gò Vấp, Hồ Chí Minh, Việt Nam",,Clear
quan go vap ho chi minh,2/3/2024 0:00,28.0,28.0,28.0,21.0,65.76,30.0,13.0,,120.0,,0.0,,,10.0,25.0,1011.0,,10.8338,106.666,"Quận Gò Vấp, Hồ Chí Minh, Việt Nam","Quận Gò Vấp, Hồ Chí Minh, Việt Nam",,Clear
quan go vap ho chi minh,2/3/2024 1:00,28.0,28.0,28.0,21.0,65.76,30.0,13.0,,130.0,,0.0,,,10.0,25.0,1011.0,,10.8338,106.666,"Quận Gò Vấp, Hồ Chí Minh, Việt Nam","Quận Gò Vấp, Hồ Chí Minh, Việt Nam",,Clear
quan go vap ho chi minh,2/3/2024 2:00,27.0,27.0,27.0,21.0,69.73,28.7,7.6,,120.0,,0.0,,,10.0,25.0,1011.0,,10.8338,106.666,"Quận Gò Vấp, Hồ Chí Minh, Việt Nam","Quận Gò Vấp, Hồ Chí Minh, Việt Nam",,Clear
quan go vap ho chi minh,2/3/2024 3:00,27.0,27.0,27.0,22.0,74.13,29.1,9.4,,100.0,,0.0,,,10.0,50.0,1011.0,,10.8338,106.666,"Quận Gò Vấp, Hồ Chí Minh, Việt Nam","Quận Gò Vấp, Hồ Chí Minh, Việt Nam",,Partially cloudy
quan go vap ho chi minh,2/3/2024 4:00,26.0,26.0,26.0,22.0,78.63,,5.4,,90.0,,0.0,,,10.0,50.0,1010.0,,10.8338,106.666,"Quận Gò Vấp, Hồ Chí Minh, Việt Nam","Quận Gò Vấp, Hồ Chí Minh, Việt Nam",,Partially cloudy
quan go vap ho chi minh,2/3/2024 5:00,26.0,26.0,26.0,22.0,78.63,,7.6,,90.0,,0.0,,,10.0,50.0,1010.0,,10.8338,106.666,"Quận Gò Vấp, Hồ Chí Minh, Việt Nam","Quận Gò Vấp, Hồ Chí Minh, Việt Nam",,Partially cloudy
quan go vap ho chi minh,2/3/2024 6:00,26.0,26.0,26.0,22.0,78.63,,9.4,,80.0,,0.0,,,10.0,25.0,1011.0,,10.8338,106.666,"Quận Gò Vấp, Hồ Chí Minh, Việt Nam","Quận Gò Vấp, Hồ Chí Minh, Việt Nam",,Clear
quan go vap ho chi minh,2/3/2024 7:00,27.0,27.0,27.0,22.0,74.13,29.1,5.4,,,,0.0,,,10.0,,1012.0,,10.8338,106.666,"Quận Gò Vấp, Hồ Chí Minh, Việt Nam","Quận Gò Vấp, Hồ Chí Minh, Việt Nam",,Clear
quan go vap ho chi minh,2/3/2024 8:00,29.0,29.0,29.0,22.0,65.97,31.9,1.8,,,,0.0,,,9.0,,1013.0,,10.8338,106.666,"Quận Gò Vấp, Hồ Chí Minh, Việt Nam","Quận Gò Vấp, Hồ Chí Minh, Việt Nam",,Clear
quan go vap ho chi minh,2/3/2024 9:00,31.0,31.0,31.0,21.0,55.31,33.6,7.6,,130.0,,0.0,,,10.0,,1014.0,,10.8338,106.666,"Quận Gò Vấp, Hồ Chí Minh, Việt Nam","Quận Gò Vấp, Hồ Chí Minh, Việt Nam",,Clear
quan go vap ho chi minh,2/3/2024 10:00,31.0,31.0,31.0,19.0,48.87,32.3,5.4,,,,0.0,,,10.0,,1014.0,,10.8338,106.666,"Quận Gò Vấp, Hồ Chí Minh, Việt Nam","Quận Gò Vấp, Hồ Chí Minh, Việt Nam",,Clear
quan go vap ho chi minh,2/3/2024 11:00,33.0,33.0,33.0,19.0,43.63,34.5,9.4,,,,0.0,,,10.0,,1013.0,,10.8338,106.666,"Quận Gò Vấp, Hồ Chí Minh, Việt Nam","Quận Gò Vấp, Hồ Chí Minh, Việt Nam",,Clear
quan go vap ho chi minh,2/3/2024 12:00,34.0,34.0,34.0,19.0,41.25,35.7,3.6,,110.0,,0.0,,,10.0,25.0,1012.0,,10.8338,106.666,"Quận Gò Vấp, Hồ Chí Minh, Việt Nam","Quận Gò Vấp, Hồ Chí Minh, Việt Nam",,Clear
quan go vap ho chi minh,2/3/2024 13:00,34.0,34.0,34.0,20.0,43.9,36.4,9.4,,230.0,,0.0,,,10.0,50.0,1011.0,,10.8338,106.666,"Quận Gò Vấp, Hồ Chí Minh, Việt Nam","Quận Gò Vấp, Hồ Chí Minh, Việt Nam",,Partially cloudy
quan go vap ho chi minh,2/3/2024 14:00,35.0,35.0,35.0,20.0,41.52,37.6,5.4,,,,0.0,,,10.0,50.0,1010.0,,10.8338,106.666,"Quận Gò Vấp, Hồ Chí Minh, Việt Nam","Quận Gò Vấp, Hồ Chí Minh, Việt Nam",,Partially cloudy
quan go vap ho chi minh,2/3/2024 15:00,36.0,36.0,36.0,20.0,39.29,38.8,7.6,,180.0,,0.0,,,10.0,50.0,1009.0,,10.8338,106.666,"Quận Gò Vấp, Hồ Chí Minh, Việt Nam","Quận Gò Vấp, Hồ Chí Minh, Việt Nam",,Partially cloudy
quan go vap ho chi minh,2/3/2024 16:00,34.0,34.0,34.0,22.0,49.64,38.2,20.5,,190.0,,0.0,,,10.0,88.0,1009.0,,10.8338,106.666,"Quận Gò Vấp, Hồ Chí Minh, Việt Nam","Quận Gò Vấp, Hồ Chí Minh, Việt Nam",,Overcast
quan go vap ho chi minh,2/3/2024 17:00,32.0,32.0,32.0,22.0,55.55,35.7,16.6,,180.0,,0.0,,,10.0,50.0,1009.0,,10.8338,106.666,"Quận Gò Vấp, Hồ Chí Minh, Việt Nam","Quận Gò Vấp, Hồ Chí Minh, Việt Nam",,Partially cloudy
quan go vap ho chi minh,2/3/2024 18:00,31.0,31.0,31.0,22.0,58.8,34.4,16.6,,180.0,,0.0,,,10.0,25.0,1010.0,,10.8338,106.666,"Quận Gò Vấp, Hồ Chí Minh, Việt Nam","Quận Gò Vấp, Hồ Chí Minh, Việt Nam",,Clear
quan go vap ho chi minh,2/3/2024 19:00,30.0,30.0,30.0,21.0,58.57,32.5,16.6,,140.0,,0.0,,,10.0,25.0,1010.0,,10.8338,106.666,"Quận Gò Vấp, Hồ Chí Minh, Việt Nam","Quận Gò Vấp, Hồ Chí Minh, Việt Nam",,Clear
quan go vap ho chi minh,2/3/2024 20:00,29.0,29.0,29.0,21.0,62.05,31.3,16.6,,140.0,,0.0,,,10.0,,1011.0,,10.8338,106.666,"Quận Gò Vấp, Hồ Chí Minh, Việt Nam","Quận Gò Vấp, Hồ Chí Minh, Việt Nam",,Clear
quan go vap ho chi minh,2/3/2024 21:00,28.0,28.0,28.0,21.0,65.76,30.0,18.4,,130.0,,0.0,,,10.0,,1011.0,,10.8338,106.666,"Quận Gò Vấp, Hồ Chí Minh, Việt Nam","Quận Gò Vấp, Hồ Chí Minh, Việt Nam",,Clear
quan go vap ho chi minh,2/3/2024 22:00,28.0,28.0,28.0,21.0,65.76,30.0,14.8,,110.0,,0.0,,,10.0,,1012.0,,10.8338,106.666,"Quận Gò Vấp, Hồ Chí Minh, Việt Nam","Quận Gò Vấp, Hồ Chí Minh, Việt Nam",,Clear
quan go vap ho chi minh,2/3/2024 23:00,28.0,28.0,28.0,21.0,65.76,30.0,7.6,,110.0,,0.0,,,10.0,,1012.0,,10.8338,106.666,"Quận Gò Vấp, Hồ Chí Minh, Việt Nam","Quận Gò Vấp, Hồ Chí Minh, Việt Nam",,Clear
quan go vap ho chi minh,3/3/2024 0:00,28.0,28.0,28.0,21.0,65.76,30.0,7.6,,130.0,,0.0,,,10.0,25.0,1012.0,,10.8338,106.666,"Quận Gò Vấp, Hồ Chí Minh, Việt Nam","Quận Gò Vấp, Hồ Chí Minh, Việt Nam",,Clear
quan go vap ho chi minh,3/3/2024 1:00,28.0,28.0,28.0,21.0,65.76,30.0,9.4,,110.0,,0.0,,,10.0,25.0,1011.0,,10.8338,106.666,"Quận Gò Vấp, Hồ Chí Minh, Việt Nam","Quận Gò Vấp, Hồ Chí Minh, Việt Nam",,Clear
quan go vap ho chi minh,3/3/2024 2:00,27.0,27.0,27.0,21.0,69.73,28.7,7.6,,140.0,,0.0,,,10.0,25.0,1011.0,,10.8338,106.666,"Quận Gò Vấp, Hồ Chí Minh, Việt Nam","Quận Gò Vấp, Hồ Chí Minh, Việt Nam",,Clear
quan go vap ho chi minh,3/3/2024 3:00,27.0,27.0,27.0,21.0,69.73,28.7,5.4,,,,0.0,,,10.0,25.0,1011.0,,10.8338,106.666,"Quận Gò Vấp, Hồ Chí Minh, Việt Nam","Quận Gò Vấp, Hồ Chí Minh, Việt Nam",,Clear
quan go vap ho chi minh,3/3/2024 4:00,26.0,26.0,26.0,21.0,73.96,,11.2,,100.0,,0.0,,,10.0,25.0,1011.0,,10.8338,106.666,"Quận Gò Vấp, Hồ Chí Minh, Việt Nam","Quận Gò Vấp, Hồ Chí Minh, Việt Nam",,Clear
quan go vap ho chi minh,3/3/2024 5:00,26.0,26.0,26.0,21.0,73.96,,7.6,,110.0,,0.0,,,10.0,25.0,1011.0,,10.8338,106.666,"Quận Gò Vấp, Hồ Chí Minh, Việt Nam","Quận Gò Vấp, Hồ Chí Minh, Việt Nam",,Clear
quan go vap ho chi minh,3/3/2024 6:00,25.0,25.0,25.0,22.0,83.45,,9.4,,80.0,,0.0,,,10.0,25.0,1012.0,,10.8338,106.666,"Quận Gò Vấp, Hồ Chí Minh, Việt Nam","Quận Gò Vấp, Hồ Chí Minh, Việt Nam",,Clear
quan go vap ho chi minh,3/3/2024 7:00,27.0,27.0,27.0,22.0,74.13,29.1,3.6,,,,0.0,,,10.0,25.0,1013.0,,10.8338,106.666,"Quận Gò Vấp, Hồ Chí Minh, Việt Nam","Quận Gò Vấp, Hồ Chí Minh, Việt Nam",,Clear
quan go vap ho chi minh,3/3/2024 8:00,29.0,29.0,29.0,21.0,62.05,31.3,5.4,,,,0.0,,,10.0,,1013.0,,10.8338,106.666,"Quận Gò Vấp, Hồ Chí Minh, Việt Nam","Quận Gò Vấp, Hồ Chí Minh, Việt Nam",,Clear
quan go vap ho chi minh,3/3/2024 9:00,30.0,30.0,30.0,20.0,55.07,31.8,7.6,,120.0,,0.0,,,10.0,,1013.0,,10.8338,106.666,"Quận Gò Vấp, Hồ Chí Minh, Việt Nam","Quận Gò Vấp, Hồ Chí Minh, Việt Nam",,Clear
quan go vap ho chi minh,3/3/2024 10:00,31.0,31.0,31.0,20.0,52.0,32.9,3.6,,,,0.0,,,10.0,25.0,1013.0,,10.8338,106.666,"Quận Gò Vấp, Hồ Chí Minh, Việt Nam","Quận Gò Vấp, Hồ Chí Minh, Việt Nam",,Clear
quan go vap ho chi minh,3/3/2024 11:00,32.0,32.0,32.0,20.0,49.13,34.1,3.6,,,,0.0,,,10.0,25.0,1012.0,,10.8338,106.666,"Quận Gò Vấp, Hồ Chí Minh, Việt Nam","Quận Gò Vấp, Hồ Chí Minh, Việt Nam",,Clear
quan go vap ho chi minh,3/3/2024 12:00,34.0,34.0,34.0,20.0,43.9,36.4,3.6,,,,0.0,,,10.0,50.0,1011.0,,10.8338,106.666,"Quận Gò Vấp, Hồ Chí Minh, Việt Nam","Quận Gò Vấp, Hồ Chí Minh, Việt Nam",,Partially cloudy
quan go vap ho chi minh,3/3/2024 13:00,34.0,34.0,34.0,20.0,43.9,36.4,7.6,,40.0,,0.0,,,9.0,50.0,1010.0,,10.8338,106.666,"Quận Gò Vấp, Hồ Chí Minh, Việt Nam","Quận Gò Vấp, Hồ Chí Minh, Việt Nam",,Partially cloudy
quan go vap ho chi minh,3/3/2024 14:00,34.0,34.0,34.0,20.0,43.9,36.4,7.6,,200.0,,0.0,,,9.0,50.0,1009.0,,10.8338,106.666,"Quận Gò Vấp, Hồ Chí Minh, Việt Nam","Quận Gò Vấp, Hồ Chí Minh, Việt Nam",,Partially cloudy
quan go vap ho chi minh,3/3/2024 15:00,34.0,34.0,34.0,20.0,43.9,36.4,3.6,,,,0.0,,,10.0,50.0,1008.0,,10.8338,106.666,"Quận Gò Vấp, Hồ Chí Minh, Việt Nam","Quận Gò Vấp, Hồ Chí Minh, Việt Nam",,Partially cloudy
quan phu nhuan ho chi minh,1/3/2024 17:00,31.9,31.9,31.9,20.0,49.13,34.1,20.5,,180.0,,0.0,,,10.0,50.0,1009.0,,10.7945,106.676,"Quận Phú Nhuận, Hồ Chí Minh, Việt Nam","Quận Phú Nhuận, Hồ Chí Minh, Việt Nam",,Partially cloudy
quan phu nhuan ho chi minh,1/3/2024 18:00,31.0,31.0,31.0,21.0,55.31,33.6,11.2,,170.0,,0.0,,,10.0,50.0,1010.0,,10.7945,106.676,"Quận Phú Nhuận, Hồ Chí Minh, Việt Nam","Quận Phú Nhuận, Hồ Chí Minh, Việt Nam",,Partially cloudy
quan phu nhuan ho chi minh,1/3/2024 19:00,31.0,31.0,31.0,19.0,48.87,32.3,16.6,,150.0,,0.0,,,10.0,50.0,1010.0,,10.7945,106.676,"Quận Phú Nhuận, Hồ Chí Minh, Việt Nam","Quận Phú Nhuận, Hồ Chí Minh, Việt Nam",,Partially cloudy
quan phu nhuan ho chi minh,1/3/2024 20:00,30.0,30.0,30.0,19.0,51.75,31.3,20.5,,140.0,,0.0,,,10.0,50.0,1011.0,,10.7945,106.676,"Quận Phú Nhuận, Hồ Chí Minh, Việt Nam","Quận Phú Nhuận, Hồ Chí Minh, Việt Nam",,Partially cloudy
quan phu nhuan ho chi minh,1/3/2024 21:00,29.0,29.0,29.0,20.0,58.34,30.7,18.4,,140.0,,0.0,,,10.0,50.0,1012.0,,10.7945,106.676,"Quận Phú Nhuận, Hồ Chí Minh, Việt Nam","Quận Phú Nhuận, Hồ Chí Minh, Việt Nam",,Partially cloudy
quan phu nhuan ho chi minh,1/3/2024 22:00,28.0,28.0,28.0,21.0,65.76,30.0,20.5,,140.0,,0.0,,,10.0,25.0,1012.0,,10.7945,106.676,"Quận Phú Nhuận, Hồ Chí Minh, Việt Nam","Quận Phú Nhuận, Hồ Chí Minh, Việt Nam",,Clear
quan phu nhuan ho chi minh,1/3/2024 23:00,28.0,28.0,28.0,21.0,65.76,30.0,13.0,,130.0,,0.0,,,10.0,25.0,1012.0,,10.7945,106.676,"Quận Phú Nhuận, Hồ Chí Minh, Việt Nam","Quận Phú Nhuận, Hồ Chí Minh, Việt Nam",,Clear
quan phu nhuan ho chi minh,2/3/2024 0:00,28.0,28.0,28.0,21.0,65.76,30.0,13.0,,120.0,,0.0,,,10.0,25.0,1011.0,,10.7945,106.676,"Quận Phú Nhuận, Hồ Chí Minh, Việt Nam","Quận Phú Nhuận, Hồ Chí Minh, Việt Nam",,Clear
quan phu nhuan ho chi minh,2/3/2024 1:00,28.0,28.0,28.0,21.0,65.76,30.0,13.0,,130.0,,0.0,,,10.0,25.0,1011.0,,10.7945,106.676,"Quận Phú Nhuận, Hồ Chí Minh, Việt Nam","Quận Phú Nhuận, Hồ Chí Minh, Việt Nam",,Clear
quan phu nhuan ho chi minh,2/3/2024 2:00,27.0,27.0,27.0,21.0,69.73,28.7,7.6,,120.0,,0.0,,,10.0,25.0,1011.0,,10.7945,106.676,"Quận Phú Nhuận, Hồ Chí Minh, Việt Nam","Quận Phú Nhuận, Hồ Chí Minh, Việt Nam",,Clear
quan phu nhuan ho chi minh,2/3/2024 3:00,27.0,27.0,27.0,22.0,74.13,29.1,9.4,,100.0,,0.0,,,10.0,50.0,1011.0,,10.7945,106.676,"Quận Phú Nhuận, Hồ Chí Minh, Việt Nam","Quận Phú Nhuận, Hồ Chí Minh, Việt Nam",,Partially cloudy
quan phu nhuan ho chi minh,2/3/2024 4:00,26.0,26.0,26.0,22.0,78.63,,5.4,,90.0,,0.0,,,10.0,50.0,1010.0,,10.7945,106.676,"Quận Phú Nhuận, Hồ Chí Minh, Việt Nam","Quận Phú Nhuận, Hồ Chí Minh, Việt Nam",,Partially cloudy
quan phu nhuan ho chi minh,2/3/2024 5:00,26.0,26.0,26.0,22.0,78.63,,7.6,,90.0,,0.0,,,10.0,50.0,1010.0,,10.7945,106.676,"Quận Phú Nhuận, Hồ Chí Minh, Việt Nam","Quận Phú Nhuận, Hồ Chí Minh, Việt Nam",,Partially cloudy
quan phu nhuan ho chi minh,2/3/2024 6:00,26.0,26.0,26.0,22.0,78.63,,9.4,,80.0,,0.0,,,10.0,25.0,1011.0,,10.7945,106.676,"Quận Phú Nhuận, Hồ Chí Minh, Việt Nam","Quận Phú Nhuận, Hồ Chí Minh, Việt Nam",,Clear
quan phu nhuan ho chi minh,2/3/2024 7:00,27.0,27.0,27.0,22.0,74.13,29.1,5.4,,,,0.0,,,10.0,,1012.0,,10.7945,106.676,"Quận Phú Nhuận, Hồ Chí Minh, Việt Nam","Quận Phú Nhuận, Hồ Chí Minh, Việt Nam",,Clear
quan phu nhuan ho chi minh,2/3/2024 8:00,29.0,29.0,29.0,22.0,65.97,31.9,1.8,,,,0.0,,,9.0,,1013.0,,10.7945,106.676,"Quận Phú Nhuận, Hồ Chí Minh, Việt Nam","Quận Phú Nhuận, Hồ Chí Minh, Việt Nam",,Clear
quan phu nhuan ho chi minh,2/3/2024 9:00,31.0,31.0,31.0,21.0,55.31,33.6,7.6,,130.0,,0.0,,,10.0,,1014.0,,10.7945,106.676,"Quận Phú Nhuận, Hồ Chí Minh, Việt Nam","Quận Phú Nhuận, Hồ Chí Minh, Việt Nam",,Clear
quan phu nhuan ho chi minh,2/3/2024 10:00,31.0,31.0,31.0,19.0,48.87,32.3,5.4,,,,0.0,,,10.0,,1014.0,,10.7945,106.676,"Quận Phú Nhuận, Hồ Chí Minh, Việt Nam","Quận Phú Nhuận, Hồ Chí Minh, Việt Nam",,Clear
quan phu nhuan ho chi minh,2/3/2024 11:00,33.0,33.0,33.0,19.0,43.63,34.5,9.4,,,,0.0,,,10.0,,1013.0,,10.7945,106.676,"Quận Phú Nhuận, Hồ Chí Minh, Việt Nam","Quận Phú Nhuận, Hồ Chí Minh, Việt Nam",,Clear
quan phu nhuan ho chi minh,2/3/2024 12:00,34.0,34.0,34.0,19.0,41.25,35.7,3.6,,110.0,,0.0,,,10.0,25.0,1012.0,,10.7945,106.676,"Quận Phú Nhuận, Hồ Chí Minh, Việt Nam","Quận Phú Nhuận, Hồ Chí Minh, Việt Nam",,Clear
quan phu nhuan ho chi minh,2/3/2024 13:00,34.0,34.0,34.0,20.0,43.9,36.4,9.4,,230.0,,0.0,,,10.0,50.0,1011.0,,10.7945,106.676,"Quận Phú Nhuận, Hồ Chí Minh, Việt Nam","Quận Phú Nhuận, Hồ Chí Minh, Việt Nam",,Partially cloudy
quan phu nhuan ho chi minh,2/3/2024 14:00,35.0,35.0,35.0,20.0,41.52,37.6,5.4,,,,0.0,,,10.0,50.0,1010.0,,10.7945,106.676,"Quận Phú Nhuận, Hồ Chí Minh, Việt Nam","Quận Phú Nhuận, Hồ Chí Minh, Việt Nam",,Partially cloudy
quan phu nhuan ho chi minh,2/3/2024 15:00,36.0,36.0,36.0,20.0,39.29,38.8,7.6,,180.0,,0.0,,,10.0,50.0,1009.0,,10.7945,106.676,"Quận Phú Nhuận, Hồ Chí Minh, Việt Nam","Quận Phú Nhuận, Hồ Chí Minh, Việt Nam",,Partially cloudy
quan phu nhuan ho chi minh,2/3/2024 16:00,34.0,34.0,34.0,22.0,49.64,38.2,20.5,,190.0,,0.0,,,10.0,88.0,1009.0,,10.7945,106.676,"Quận Phú Nhuận, Hồ Chí Minh, Việt Nam","Quận Phú Nhuận, Hồ Chí Minh, Việt Nam",,Overcast
quan phu nhuan ho chi minh,2/3/2024 17:00,31.9,31.9,31.9,22.0,55.55,35.7,16.6,,180.0,,0.0,,,10.0,50.0,1009.0,,10.7945,106.676,"Quận Phú Nhuận, Hồ Chí Minh, Việt Nam","Quận Phú Nhuận, Hồ Chí Minh, Việt Nam",,Partially cloudy
quan phu nhuan ho chi minh,2/3/2024 18:00,31.0,31.0,31.0,22.0,58.8,34.4,16.6,,180.0,,0.0,,,10.0,25.0,1010.0,,10.7945,106.676,"Quận Phú Nhuận, Hồ Chí Minh, Việt Nam","Quận Phú Nhuận, Hồ Chí Minh, Việt Nam",,Clear
quan phu nhuan ho chi minh,2/3/2024 19:00,30.0,30.0,30.0,21.0,58.57,32.5,16.6,,140.0,,0.0,,,10.0,25.0,1010.0,,10.7945,106.676,"Quận Phú Nhuận, Hồ Chí Minh, Việt Nam","Quận Phú Nhuận, Hồ Chí Minh, Việt Nam",,Clear
quan phu nhuan ho chi minh,2/3/2024 20:00,29.0,29.0,29.0,21.0,62.05,31.3,16.6,,140.0,,0.0,,,10.0,,1011.0,,10.7945,106.676,"Quận Phú Nhuận, Hồ Chí Minh, Việt Nam","Quận Phú Nhuận, Hồ Chí Minh, Việt Nam",,Clear
quan phu nhuan ho chi minh,2/3/2024 21:00,28.0,28.0,28.0,21.0,65.76,30.0,18.4,,130.0,,0.0,,,10.0,,1011.0,,10.7945,106.676,"Quận Phú Nhuận, Hồ Chí Minh, Việt Nam","Quận Phú Nhuận, Hồ Chí Minh, Việt Nam",,Clear
quan phu nhuan ho chi minh,2/3/2024 22:00,28.0,28.0,28.0,21.0,65.76,30.0,14.8,,110.0,,0.0,,,10.0,,1012.0,,10.7945,106.676,"Quận Phú Nhuận, Hồ Chí Minh, Việt Nam","Quận Phú Nhuận, Hồ Chí Minh, Việt Nam",,Clear
quan phu nhuan ho chi minh,2/3/2024 23:00,28.0,28.0,28.0,21.0,65.76,30.0,7.6,,110.0,,0.0,,,10.0,,1012.0,,10.7945,106.676,"Quận Phú Nhuận, Hồ Chí Minh, Việt Nam","Quận Phú Nhuận, Hồ Chí Minh, Việt Nam",,Clear
quan phu nhuan ho chi minh,3/3/2024 0:00,28.0,28.0,28.0,21.0,65.76,30.0,7.6,,130.0,,0.0,,,10.0,25.0,1012.0,,10.7945,106.676,"Quận Phú Nhuận, Hồ Chí Minh, Việt Nam","Quận Phú Nhuận, Hồ Chí Minh, Việt Nam",,Clear
quan phu nhuan ho chi minh,3/3/2024 1:00,28.0,28.0,28.0,21.0,65.76,30.0,9.4,,110.0,,0.0,,,10.0,25.0,1011.0,,10.7945,106.676,"Quận Phú Nhuận, Hồ Chí Minh, Việt Nam","Quận Phú Nhuận, Hồ Chí Minh, Việt Nam",,Clear
quan phu nhuan ho chi minh,3/3/2024 2:00,27.0,27.0,27.0,21.0,69.73,28.7,7.6,,140.0,,0.0,,,10.0,25.0,1011.0,,10.7945,106.676,"Quận Phú Nhuận, Hồ Chí Minh, Việt Nam","Quận Phú Nhuận, Hồ Chí Minh, Việt Nam",,Clear
quan phu nhuan ho chi minh,3/3/2024 3:00,27.0,27.0,27.0,21.0,69.73,28.7,5.4,,,,0.0,,,10.0,25.0,1011.0,,10.7945,106.676,"Quận Phú Nhuận, Hồ Chí Minh, Việt Nam","Quận Phú Nhuận, Hồ Chí Minh, Việt Nam",,Clear
quan phu nhuan ho chi minh,3/3/2024 4:00,26.0,26.0,26.0,21.0,73.96,,11.2,,100.0,,0.0,,,10.0,25.0,1011.0,,10.7945,106.676,"Quận Phú Nhuận, Hồ Chí Minh, Việt Nam","Quận Phú Nhuận, Hồ Chí Minh, Việt Nam",,Clear
quan phu nhuan ho chi minh,3/3/2024 5:00,26.0,26.0,26.0,21.0,73.96,,7.6,,110.0,,0.0,,,10.0,25.0,1011.0,,10.7945,106.676,"Quận Phú Nhuận, Hồ Chí Minh, Việt Nam","Quận Phú Nhuận, Hồ Chí Minh, Việt Nam",,Clear
quan phu nhuan ho chi minh,3/3/2024 6:00,25.0,25.0,25.0,22.0,83.45,,9.4,,80.0,,0.0,,,10.0,25.0,1012.0,,10.7945,106.676,"Quận Phú Nhuận, Hồ Chí Minh, Việt Nam","Quận Phú Nhuận, Hồ Chí Minh, Việt Nam",,Clear
quan phu nhuan ho chi minh,3/3/2024 7:00,27.0,27.0,27.0,22.0,74.13,29.1,3.6,,,,0.0,,,10.0,25.0,1013.0,,10.7945,106.676,"Quận Phú Nhuận, Hồ Chí Minh, Việt Nam","Quận Phú Nhuận, Hồ Chí Minh, Việt Nam",,Clear
quan phu nhuan ho chi minh,3/3/2024 8:00,29.0,29.0,29.0,21.0,62.05,31.3,5.4,,,,0.0,,,10.0,,1013.0,,10.7945,106.676,"Quận Phú Nhuận, Hồ Chí Minh, Việt Nam","Quận Phú Nhuận, Hồ Chí Minh, Việt Nam",,Clear
quan phu nhuan ho chi minh,3/3/2024 9:00,30.0,30.0,30.0,20.0,55.07,31.8,7.6,,120.0,,0.0,,,10.0,,1013.0,,10.7945,106.676,"Quận Phú Nhuận, Hồ Chí Minh, Việt Nam","Quận Phú Nhuận, Hồ Chí Minh, Việt Nam",,Clear
quan phu nhuan ho chi minh,3/3/2024 10:00,31.0,31.0,31.0,20.0,52.0,32.9,3.6,,,,0.0,,,10.0,25.0,1013.0,,10.7945,106.676,"Quận Phú Nhuận, Hồ Chí Minh, Việt Nam","Quận Phú Nhuận, Hồ Chí Minh, Việt Nam",,Clear
quan phu nhuan ho chi minh,3/3/2024 11:00,31.9,31.9,31.9,20.0,49.13,34.1,3.6,,,,0.0,,,10.0,25.0,1012.0,,10.7945,106.676,"Quận Phú Nhuận, Hồ Chí Minh, Việt Nam","Quận Phú Nhuận, Hồ Chí Minh, Việt Nam",,Clear
quan phu nhuan ho chi minh,3/3/2024 12:00,34.0,34.0,34.0,20.0,43.9,36.4,3.6,,,,0.0,,,10.0,50.0,1011.0,,10.7945,106.676,"Quận Phú Nhuận, Hồ Chí Minh, Việt Nam","Quận Phú Nhuận, Hồ Chí Minh, Việt Nam",,Partially cloudy
quan phu nhuan ho chi minh,3/3/2024 13:00,34.0,34.0,34.0,20.0,43.9,36.4,7.6,,40.0,,0.0,,,9.0,50.0,1010.0,,10.7945,106.676,"Quận Phú Nhuận, Hồ Chí Minh, Việt Nam","Quận Phú Nhuận, Hồ Chí Minh, Việt Nam",,Partially cloudy
quan phu nhuan ho chi minh,3/3/2024 14:00,34.0,34.0,34.0,20.0,43.9,36.4,7.6,,200.0,,0.0,,,9.0,50.0,1009.0,,10.7945,106.676,"Quận Phú Nhuận, Hồ Chí Minh, Việt Nam","Quận Phú Nhuận, Hồ Chí Minh, Việt Nam",,Partially cloudy
quan phu nhuan ho chi minh,3/3/2024 15:00,34.0,34.0,34.0,20.0,43.9,36.4,3.6,,,,0.0,,,10.0,50.0,1008.0,,10.7945,106.676,"Quận Phú Nhuận, Hồ Chí Minh, Việt Nam","Quận Phú Nhuận, Hồ Chí Minh, Việt Nam",,Partially cloudy
huyen binh chanh ho chi minh,1/3/2024 17:00,32.0,32.0,32.0,20.0,49.13,34.1,20.5,,180.0,,0.0,,,10.0,50.0,1009.0,,10.6799,106.578,"Huyện Bình Chánh, Việt Nam","Huyện Bình Chánh, Việt Nam",,Partially cloudy
huyen binh chanh ho chi minh,1/3/2024 18:00,31.0,31.0,31.0,21.0,55.31,33.6,11.2,,170.0,,0.0,,,10.0,50.0,1010.0,,10.6799,106.578,"Huyện Bình Chánh, Việt Nam","Huyện Bình Chánh, Việt Nam",,Partially cloudy
huyen binh chanh ho chi minh,1/3/2024 19:00,31.0,31.0,31.0,19.0,48.87,32.3,16.6,,150.0,,0.0,,,10.0,50.0,1010.0,,10.6799,106.578,"Huyện Bình Chánh, Việt Nam","Huyện Bình Chánh, Việt Nam",,Partially cloudy
huyen binh chanh ho chi minh,1/3/2024 20:00,30.0,30.0,30.0,19.0,51.75,31.3,20.5,,140.0,,0.0,,,10.0,50.0,1011.0,,10.6799,106.578,"Huyện Bình Chánh, Việt Nam","Huyện Bình Chánh, Việt Nam",,Partially cloudy
huyen binh chanh ho chi minh,1/3/2024 21:00,29.0,29.0,29.0,20.0,58.34,30.7,18.4,,140.0,,0.0,,,10.0,50.0,1012.0,,10.6799,106.578,"Huyện Bình Chánh, Việt Nam","Huyện Bình Chánh, Việt Nam",,Partially cloudy
huyen binh chanh ho chi minh,1/3/2024 22:00,28.0,28.0,28.0,21.0,65.76,30.0,20.5,,140.0,,0.0,,,10.0,25.0,1012.0,,10.6799,106.578,"Huyện Bình Chánh, Việt Nam","Huyện Bình Chánh, Việt Nam",,Clear
huyen binh chanh ho chi minh,1/3/2024 23:00,28.0,28.0,28.0,21.0,65.76,30.0,13.0,,130.0,,0.0,,,10.0,25.0,1012.0,,10.6799,106.578,"Huyện Bình Chánh, Việt Nam","Huyện Bình Chánh, Việt Nam",,Clear
huyen binh chanh ho chi minh,2/3/2024 0:00,28.0,28.0,28.0,21.0,65.76,30.0,13.0,,120.0,,0.0,,,10.0,25.0,1011.0,,10.6799,106.578,"Huyện Bình Chánh, Việt Nam","Huyện Bình Chánh, Việt Nam",,Clear
huyen binh chanh ho chi minh,2/3/2024 1:00,28.0,28.0,28.0,21.0,65.76,30.0,13.0,,130.0,,0.0,,,10.0,25.0,1011.0,,10.6799,106.578,"Huyện Bình Chánh, Việt Nam","Huyện Bình Chánh, Việt Nam",,Clear
huyen binh chanh ho chi minh,2/3/2024 2:00,27.0,27.0,27.0,21.0,69.73,28.7,7.6,,120.0,,0.0,,,10.0,25.0,1011.0,,10.6799,106.578,"Huyện Bình Chánh, Việt Nam","Huyện Bình Chánh, Việt Nam",,Clear
huyen binh chanh ho chi minh,2/3/2024 3:00,27.0,27.0,27.0,22.0,74.13,29.1,9.4,,100.0,,0.0,,,10.0,50.0,1011.0,,10.6799,106.578,"Huyện Bình Chánh, Việt Nam","Huyện Bình Chánh, Việt Nam",,Partially cloudy
huyen binh chanh ho chi minh,2/3/2024 4:00,26.0,26.0,26.0,22.0,78.63,,5.4,,90.0,,0.0,,,10.0,50.0,1010.0,,10.6799,106.578,"Huyện Bình Chánh, Việt Nam","Huyện Bình Chánh, Việt Nam",,Partially cloudy
huyen binh chanh ho chi minh,2/3/2024 5:00,26.0,26.0,26.0,22.0,78.63,,7.6,,90.0,,0.0,,,10.0,50.0,1010.0,,10.6799,106.578,"Huyện Bình Chánh, Việt Nam","Huyện Bình Chánh, Việt Nam",,Partially cloudy
huyen binh chanh ho chi minh,2/3/2024 6:00,26.0,26.0,26.0,22.0,78.63,,9.4,,80.0,,0.0,,,10.0,25.0,1011.0,,10.6799,106.578,"Huyện Bình Chánh, Việt Nam","Huyện Bình Chánh, Việt Nam",,Clear
huyen binh chanh ho chi minh,2/3/2024 7:00,27.0,27.0,27.0,22.0,74.13,29.1,5.4,,,,0.0,,,10.0,,1012.0,,10.6799,106.578,"Huyện Bình Chánh, Việt Nam","Huyện Bình Chánh, Việt Nam",,Clear
huyen binh chanh ho chi minh,2/3/2024 8:00,29.0,29.0,29.0,22.0,65.97,31.9,1.8,,,,0.0,,,9.0,,1013.0,,10.6799,106.578,"Huyện Bình Chánh, Việt Nam","Huyện Bình Chánh, Việt Nam",,Clear
huyen binh chanh ho chi minh,2/3/2024 9:00,31.0,31.0,31.0,21.0,55.31,33.6,7.6,,130.0,,0.0,,,10.0,,1014.0,,10.6799,106.578,"Huyện Bình Chánh, Việt Nam","Huyện Bình Chánh, Việt Nam",,Clear
huyen binh chanh ho chi minh,2/3/2024 10:00,31.0,31.0,31.0,19.0,48.87,32.3,5.4,,,,0.0,,,10.0,,1014.0,,10.6799,106.578,"Huyện Bình Chánh, Việt Nam","Huyện Bình Chánh, Việt Nam",,Clear
huyen binh chanh ho chi minh,2/3/2024 11:00,33.0,33.0,33.0,19.0,43.63,34.5,9.4,,,,0.0,,,10.0,,1013.0,,10.6799,106.578,"Huyện Bình Chánh, Việt Nam","Huyện Bình Chánh, Việt Nam",,Clear
huyen binh chanh ho chi minh,2/3/2024 12:00,34.0,34.0,34.0,19.0,41.25,35.7,3.6,,110.0,,0.0,,,10.0,25.0,1012.0,,10.6799,106.578,"Huyện Bình Chánh, Việt Nam","Huyện Bình Chánh, Việt Nam",,Clear
huyen binh chanh ho chi minh,2/3/2024 13:00,34.0,34.0,34.0,20.0,43.9,36.4,9.4,,230.0,,0.0,,,10.0,50.0,1011.0,,10.6799,106.578,"Huyện Bình Chánh, Việt Nam","Huyện Bình Chánh, Việt Nam",,Partially cloudy
huyen binh chanh ho chi minh,2/3/2024 14:00,35.0,35.0,35.0,20.0,41.52,37.6,5.4,,,,0.0,,,10.0,50.0,1010.0,,10.6799,106.578,"Huyện Bình Chánh, Việt Nam","Huyện Bình Chánh, Việt Nam",,Partially cloudy
huyen binh chanh ho chi minh,2/3/2024 15:00,36.0,36.0,36.0,20.0,39.29,38.8,7.6,,180.0,,0.0,,,10.0,50.0,1009.0,,10.6799,106.578,"Huyện Bình Chánh, Việt Nam","Huyện Bình Chánh, Việt Nam",,Partially cloudy
huyen binh chanh ho chi minh,2/3/2024 16:00,34.0,34.0,34.0,22.0,49.64,38.2,20.5,,190.0,,0.0,,,10.0,88.0,1009.0,,10.6799,106.578,"Huyện Bình Chánh, Việt Nam","Huyện Bình Chánh, Việt Nam",,Overcast
huyen binh chanh ho chi minh,2/3/2024 17:00,32.0,32.0,32.0,22.0,55.55,35.7,16.6,,180.0,,0.0,,,10.0,50.0,1009.0,,10.6799,106.578,"Huyện Bình Chánh, Việt Nam","Huyện Bình Chánh, Việt Nam",,Partially cloudy
huyen binh chanh ho chi minh,2/3/2024 18:00,31.0,31.0,31.0,22.0,58.8,34.4,16.6,,180.0,,0.0,,,10.0,25.0,1010.0,,10.6799,106.578,"Huyện Bình Chánh, Việt Nam","Huyện Bình Chánh, Việt Nam",,Clear
huyen binh chanh ho chi minh,2/3/2024 19:00,30.0,30.0,30.0,21.0,58.57,32.5,16.6,,140.0,,0.0,,,10.0,25.0,1010.0,,10.6799,106.578,"Huyện Bình Chánh, Việt Nam","Huyện Bình Chánh, Việt Nam",,Clear
huyen binh chanh ho chi minh,2/3/2024 20:00,29.0,29.0,29.0,21.0,62.05,31.3,16.6,,140.0,,0.0,,,10.0,,1011.0,,10.6799,106.578,"Huyện Bình Chánh, Việt Nam","Huyện Bình Chánh, Việt Nam",,Clear
huyen binh chanh ho chi minh,2/3/2024 21:00,28.0,28.0,28.0,21.0,65.76,30.0,18.4,,130.0,,0.0,,,10.0,,1011.0,,10.6799,106.578,"Huyện Bình Chánh, Việt Nam","Huyện Bình Chánh, Việt Nam",,Clear
huyen binh chanh ho chi minh,2/3/2024 22:00,28.0,28.0,28.0,21.0,65.76,30.0,14.8,,110.0,,0.0,,,10.0,,1012.0,,10.6799,106.578,"Huyện Bình Chánh, Việt Nam","Huyện Bình Chánh, Việt Nam",,Clear
huyen binh chanh ho chi minh,2/3/2024 23:00,28.0,28.0,28.0,21.0,65.76,30.0,7.6,,110.0,,0.0,,,10.0,,1012.0,,10.6799,106.578,"Huyện Bình Chánh, Việt Nam","Huyện Bình Chánh, Việt Nam",,Clear
huyen binh chanh ho chi minh,3/3/2024 0:00,28.0,28.0,28.0,21.0,65.76,30.0,7.6,,130.0,,0.0,,,10.0,25.0,1012.0,,10.6799,106.578,"Huyện Bình Chánh, Việt Nam","Huyện Bình Chánh, Việt Nam",,Clear
huyen binh chanh ho chi minh,3/3/2024 1:00,28.0,28.0,28.0,21.0,65.76,30.0,9.4,,110.0,,0.0,,,10.0,25.0,1011.0,,10.6799,106.578,"Huyện Bình Chánh, Việt Nam","Huyện Bình Chánh, Việt Nam",,Clear
huyen binh chanh ho chi minh,3/3/2024 2:00,27.0,27.0,27.0,21.0,69.73,28.7,7.6,,140.0,,0.0,,,10.0,25.0,1011.0,,10.6799,106.578,"Huyện Bình Chánh, Việt Nam","Huyện Bình Chánh, Việt Nam",,Clear
huyen binh chanh ho chi minh,3/3/2024 3:00,27.0,27.0,27.0,21.0,69.73,28.7,5.4,,,,0.0,,,10.0,25.0,1011.0,,10.6799,106.578,"Huyện Bình Chánh, Việt Nam","Huyện Bình Chánh, Việt Nam",,Clear
huyen binh chanh ho chi minh,3/3/2024 4:00,26.0,26.0,26.0,21.0,73.96,,11.2,,100.0,,0.0,,,10.0,25.0,1011.0,,10.6799,106.578,"Huyện Bình Chánh, Việt Nam","Huyện Bình Chánh, Việt Nam",,Clear
huyen binh chanh ho chi minh,3/3/2024 5:00,26.0,26.0,26.0,21.0,73.96,,7.6,,110.0,,0.0,,,10.0,25.0,1011.0,,10.6799,106.578,"Huyện Bình Chánh, Việt Nam","Huyện Bình Chánh, Việt Nam",,Clear
huyen binh chanh ho chi minh,3/3/2024 6:00,25.0,25.0,25.0,22.0,83.45,,9.4,,80.0,,0.0,,,10.0,25.0,1012.0,,10.6799,106.578,"Huyện Bình Chánh, Việt Nam","Huyện Bình Chánh, Việt Nam",,Clear
huyen binh chanh ho chi minh,3/3/2024 7:00,27.0,27.0,27.0,22.0,74.13,29.1,3.6,,,,0.0,,,10.0,25.0,1013.0,,10.6799,106.578,"Huyện Bình Chánh, Việt Nam","Huyện Bình Chánh, Việt Nam",,Clear
huyen binh chanh ho chi minh,3/3/2024 8:00,29.0,29.0,29.0,21.0,62.05,31.3,5.4,,,,0.0,,,10.0,,1013.0,,10.6799,106.578,"Huyện Bình Chánh, Việt Nam","Huyện Bình Chánh, Việt Nam",,Clear
huyen binh chanh ho chi minh,3/3/2024 9:00,30.0,30.0,30.0,20.0,55.07,31.8,7.6,,120.0,,0.0,,,10.0,,1013.0,,10.6799,106.578,"Huyện Bình Chánh, Việt Nam","Huyện Bình Chánh, Việt Nam",,Clear
huyen binh chanh ho chi minh,3/3/2024 10:00,31.0,31.0,31.0,20.0,52.0,32.9,3.6,,,,0.0,,,10.0,25.0,1013.0,,10.6799,106.578,"Huyện Bình Chánh, Việt Nam","Huyện Bình Chánh, Việt Nam",,Clear
huyen binh chanh ho chi minh,3/3/2024 11:00,32.0,32.0,32.0,20.0,49.13,34.1,3.6,,,,0.0,,,10.0,25.0,1012.0,,10.6799,106.578,"Huyện Bình Chánh, Việt Nam","Huyện Bình Chánh, Việt Nam",,Clear
huyen binh chanh ho chi minh,3/3/2024 12:00,34.0,34.0,34.0,20.0,43.9,36.4,3.6,,,,0.0,,,10.0,50.0,1011.0,,10.6799,106.578,"Huyện Bình Chánh, Việt Nam","Huyện Bình Chánh, Việt Nam",,Partially cloudy
huyen binh chanh ho chi minh,3/3/2024 13:00,34.0,34.0,34.0,20.0,43.9,36.4,7.6,,40.0,,0.0,,,9.0,50.0,1010.0,,10.6799,106.578,"Huyện Bình Chánh, Việt Nam","Huyện Bình Chánh, Việt Nam",,Partially cloudy
huyen binh chanh ho chi minh,3/3/2024 14:00,34.0,34.0,34.0,20.0,43.9,36.4,7.6,,200.0,,0.0,,,9.0,50.0,1009.0,,10.6799,106.578,"Huyện Bình Chánh, Việt Nam","Huyện Bình Chánh, Việt Nam",,Partially cloudy
huyen binh chanh ho chi minh,3/3/2024 15:00,34.0,34.0,34.0,20.0,43.9,36.4,3.6,,,,0.0,,,10.0,50.0,1008.0,,10.6799,106.578,"Huyện Bình Chánh, Việt Nam","Huyện Bình Chánh, Việt Nam",,Partially cloudy
huyen hoc mon ho chi minh,1/3/2024 17:00,32.0,32.0,32.0,20.0,49.13,34.1,20.5,,180.0,,0.0,,,10.0,50.0,1009.0,,10.8884,106.596,"Huyện Hóc Môn, Việt Nam","Huyện Hóc Môn, Việt Nam",,Partially cloudy
huyen hoc mon ho chi minh,1/3/2024 18:00,31.0,31.0,31.0,21.0,55.31,33.6,11.2,,170.0,,0.0,,,10.0,50.0,1010.0,,10.8884,106.596,"Huyện Hóc Môn, Việt Nam","Huyện Hóc Môn, Việt Nam",,Partially cloudy
huyen hoc mon ho chi minh,1/3/2024 19:00,31.0,31.0,31.0,19.0,48.87,32.3,16.6,,150.0,,0.0,,,10.0,50.0,1010.0,,10.8884,106.596,"Huyện Hóc Môn, Việt Nam","Huyện Hóc Môn, Việt Nam",,Partially cloudy
huyen hoc mon ho chi minh,1/3/2024 20:00,30.0,30.0,30.0,19.0,51.75,31.3,20.5,,140.0,,0.0,,,10.0,50.0,1011.0,,10.8884,106.596,"Huyện Hóc Môn, Việt Nam","Huyện Hóc Môn, Việt Nam",,Partially cloudy
huyen hoc mon ho chi minh,1/3/2024 21:00,29.0,29.0,29.0,20.0,58.34,30.7,18.4,,140.0,,0.0,,,10.0,50.0,1012.0,,10.8884,106.596,"Huyện Hóc Môn, Việt Nam","Huyện Hóc Môn, Việt Nam",,Partially cloudy
huyen hoc mon ho chi minh,1/3/2024 22:00,28.0,28.0,28.0,21.0,65.76,30.0,20.5,,140.0,,0.0,,,10.0,25.0,1012.0,,10.8884,106.596,"Huyện Hóc Môn, Việt Nam","Huyện Hóc Môn, Việt Nam",,Clear
huyen hoc mon ho chi minh,1/3/2024 23:00,28.0,28.0,28.0,21.0,65.76,30.0,13.0,,130.0,,0.0,,,10.0,25.0,1012.0,,10.8884,106.596,"Huyện Hóc Môn, Việt Nam","Huyện Hóc Môn, Việt Nam",,Clear
huyen hoc mon ho chi minh,2/3/2024 0:00,28.0,28.0,28.0,21.0,65.76,30.0,13.0,,120.0,,0.0,,,10.0,25.0,1011.0,,10.8884,106.596,"Huyện Hóc Môn, Việt Nam","Huyện Hóc Môn, Việt Nam",,Clear
huyen hoc mon ho chi minh,2/3/2024 1:00,28.0,28.0,28.0,21.0,65.76,30.0,13.0,,130.0,,0.0,,,10.0,25.0,1011.0,,10.8884,106.596,"Huyện Hóc Môn, Việt Nam","Huyện Hóc Môn, Việt Nam",,Clear
huyen hoc mon ho chi minh,2/3/2024 2:00,27.0,27.0,27.0,21.0,69.73,28.7,7.6,,120.0,,0.0,,,10.0,25.0,1011.0,,10.8884,106.596,"Huyện Hóc Môn, Việt Nam","Huyện Hóc Môn, Việt Nam",,Clear
huyen hoc mon ho chi minh,2/3/2024 3:00,27.0,27.0,27.0,22.0,74.13,29.1,9.4,,100.0,,0.0,,,10.0,50.0,1011.0,,10.8884,106.596,"Huyện Hóc Môn, Việt Nam","Huyện Hóc Môn, Việt Nam",,Partially cloudy
huyen hoc mon ho chi minh,2/3/2024 4:00,26.0,26.0,26.0,22.0,78.63,,5.4,,90.0,,0.0,,,10.0,50.0,1010.0,,10.8884,106.596,"Huyện Hóc Môn, Việt Nam","Huyện Hóc Môn, Việt Nam",,Partially cloudy
huyen hoc mon ho chi minh,2/3/2024 5:00,26.0,26.0,26.0,22.0,78.63,,7.6,,90.0,,0.0,,,10.0,50.0,1010.0,,10.8884,106.596,"Huyện Hóc Môn, Việt Nam","Huyện Hóc Môn, Việt Nam",,Partially cloudy
huyen hoc mon ho chi minh,2/3/2024 6:00,26.0,26.0,26.0,22.0,78.63,,9.4,,80.0,,0.0,,,10.0,25.0,1011.0,,10.8884,106.596,"Huyện Hóc Môn, Việt Nam","Huyện Hóc Môn, Việt Nam",,Clear
huyen hoc mon ho chi minh,2/3/2024 7:00,27.0,27.0,27.0,22.0,74.13,29.1,5.4,,,,0.0,,,10.0,,1012.0,,10.8884,106.596,"Huyện Hóc Môn, Việt Nam","Huyện Hóc Môn, Việt Nam",,Clear
huyen hoc mon ho chi minh,2/3/2024 8:00,29.0,29.0,29.0,22.0,65.97,31.9,1.8,,,,0.0,,,9.0,,1013.0,,10.8884,106.596,"Huyện Hóc Môn, Việt Nam","Huyện Hóc Môn, Việt Nam",,Clear
huyen hoc mon ho chi minh,2/3/2024 9:00,31.0,31.0,31.0,21.0,55.31,33.6,7.6,,130.0,,0.0,,,10.0,,1014.0,,10.8884,106.596,"Huyện Hóc Môn, Việt Nam","Huyện Hóc Môn, Việt Nam",,Clear
huyen hoc mon ho chi minh,2/3/2024 10:00,31.0,31.0,31.0,19.0,48.87,32.3,5.4,,,,0.0,,,10.0,,1014.0,,10.8884,106.596,"Huyện Hóc Môn, Việt Nam","Huyện Hóc Môn, Việt Nam",,Clear
huyen hoc mon ho chi minh,2/3/2024 11:00,33.0,33.0,33.0,19.0,43.63,34.5,9.4,,,,0.0,,,10.0,,1013.0,,10.8884,106.596,"Huyện Hóc Môn, Việt Nam","Huyện Hóc Môn, Việt Nam",,Clear
huyen hoc mon ho chi minh,2/3/2024 12:00,34.0,34.0,34.0,19.0,41.25,35.7,3.6,,110.0,,0.0,,,10.0,25.0,1012.0,,10.8884,106.596,"Huyện Hóc Môn, Việt Nam","Huyện Hóc Môn, Việt Nam",,Clear
huyen hoc mon ho chi minh,2/3/2024 13:00,34.0,34.0,34.0,20.0,43.9,36.4,9.4,,230.0,,0.0,,,10.0,50.0,1011.0,,10.8884,106.596,"Huyện Hóc Môn, Việt Nam","Huyện Hóc Môn, Việt Nam",,Partially cloudy
huyen hoc mon ho chi minh,2/3/2024 14:00,35.0,35.0,35.0,20.0,41.52,37.6,5.4,,,,0.0,,,10.0,50.0,1010.0,,10.8884,106.596,"Huyện Hóc Môn, Việt Nam","Huyện Hóc Môn, Việt Nam",,Partially cloudy
huyen hoc mon ho chi minh,2/3/2024 15:00,36.0,36.0,36.0,20.0,39.29,38.8,7.6,,180.0,,0.0,,,10.0,50.0,1009.0,,10.8884,106.596,"Huyện Hóc Môn, Việt Nam","Huyện Hóc Môn, Việt Nam",,Partially cloudy
huyen hoc mon ho chi minh,2/3/2024 16:00,34.0,34.0,34.0,22.0,49.64,38.2,20.5,,190.0,,0.0,,,10.0,88.0,1009.0,,10.8884,106.596,"Huyện Hóc Môn, Việt Nam","Huyện Hóc Môn, Việt Nam",,Overcast
huyen hoc mon ho chi minh,2/3/2024 17:00,32.0,32.0,32.0,22.0,55.55,35.7,16.6,,180.0,,0.0,,,10.0,50.0,1009.0,,10.8884,106.596,"Huyện Hóc Môn, Việt Nam","Huyện Hóc Môn, Việt Nam",,Partially cloudy
huyen hoc mon ho chi minh,2/3/2024 18:00,31.0,31.0,31.0,22.0,58.8,34.4,16.6,,180.0,,0.0,,,10.0,25.0,1010.0,,10.8884,106.596,"Huyện Hóc Môn, Việt Nam","Huyện Hóc Môn, Việt Nam",,Clear
huyen hoc mon ho chi minh,2/3/2024 19:00,30.0,30.0,30.0,21.0,58.57,32.5,16.6,,140.0,,0.0,,,10.0,25.0,1010.0,,10.8884,106.596,"Huyện Hóc Môn, Việt Nam","Huyện Hóc Môn, Việt Nam",,Clear
huyen hoc mon ho chi minh,2/3/2024 20:00,29.0,29.0,29.0,21.0,62.05,31.3,16.6,,140.0,,0.0,,,10.0,,1011.0,,10.8884,106.596,"Huyện Hóc Môn, Việt Nam","Huyện Hóc Môn, Việt Nam",,Clear
huyen hoc mon ho chi minh,2/3/2024 21:00,28.0,28.0,28.0,21.0,65.76,30.0,18.4,,130.0,,0.0,,,10.0,,1011.0,,10.8884,106.596,"Huyện Hóc Môn, Việt Nam","Huyện Hóc Môn, Việt Nam",,Clear
huyen hoc mon ho chi minh,2/3/2024 22:00,28.0,28.0,28.0,21.0,65.76,30.0,14.8,,110.0,,0.0,,,10.0,,1012.0,,10.8884,106.596,"Huyện Hóc Môn, Việt Nam","Huyện Hóc Môn, Việt Nam",,Clear
huyen hoc mon ho chi minh,2/3/2024 23:00,28.0,28.0,28.0,21.0,65.76,30.0,7.6,,110.0,,0.0,,,10.0,,1012.0,,10.8884,106.596,"Huyện Hóc Môn, Việt Nam","Huyện Hóc Môn, Việt Nam",,Clear
huyen hoc mon ho chi minh,3/3/2024 0:00,28.0,28.0,28.0,21.0,65.76,30.0,7.6,,130.0,,0.0,,,10.0,25.0,1012.0,,10.8884,106.596,"Huyện Hóc Môn, Việt Nam","Huyện Hóc Môn, Việt Nam",,Clear
huyen hoc mon ho chi minh,3/3/2024 1:00,28.0,28.0,28.0,21.0,65.76,30.0,9.4,,110.0,,0.0,,,10.0,25.0,1011.0,,10.8884,106.596,"Huyện Hóc Môn, Việt Nam","Huyện Hóc Môn, Việt Nam",,Clear
huyen hoc mon ho chi minh,3/3/2024 2:00,27.0,27.0,27.0,21.0,69.73,28.7,7.6,,140.0,,0.0,,,10.0,25.0,1011.0,,10.8884,106.596,"Huyện Hóc Môn, Việt Nam","Huyện Hóc Môn, Việt Nam",,Clear
huyen hoc mon ho chi minh,3/3/2024 3:00,27.0,27.0,27.0,21.0,69.73,28.7,5.4,,,,0.0,,,10.0,25.0,1011.0,,10.8884,106.596,"Huyện Hóc Môn, Việt Nam","Huyện Hóc Môn, Việt Nam",,Clear
huyen hoc mon ho chi minh,3/3/2024 4:00,26.0,26.0,26.0,21.0,73.96,,11.2,,100.0,,0.0,,,10.0,25.0,1011.0,,10.8884,106.596,"Huyện Hóc Môn, Việt Nam","Huyện Hóc Môn, Việt Nam",,Clear
huyen hoc mon ho chi minh,3/3/2024 5:00,26.0,26.0,26.0,21.0,73.96,,7.6,,110.0,,0.0,,,10.0,25.0,1011.0,,10.8884,106.596,"Huyện Hóc Môn, Việt Nam","Huyện Hóc Môn, Việt Nam",,Clear
huyen hoc mon ho chi minh,3/3/2024 6:00,25.0,25.0,25.0,22.0,83.45,,9.4,,80.0,,0.0,,,10.0,25.0,1012.0,,10.8884,106.596,"Huyện Hóc Môn, Việt Nam","Huyện Hóc Môn, Việt Nam",,Clear
huyen hoc mon ho chi minh,3/3/2024 7:00,27.0,27.0,27.0,22.0,74.13,29.1,3.6,,,,0.0,,,10.0,25.0,1013.0,,10.8884,106.596,"Huyện Hóc Môn, Việt Nam","Huyện Hóc Môn, Việt Nam",,Clear
huyen hoc mon ho chi minh,3/3/2024 8:00,29.0,29.0,29.0,21.0,62.05,31.3,5.4,,,,0.0,,,10.0,,1013.0,,10.8884,106.596,"Huyện Hóc Môn, Việt Nam","Huyện Hóc Môn, Việt Nam",,Clear
huyen hoc mon ho chi minh,3/3/2024 9:00,30.0,30.0,30.0,20.0,55.07,31.8,7.6,,120.0,,0.0,,,10.0,,1013.0,,10.8884,106.596,"Huyện Hóc Môn, Việt Nam","Huyện Hóc Môn, Việt Nam",,Clear
huyen hoc mon ho chi minh,3/3/2024 10:00,31.0,31.0,31.0,20.0,52.0,32.9,3.6,,,,0.0,,,10.0,25.0,1013.0,,10.8884,106.596,"Huyện Hóc Môn, Việt Nam","Huyện Hóc Môn, Việt Nam",,Clear
huyen hoc mon ho chi minh,3/3/2024 11:00,32.0,32.0,32.0,20.0,49.13,34.1,3.6,,,,0.0,,,10.0,25.0,1012.0,,10.8884,106.596,"Huyện Hóc Môn, Việt Nam","Huyện Hóc Môn, Việt Nam",,Clear
huyen hoc mon ho chi minh,3/3/2024 12:00,34.0,34.0,34.0,20.0,43.9,36.4,3.6,,,,0.0,,,10.0,50.0,1011.0,,10.8884,106.596,"Huyện Hóc Môn, Việt Nam","Huyện Hóc Môn, Việt Nam",,Partially cloudy
huyen hoc mon ho chi minh,3/3/2024 13:00,34.0,34.0,34.0,20.0,43.9,36.4,7.6,,40.0,,0.0,,,9.0,50.0,1010.0,,10.8884,106.596,"Huyện Hóc Môn, Việt Nam","Huyện Hóc Môn, Việt Nam",,Partially cloudy
huyen hoc mon ho chi minh,3/3/2024 14:00,34.0,34.0,34.0,20.0,43.9,36.4,7.6,,200.0,,0.0,,,9.0,50.0,1009.0,,10.8884,106.596,"Huyện Hóc Môn, Việt Nam","Huyện Hóc Môn, Việt Nam",,Partially cloudy
huyen hoc mon ho chi minh,3/3/2024 15:00,34.0,34.0,34.0,20.0,43.9,36.4,3.6,,,,0.0,,,10.0,50.0,1008.0,,10.8884,106.596,"Huyện Hóc Môn, Việt Nam","Huyện Hóc Môn, Việt Nam",,Partially cloudy
huyen can gio ho chi minh,1/3/2024 17:00,32.0,32.0,32.0,20.0,49.13,34.1,20.5,,180.0,,0.0,,,10.0,50.0,1009.0,,10.4157,106.961,"Huyện Cần Giờ, Việt Nam","Huyện Cần Giờ, Việt Nam",,Partially cloudy
huyen can gio ho chi minh,1/3/2024 18:00,31.0,31.0,31.0,21.0,55.31,33.6,11.2,,170.0,,0.0,,,10.0,50.0,1010.0,,10.4157,106.961,"Huyện Cần Giờ, Việt Nam","Huyện Cần Giờ, Việt Nam",,Partially cloudy
huyen can gio ho chi minh,1/3/2024 19:00,31.0,31.0,31.0,19.0,48.87,32.3,16.6,,150.0,,0.0,,,10.0,50.0,1010.0,,10.4157,106.961,"Huyện Cần Giờ, Việt Nam","Huyện Cần Giờ, Việt Nam",,Partially cloudy
huyen can gio ho chi minh,1/3/2024 20:00,30.0,30.0,30.0,19.0,51.75,31.3,20.5,,140.0,,0.0,,,10.0,50.0,1011.0,,10.4157,106.961,"Huyện Cần Giờ, Việt Nam","Huyện Cần Giờ, Việt Nam",,Partially cloudy
huyen can gio ho chi minh,1/3/2024 21:00,29.0,29.0,29.0,20.0,58.34,30.7,18.4,,140.0,,0.0,,,10.0,50.0,1012.0,,10.4157,106.961,"Huyện Cần Giờ, Việt Nam","Huyện Cần Giờ, Việt Nam",,Partially cloudy
huyen can gio ho chi minh,1/3/2024 22:00,28.0,28.0,28.0,21.0,65.76,30.0,20.5,,140.0,,0.0,,,10.0,25.0,1012.0,,10.4157,106.961,"Huyện Cần Giờ, Việt Nam","Huyện Cần Giờ, Việt Nam",,Clear
huyen can gio ho chi minh,1/3/2024 23:00,28.0,28.0,28.0,21.0,65.76,30.0,13.0,,130.0,,0.0,,,10.0,25.0,1012.0,,10.4157,106.961,"Huyện Cần Giờ, Việt Nam","Huyện Cần Giờ, Việt Nam",,Clear
huyen can gio ho chi minh,2/3/2024 0:00,28.0,28.0,28.0,21.0,65.76,30.0,13.0,,120.0,,0.0,,,10.0,25.0,1011.0,,10.4157,106.961,"Huyện Cần Giờ, Việt Nam","Huyện Cần Giờ, Việt Nam",,Clear
huyen can gio ho chi minh,2/3/2024 1:00,28.0,28.0,28.0,21.0,65.76,30.0,13.0,,130.0,,0.0,,,10.0,25.0,1011.0,,10.4157,106.961,"Huyện Cần Giờ, Việt Nam","Huyện Cần Giờ, Việt Nam",,Clear
huyen can gio ho chi minh,2/3/2024 2:00,27.0,27.0,27.0,21.0,69.73,28.7,7.6,,120.0,,0.0,,,10.0,25.0,1011.0,,10.4157,106.961,"Huyện Cần Giờ, Việt Nam","Huyện Cần Giờ, Việt Nam",,Clear
huyen can gio ho chi minh,2/3/2024 3:00,27.0,27.0,27.0,22.0,74.13,29.1,9.4,,100.0,,0.0,,,10.0,50.0,1011.0,,10.4157,106.961,"Huyện Cần Giờ, Việt Nam","Huyện Cần Giờ, Việt Nam",,Partially cloudy
huyen can gio ho chi minh,2/3/2024 4:00,26.0,26.0,26.0,22.0,78.63,,5.4,,90.0,,0.0,,,10.0,50.0,1010.0,,10.4157,106.961,"Huyện Cần Giờ, Việt Nam","Huyện Cần Giờ, Việt Nam",,Partially cloudy
huyen can gio ho chi minh,2/3/2024 5:00,26.0,26.0,26.0,22.0,78.63,,7.6,,90.0,,0.0,,,10.0,50.0,1010.0,,10.4157,106.961,"Huyện Cần Giờ, Việt Nam","Huyện Cần Giờ, Việt Nam",,Partially cloudy
huyen can gio ho chi minh,2/3/2024 6:00,26.0,26.0,26.0,22.0,78.63,,9.4,,80.0,,0.0,,,10.0,25.0,1011.0,,10.4157,106.961,"Huyện Cần Giờ, Việt Nam","Huyện Cần Giờ, Việt Nam",,Clear
huyen can gio ho chi minh,2/3/2024 7:00,27.0,27.0,27.0,22.0,74.13,29.1,5.4,,,,0.0,,,10.0,,1012.0,,10.4157,106.961,"Huyện Cần Giờ, Việt Nam","Huyện Cần Giờ, Việt Nam",,Clear
huyen can gio ho chi minh,2/3/2024 8:00,29.0,29.0,29.0,22.0,65.97,31.9,1.8,,,,0.0,,,9.0,,1013.0,,10.4157,106.961,"Huyện Cần Giờ, Việt Nam","Huyện Cần Giờ, Việt Nam",,Clear
huyen can gio ho chi minh,2/3/2024 9:00,31.0,31.0,31.0,21.0,55.31,33.6,7.6,,130.0,,0.0,,,10.0,,1014.0,,10.4157,106.961,"Huyện Cần Giờ, Việt Nam","Huyện Cần Giờ, Việt Nam",,Clear
huyen can gio ho chi minh,2/3/2024 10:00,31.0,31.0,31.0,19.0,48.87,32.3,5.4,,,,0.0,,,10.0,,1014.0,,10.4157,106.961,"Huyện Cần Giờ, Việt Nam","Huyện Cần Giờ, Việt Nam",,Clear
huyen can gio ho chi minh,2/3/2024 11:00,33.0,33.0,33.0,19.0,43.63,34.5,9.4,,,,0.0,,,10.0,,1013.0,,10.4157,106.961,"Huyện Cần Giờ, Việt Nam","Huyện Cần Giờ, Việt Nam",,Clear
huyen can gio ho chi minh,2/3/2024 12:00,34.0,34.0,34.0,19.0,41.25,35.7,3.6,,110.0,,0.0,,,10.0,25.0,1012.0,,10.4157,106.961,"Huyện Cần Giờ, Việt Nam","Huyện Cần Giờ, Việt Nam",,Clear
huyen can gio ho chi minh,2/3/2024 13:00,34.0,34.0,34.0,20.0,43.9,36.4,9.4,,230.0,,0.0,,,10.0,50.0,1011.0,,10.4157,106.961,"Huyện Cần Giờ, Việt Nam","Huyện Cần Giờ, Việt Nam",,Partially cloudy
huyen can gio ho chi minh,2/3/2024 14:00,35.0,35.0,35.0,20.0,41.52,37.6,5.4,,,,0.0,,,10.0,50.0,1010.0,,10.4157,106.961,"Huyện Cần Giờ, Việt Nam","Huyện Cần Giờ, Việt Nam",,Partially cloudy
huyen can gio ho chi minh,2/3/2024 15:00,36.0,36.0,36.0,20.0,39.29,38.8,7.6,,180.0,,0.0,,,10.0,50.0,1009.0,,10.4157,106.961,"Huyện Cần Giờ, Việt Nam","Huyện Cần Giờ, Việt Nam",,Partially cloudy
huyen can gio ho chi minh,2/3/2024 16:00,34.0,34.0,34.0,22.0,49.64,38.2,20.5,,190.0,,0.0,,,10.0,88.0,1009.0,,10.4157,106.961,"Huyện Cần Giờ, Việt Nam","Huyện Cần Giờ, Việt Nam",,Overcast
huyen can gio ho chi minh,2/3/2024 17:00,32.0,32.0,32.0,22.0,55.55,35.7,16.6,,180.0,,0.0,,,10.0,50.0,1009.0,,10.4157,106.961,"Huyện Cần Giờ, Việt Nam","Huyện Cần Giờ, Việt Nam",,Partially cloudy
huyen can gio ho chi minh,2/3/2024 18:00,31.0,31.0,31.0,22.0,58.8,34.4,16.6,,180.0,,0.0,,,10.0,25.0,1010.0,,10.4157,106.961,"Huyện Cần Giờ, Việt Nam","Huyện Cần Giờ, Việt Nam",,Clear
huyen can gio ho chi minh,2/3/2024 19:00,30.0,30.0,30.0,21.0,58.57,32.5,16.6,,140.0,,0.0,,,10.0,25.0,1010.0,,10.4157,106.961,"Huyện Cần Giờ, Việt Nam","Huyện Cần Giờ, Việt Nam",,Clear
huyen can gio ho chi minh,2/3/2024 20:00,29.0,29.0,29.0,21.0,62.05,31.3,16.6,,140.0,,0.0,,,10.0,,1011.0,,10.4157,106.961,"Huyện Cần Giờ, Việt Nam","Huyện Cần Giờ, Việt Nam",,Clear
huyen can gio ho chi minh,2/3/2024 21:00,28.0,28.0,28.0,21.0,65.76,30.0,18.4,,130.0,,0.0,,,10.0,,1011.0,,10.4157,106.961,"Huyện Cần Giờ, Việt Nam","Huyện Cần Giờ, Việt Nam",,Clear
huyen can gio ho chi minh,2/3/2024 22:00,28.0,28.0,28.0,21.0,65.76,30.0,14.8,,110.0,,0.0,,,10.0,,1012.0,,10.4157,106.961,"Huyện Cần Giờ, Việt Nam","Huyện Cần Giờ, Việt Nam",,Clear
huyen can gio ho chi minh,2/3/2024 23:00,28.0,28.0,28.0,21.0,65.76,30.0,7.6,,110.0,,0.0,,,10.0,,1012.0,,10.4157,106.961,"Huyện Cần Giờ, Việt Nam","Huyện Cần Giờ, Việt Nam",,Clear
huyen can gio ho chi minh,3/3/2024 0:00,28.0,28.0,28.0,21.0,65.76,30.0,7.6,,130.0,,0.0,,,10.0,25.0,1012.0,,10.4157,106.961,"Huyện Cần Giờ, Việt Nam","Huyện Cần Giờ, Việt Nam",,Clear
huyen can gio ho chi minh,3/3/2024 1:00,28.0,28.0,28.0,21.0,65.76,30.0,9.4,,110.0,,0.0,,,10.0,25.0,1011.0,,10.4157,106.961,"Huyện Cần Giờ, Việt Nam","Huyện Cần Giờ, Việt Nam",,Clear
huyen can gio ho chi minh,3/3/2024 2:00,27.0,27.0,27.0,21.0,69.73,28.7,7.6,,140.0,,0.0,,,10.0,25.0,1011.0,,10.4157,106.961,"Huyện Cần Giờ, Việt Nam","Huyện Cần Giờ, Việt Nam",,Clear
huyen can gio ho chi minh,3/3/2024 3:00,27.0,27.0,27.0,21.0,69.73,28.7,5.4,,,,0.0,,,10.0,25.0,1011.0,,10.4157,106.961,"Huyện Cần Giờ, Việt Nam","Huyện Cần Giờ, Việt Nam",,Clear
huyen can gio ho chi minh,3/3/2024 4:00,26.0,26.0,26.0,21.0,73.96,,11.2,,100.0,,0.0,,,10.0,25.0,1011.0,,10.4157,106.961,"Huyện Cần Giờ, Việt Nam","Huyện Cần Giờ, Việt Nam",,Clear
huyen can gio ho chi minh,3/3/2024 5:00,26.0,26.0,26.0,21.0,73.96,,7.6,,110.0,,0.0,,,10.0,25.0,1011.0,,10.4157,106.961,"Huyện Cần Giờ, Việt Nam","Huyện Cần Giờ, Việt Nam",,Clear
huyen can gio ho chi minh,3/3/2024 6:00,25.0,25.0,25.0,22.0,83.45,,9.4,,80.0,,0.0,,,10.0,25.0,1012.0,,10.4157,106.961,"Huyện Cần Giờ, Việt Nam","Huyện Cần Giờ, Việt Nam",,Clear
huyen can gio ho chi minh,3/3/2024 7:00,27.0,27.0,27.0,22.0,74.13,29.1,3.6,,,,0.0,,,10.0,25.0,1013.0,,10.4157,106.961,"Huyện Cần Giờ, Việt Nam","Huyện Cần Giờ, Việt Nam",,Clear
huyen can gio ho chi minh,3/3/2024 8:00,29.0,29.0,29.0,21.0,62.05,31.3,5.4,,,,0.0,,,10.0,,1013.0,,10.4157,106.961,"Huyện Cần Giờ, Việt Nam","Huyện Cần Giờ, Việt Nam",,Clear
huyen can gio ho chi minh,3/3/2024 9:00,30.0,30.0,30.0,20.0,55.07,31.8,7.6,,120.0,,0.0,,,10.0,,1013.0,,10.4157,106.961,"Huyện Cần Giờ, Việt Nam","Huyện Cần Giờ, Việt Nam",,Clear
huyen can gio ho chi minh,3/3/2024 10:00,31.0,31.0,31.0,20.0,52.0,32.9,3.6,,,,0.0,,,10.0,25.0,1013.0,,10.4157,106.961,"Huyện Cần Giờ, Việt Nam","Huyện Cần Giờ, Việt Nam",,Clear
huyen can gio ho chi minh,3/3/2024 11:00,32.0,32.0,32.0,20.0,49.13,34.1,3.6,,,,0.0,,,10.0,25.0,1012.0,,10.4157,106.961,"Huyện Cần Giờ, Việt Nam","Huyện Cần Giờ, Việt Nam",,Clear
huyen can gio ho chi minh,3/3/2024 12:00,34.0,34.0,34.0,20.0,43.9,36.4,3.6,,,,0.0,,,10.0,50.0,1011.0,,10.4157,106.961,"Huyện Cần Giờ, Việt Nam","Huyện Cần Giờ, Việt Nam",,Partially cloudy
huyen can gio ho chi minh,3/3/2024 13:00,34.0,34.0,34.0,20.0,43.9,36.4,7.6,,40.0,,0.0,,,9.0,50.0,1010.0,,10.4157,106.961,"Huyện Cần Giờ, Việt Nam","Huyện Cần Giờ, Việt Nam",,Partially cloudy
huyen can gio ho chi minh,3/3/2024 14:00,34.0,34.0,34.0,20.0,43.9,36.4,7.6,,200.0,,0.0,,,9.0,50.0,1009.0,,10.4157,106.961,"Huyện Cần Giờ, Việt Nam","Huyện Cần Giờ, Việt Nam",,Partially cloudy
huyen can gio ho chi minh,3/3/2024 15:00,34.0,34.0,34.0,20.0,43.9,36.4,3.6,,,,0.0,,,10.0,50.0,1008.0,,10.4157,106.961,"Huyện Cần Giờ, Việt Nam","Huyện Cần Giờ, Việt Nam",,Partially cloudy
huyen cu chi ho chi minh,1/3/2024 17:00,32.0,32.0,32.0,20.0,49.13,34.1,20.5,,180.0,,0.0,,,10.0,50.0,1009.0,,10.9773,106.502,"Huyện Củ Chi, Việt Nam","Huyện Củ Chi, Việt Nam",,Partially cloudy
huyen cu chi ho chi minh,1/3/2024 18:00,31.0,31.0,31.0,21.0,55.31,33.6,11.2,,170.0,,0.0,,,10.0,50.0,1010.0,,10.9773,106.502,"Huyện Củ Chi, Việt Nam","Huyện Củ Chi, Việt Nam",,Partially cloudy
huyen cu chi ho chi minh,1/3/2024 19:00,31.0,31.0,31.0,19.0,48.87,32.3,16.6,,150.0,,0.0,,,10.0,50.0,1010.0,,10.9773,106.502,"Huyện Củ Chi, Việt Nam","Huyện Củ Chi, Việt Nam",,Partially cloudy
huyen cu chi ho chi minh,1/3/2024 20:00,30.0,30.0,30.0,19.0,51.75,31.3,20.5,,140.0,,0.0,,,10.0,50.0,1011.0,,10.9773,106.502,"Huyện Củ Chi, Việt Nam","Huyện Củ Chi, Việt Nam",,Partially cloudy
huyen cu chi ho chi minh,1/3/2024 21:00,29.0,29.0,29.0,20.0,58.34,30.7,18.4,,140.0,,0.0,,,10.0,50.0,1012.0,,10.9773,106.502,"Huyện Củ Chi, Việt Nam","Huyện Củ Chi, Việt Nam",,Partially cloudy
huyen cu chi ho chi minh,1/3/2024 22:00,28.0,28.0,28.0,21.0,65.76,30.0,20.5,,140.0,,0.0,,,10.0,25.0,1012.0,,10.9773,106.502,"Huyện Củ Chi, Việt Nam","Huyện Củ Chi, Việt Nam",,Clear
huyen cu chi ho chi minh,1/3/2024 23:00,28.0,28.0,28.0,21.0,65.76,30.0,13.0,,130.0,,0.0,,,10.0,25.0,1012.0,,10.9773,106.502,"Huyện Củ Chi, Việt Nam","Huyện Củ Chi, Việt Nam",,Clear
huyen cu chi ho chi minh,2/3/2024 0:00,28.0,28.0,28.0,21.0,65.76,30.0,13.0,,120.0,,0.0,,,10.0,25.0,1011.0,,10.9773,106.502,"Huyện Củ Chi, Việt Nam","Huyện Củ Chi, Việt Nam",,Clear
huyen cu chi ho chi minh,2/3/2024 1:00,28.0,28.0,28.0,21.0,65.76,30.0,13.0,,130.0,,0.0,,,10.0,25.0,1011.0,,10.9773,106.502,"Huyện Củ Chi, Việt Nam","Huyện Củ Chi, Việt Nam",,Clear
huyen cu chi ho chi minh,2/3/2024 2:00,27.0,27.0,27.0,21.0,69.73,28.7,7.6,,120.0,,0.0,,,10.0,25.0,1011.0,,10.9773,106.502,"Huyện Củ Chi, Việt Nam","Huyện Củ Chi, Việt Nam",,Clear
huyen cu chi ho chi minh,2/3/2024 3:00,27.0,27.0,27.0,22.0,74.13,29.1,9.4,,100.0,,0.0,,,10.0,50.0,1011.0,,10.9773,106.502,"Huyện Củ Chi, Việt Nam","Huyện Củ Chi, Việt Nam",,Partially cloudy
huyen cu chi ho chi minh,2/3/2024 4:00,26.0,26.0,26.0,22.0,78.63,,5.4,,90.0,,0.0,,,10.0,50.0,1010.0,,10.9773,106.502,"Huyện Củ Chi, Việt Nam","Huyện Củ Chi, Việt Nam",,Partially cloudy
huyen cu chi ho chi minh,2/3/2024 5:00,26.0,26.0,26.0,22.0,78.63,,7.6,,90.0,,0.0,,,10.0,50.0,1010.0,,10.9773,106.502,"Huyện Củ Chi, Việt Nam","Huyện Củ Chi, Việt Nam",,Partially cloudy
huyen cu chi ho chi minh,2/3/2024 6:00,26.0,26.0,26.0,22.0,78.63,,9.4,,80.0,,0.0,,,10.0,25.0,1011.0,,10.9773,106.502,"Huyện Củ Chi, Việt Nam","Huyện Củ Chi, Việt Nam",,Clear
huyen cu chi ho chi minh,2/3/2024 7:00,27.0,27.0,27.0,22.0,74.13,29.1,5.4,,,,0.0,,,10.0,,1012.0,,10.9773,106.502,"Huyện Củ Chi, Việt Nam","Huyện Củ Chi, Việt Nam",,Clear
huyen cu chi ho chi minh,2/3/2024 8:00,29.0,29.0,29.0,22.0,65.97,31.9,1.8,,,,0.0,,,9.0,,1013.0,,10.9773,106.502,"Huyện Củ Chi, Việt Nam","Huyện Củ Chi, Việt Nam",,Clear
huyen cu chi ho chi minh,2/3/2024 9:00,31.0,31.0,31.0,21.0,55.31,33.6,7.6,,130.0,,0.0,,,10.0,,1014.0,,10.9773,106.502,"Huyện Củ Chi, Việt Nam","Huyện Củ Chi, Việt Nam",,Clear
huyen cu chi ho chi minh,2/3/2024 10:00,31.0,31.0,31.0,19.0,48.87,32.3,5.4,,,,0.0,,,10.0,,1014.0,,10.9773,106.502,"Huyện Củ Chi, Việt Nam","Huyện Củ Chi, Việt Nam",,Clear
huyen cu chi ho chi minh,2/3/2024 11:00,33.0,33.0,33.0,19.0,43.63,34.5,9.4,,,,0.0,,,10.0,,1013.0,,10.9773,106.502,"Huyện Củ Chi, Việt Nam","Huyện Củ Chi, Việt Nam",,Clear
huyen cu chi ho chi minh,2/3/2024 12:00,34.0,34.0,34.0,19.0,41.25,35.7,3.6,,110.0,,0.0,,,10.0,25.0,1012.0,,10.9773,106.502,"Huyện Củ Chi, Việt Nam","Huyện Củ Chi, Việt Nam",,Clear
huyen cu chi ho chi minh,2/3/2024 13:00,34.0,34.0,34.0,20.0,43.9,36.4,9.4,,230.0,,0.0,,,10.0,50.0,1011.0,,10.9773,106.502,"Huyện Củ Chi, Việt Nam","Huyện Củ Chi, Việt Nam",,Partially cloudy
huyen cu chi ho chi minh,2/3/2024 14:00,35.0,35.0,35.0,20.0,41.52,37.6,5.4,,,,0.0,,,10.0,50.0,1010.0,,10.9773,106.502,"Huyện Củ Chi, Việt Nam","Huyện Củ Chi, Việt Nam",,Partially cloudy
huyen cu chi ho chi minh,2/3/2024 15:00,36.0,36.0,36.0,20.0,39.29,38.8,7.6,,180.0,,0.0,,,10.0,50.0,1009.0,,10.9773,106.502,"Huyện Củ Chi, Việt Nam","Huyện Củ Chi, Việt Nam",,Partially cloudy
huyen cu chi ho chi minh,2/3/2024 16:00,34.0,34.0,34.0,22.0,49.64,38.2,20.5,,190.0,,0.0,,,10.0,88.0,1009.0,,10.9773,106.502,"Huyện Củ Chi, Việt Nam","Huyện Củ Chi, Việt Nam",,Overcast
huyen cu chi ho chi minh,2/3/2024 17:00,32.0,32.0,32.0,22.0,55.55,35.7,16.6,,180.0,,0.0,,,10.0,50.0,1009.0,,10.9773,106.502,"Huyện Củ Chi, Việt Nam","Huyện Củ Chi, Việt Nam",,Partially cloudy
huyen cu chi ho chi minh,2/3/2024 18:00,31.0,31.0,31.0,22.0,58.8,34.4,16.6,,180.0,,0.0,,,10.0,25.0,1010.0,,10.9773,106.502,"Huyện Củ Chi, Việt Nam","Huyện Củ Chi, Việt Nam",,Clear
huyen cu chi ho chi minh,2/3/2024 19:00,30.0,30.0,30.0,21.0,58.57,32.5,16.6,,140.0,,0.0,,,10.0,25.0,1010.0,,10.9773,106.502,"Huyện Củ Chi, Việt Nam","Huyện Củ Chi, Việt Nam",,Clear
huyen cu chi ho chi minh,2/3/2024 20:00,29.0,29.0,29.0,21.0,62.05,31.3,16.6,,140.0,,0.0,,,10.0,,1011.0,,10.9773,106.502,"Huyện Củ Chi, Việt Nam","Huyện Củ Chi, Việt Nam",,Clear
huyen cu chi ho chi minh,2/3/2024 21:00,28.0,28.0,28.0,21.0,65.76,30.0,18.4,,130.0,,0.0,,,10.0,,1011.0,,10.9773,106.502,"Huyện Củ Chi, Việt Nam","Huyện Củ Chi, Việt Nam",,Clear
huyen cu chi ho chi minh,2/3/2024 22:00,28.0,28.0,28.0,21.0,65.76,30.0,14.8,,110.0,,0.0,,,10.0,,1012.0,,10.9773,106.502,"Huyện Củ Chi, Việt Nam","Huyện Củ Chi, Việt Nam",,Clear
huyen cu chi ho chi minh,2/3/2024 23:00,28.0,28.0,28.0,21.0,65.76,30.0,7.6,,110.0,,0.0,,,10.0,,1012.0,,10.9773,106.502,"Huyện Củ Chi, Việt Nam","Huyện Củ Chi, Việt Nam",,Clear
huyen cu chi ho chi minh,3/3/2024 0:00,28.0,28.0,28.0,21.0,65.76,30.0,7.6,,130.0,,0.0,,,10.0,25.0,1012.0,,10.9773,106.502,"Huyện Củ Chi, Việt Nam","Huyện Củ Chi, Việt Nam",,Clear
huyen cu chi ho chi minh,3/3/2024 1:00,28.0,28.0,28.0,21.0,65.76,30.0,9.4,,110.0,,0.0,,,10.0,25.0,1011.0,,10.9773,106.502,"Huyện Củ Chi, Việt Nam","Huyện Củ Chi, Việt Nam",,Clear
huyen cu chi ho chi minh,3/3/2024 2:00,27.0,27.0,27.0,21.0,69.73,28.7,7.6,,140.0,,0.0,,,10.0,25.0,1011.0,,10.9773,106.502,"Huyện Củ Chi, Việt Nam","Huyện Củ Chi, Việt Nam",,Clear
huyen cu chi ho chi minh,3/3/2024 3:00,27.0,27.0,27.0,21.0,69.73,28.7,5.4,,,,0.0,,,10.0,25.0,1011.0,,10.9773,106.502,"Huyện Củ Chi, Việt Nam","Huyện Củ Chi, Việt Nam",,Clear
huyen cu chi ho chi minh,3/3/2024 4:00,26.0,26.0,26.0,21.0,73.96,,11.2,,100.0,,0.0,,,10.0,25.0,1011.0,,10.9773,106.502,"Huyện Củ Chi, Việt Nam","Huyện Củ Chi, Việt Nam",,Clear
huyen cu chi ho chi minh,3/3/2024 5:00,26.0,26.0,26.0,21.0,73.96,,7.6,,110.0,,0.0,,,10.0,25.0,1011.0,,10.9773,106.502,"Huyện Củ Chi, Việt Nam","Huyện Củ Chi, Việt Nam",,Clear
huyen cu chi ho chi minh,3/3/2024 6:00,25.0,25.0,25.0,22.0,83.45,,9.4,,80.0,,0.0,,,10.0,25.0,1012.0,,10.9773,106.502,"Huyện Củ Chi, Việt Nam","Huyện Củ Chi, Việt Nam",,Clear
huyen cu chi ho chi minh,3/3/2024 7:00,27.0,27.0,27.0,22.0,74.13,29.1,3.6,,,,0.0,,,10.0,25.0,1013.0,,10.9773,106.502,"Huyện Củ Chi, Việt Nam","Huyện Củ Chi, Việt Nam",,Clear
huyen cu chi ho chi minh,3/3/2024 8:00,29.0,29.0,29.0,21.0,62.05,31.3,5.4,,,,0.0,,,10.0,,1013.0,,10.9773,106.502,"Huyện Củ Chi, Việt Nam","Huyện Củ Chi, Việt Nam",,Clear
huyen cu chi ho chi minh,3/3/2024 9:00,30.0,30.0,30.0,20.0,55.07,31.8,7.6,,120.0,,0.0,,,10.0,,1013.0,,10.9773,106.502,"Huyện Củ Chi, Việt Nam","Huyện Củ Chi, Việt Nam",,Clear
huyen cu chi ho chi minh,3/3/2024 10:00,31.0,31.0,31.0,20.0,52.0,32.9,3.6,,,,0.0,,,10.0,25.0,1013.0,,10.9773,106.502,"Huyện Củ Chi, Việt Nam","Huyện Củ Chi, Việt Nam",,Clear
huyen cu chi ho chi minh,3/3/2024 11:00,32.0,32.0,32.0,20.0,49.13,34.1,3.6,,,,0.0,,,10.0,25.0,1012.0,,10.9773,106.502,"Huyện Củ Chi, Việt Nam","Huyện Củ Chi, Việt Nam",,Clear
huyen cu chi ho chi minh,3/3/2024 12:00,34.0,34.0,34.0,20.0,43.9,36.4,3.6,,,,0.0,,,10.0,50.0,1011.0,,10.9773,106.502,"Huyện Củ Chi, Việt Nam","Huyện Củ Chi, Việt Nam",,Partially cloudy
huyen cu chi ho chi minh,3/3/2024 13:00,34.0,34.0,34.0,20.0,43.9,36.4,7.6,,40.0,,0.0,,,9.0,50.0,1010.0,,10.9773,106.502,"Huyện Củ Chi, Việt Nam","Huyện Củ Chi, Việt Nam",,Partially cloudy
huyen cu chi ho chi minh,3/3/2024 14:00,34.0,34.0,34.0,20.0,43.9,36.4,7.6,,200.0,,0.0,,,9.0,50.0,1009.0,,10.9773,106.502,"Huyện Củ Chi, Việt Nam","Huyện Củ Chi, Việt Nam",,Partially cloudy
huyen cu chi ho chi minh,3/3/2024 15:00,34.0,34.0,34.0,20.0,43.9,36.4,3.6,,,,0.0,,,10.0,50.0,1008.0,,10.9773,106.502,"Huyện Củ Chi, Việt Nam","Huyện Củ Chi, Việt Nam",,Partially cloudy
huyen nha be ho chi minh,1/3/2024 17:00,32.0,32.0,32.0,20.0,49.13,34.1,20.5,,180.0,,0.0,,,10.0,50.0,1009.0,,10.7015,106.738,"Huyện Nhà Bè, Việt Nam","Huyện Nhà Bè, Việt Nam",,Partially cloudy
huyen nha be ho chi minh,1/3/2024 18:00,31.0,31.0,31.0,21.0,55.31,33.6,11.2,,170.0,,0.0,,,10.0,50.0,1010.0,,10.7015,106.738,"Huyện Nhà Bè, Việt Nam","Huyện Nhà Bè, Việt Nam",,Partially cloudy
huyen nha be ho chi minh,1/3/2024 19:00,31.0,31.0,31.0,19.0,48.87,32.3,16.6,,150.0,,0.0,,,10.0,50.0,1010.0,,10.7015,106.738,"Huyện Nhà Bè, Việt Nam","Huyện Nhà Bè, Việt Nam",,Partially cloudy
huyen nha be ho chi minh,1/3/2024 20:00,30.0,30.0,30.0,19.0,51.75,31.3,20.5,,140.0,,0.0,,,10.0,50.0,1011.0,,10.7015,106.738,"Huyện Nhà Bè, Việt Nam","Huyện Nhà Bè, Việt Nam",,Partially cloudy
huyen nha be ho chi minh,1/3/2024 21:00,29.0,29.0,29.0,20.0,58.34,30.7,18.4,,140.0,,0.0,,,10.0,50.0,1012.0,,10.7015,106.738,"Huyện Nhà Bè, Việt Nam","Huyện Nhà Bè, Việt Nam",,Partially cloudy
huyen nha be ho chi minh,1/3/2024 22:00,28.0,28.0,28.0,21.0,65.76,30.0,20.5,,140.0,,0.0,,,10.0,25.0,1012.0,,10.7015,106.738,"Huyện Nhà Bè, Việt Nam","Huyện Nhà Bè, Việt Nam",,Clear
huyen nha be ho chi minh,1/3/2024 23:00,28.0,28.0,28.0,21.0,65.76,30.0,13.0,,130.0,,0.0,,,10.0,25.0,1012.0,,10.7015,106.738,"Huyện Nhà Bè, Việt Nam","Huyện Nhà Bè, Việt Nam",,Clear
huyen nha be ho chi minh,2/3/2024 0:00,28.0,28.0,28.0,21.0,65.76,30.0,13.0,,120.0,,0.0,,,10.0,25.0,1011.0,,10.7015,106.738,"Huyện Nhà Bè, Việt Nam","Huyện Nhà Bè, Việt Nam",,Clear
huyen nha be ho chi minh,2/3/2024 1:00,28.0,28.0,28.0,21.0,65.76,30.0,13.0,,130.0,,0.0,,,10.0,25.0,1011.0,,10.7015,106.738,"Huyện Nhà Bè, Việt Nam","Huyện Nhà Bè, Việt Nam",,Clear
huyen nha be ho chi minh,2/3/2024 2:00,27.0,27.0,27.0,21.0,69.73,28.7,7.6,,120.0,,0.0,,,10.0,25.0,1011.0,,10.7015,106.738,"Huyện Nhà Bè, Việt Nam","Huyện Nhà Bè, Việt Nam",,Clear
huyen nha be ho chi minh,2/3/2024 3:00,27.0,27.0,27.0,22.0,74.13,29.1,9.4,,100.0,,0.0,,,10.0,50.0,1011.0,,10.7015,106.738,"Huyện Nhà Bè, Việt Nam","Huyện Nhà Bè, Việt Nam",,Partially cloudy
huyen nha be ho chi minh,2/3/2024 4:00,26.0,26.0,26.0,22.0,78.63,,5.4,,90.0,,0.0,,,10.0,50.0,1010.0,,10.7015,106.738,"Huyện Nhà Bè, Việt Nam","Huyện Nhà Bè, Việt Nam",,Partially cloudy
huyen nha be ho chi minh,2/3/2024 5:00,26.0,26.0,26.0,22.0,78.63,,7.6,,90.0,,0.0,,,10.0,50.0,1010.0,,10.7015,106.738,"Huyện Nhà Bè, Việt Nam","Huyện Nhà Bè, Việt Nam",,Partially cloudy
huyen nha be ho chi minh,2/3/2024 6:00,26.0,26.0,26.0,22.0,78.63,,9.4,,80.0,,0.0,,,10.0,25.0,1011.0,,10.7015,106.738,"Huyện Nhà Bè, Việt Nam","Huyện Nhà Bè, Việt Nam",,Clear
huyen nha be ho chi minh,2/3/2024 7:00,27.0,27.0,27.0,22.0,74.13,29.1,5.4,,,,0.0,,,10.0,,1012.0,,10.7015,106.738,"Huyện Nhà Bè, Việt Nam","Huyện Nhà Bè, Việt Nam",,Clear
huyen nha be ho chi minh,2/3/2024 8:00,29.0,29.0,29.0,22.0,65.97,31.9,1.8,,,,0.0,,,9.0,,1013.0,,10.7015,106.738,"Huyện Nhà Bè, Việt Nam","Huyện Nhà Bè, Việt Nam",,Clear
huyen nha be ho chi minh,2/3/2024 9:00,31.0,31.0,31.0,21.0,55.31,33.6,7.6,,130.0,,0.0,,,10.0,,1014.0,,10.7015,106.738,"Huyện Nhà Bè, Việt Nam","Huyện Nhà Bè, Việt Nam",,Clear
huyen nha be ho chi minh,2/3/2024 10:00,31.0,31.0,31.0,19.0,48.87,32.3,5.4,,,,0.0,,,10.0,,1014.0,,10.7015,106.738,"Huyện Nhà Bè, Việt Nam","Huyện Nhà Bè, Việt Nam",,Clear
huyen nha be ho chi minh,2/3/2024 11:00,33.0,33.0,33.0,19.0,43.63,34.5,9.4,,,,0.0,,,10.0,,1013.0,,10.7015,106.738,"Huyện Nhà Bè, Việt Nam","Huyện Nhà Bè, Việt Nam",,Clear
huyen nha be ho chi minh,2/3/2024 12:00,34.0,34.0,34.0,19.0,41.25,35.7,3.6,,110.0,,0.0,,,10.0,25.0,1012.0,,10.7015,106.738,"Huyện Nhà Bè, Việt Nam","Huyện Nhà Bè, Việt Nam",,Clear
huyen nha be ho chi minh,2/3/2024 13:00,34.0,34.0,34.0,20.0,43.9,36.4,9.4,,230.0,,0.0,,,10.0,50.0,1011.0,,10.7015,106.738,"Huyện Nhà Bè, Việt Nam","Huyện Nhà Bè, Việt Nam",,Partially cloudy
huyen nha be ho chi minh,2/3/2024 14:00,35.0,35.0,35.0,20.0,41.52,37.6,5.4,,,,0.0,,,10.0,50.0,1010.0,,10.7015,106.738,"Huyện Nhà Bè, Việt Nam","Huyện Nhà Bè, Việt Nam",,Partially cloudy
huyen nha be ho chi minh,2/3/2024 15:00,36.0,36.0,36.0,20.0,39.29,38.8,7.6,,180.0,,0.0,,,10.0,50.0,1009.0,,10.7015,106.738,"Huyện Nhà Bè, Việt Nam","Huyện Nhà Bè, Việt Nam",,Partially cloudy
huyen nha be ho chi minh,2/3/2024 16:00,34.0,34.0,34.0,22.0,49.64,38.2,20.5,,190.0,,0.0,,,10.0,88.0,1009.0,,10.7015,106.738,"Huyện Nhà Bè, Việt Nam","Huyện Nhà Bè, Việt Nam",,Overcast
huyen nha be ho chi minh,2/3/2024 17:00,32.0,32.0,32.0,22.0,55.55,35.7,16.6,,180.0,,0.0,,,10.0,50.0,1009.0,,10.7015,106.738,"Huyện Nhà Bè, Việt Nam","Huyện Nhà Bè, Việt Nam",,Partially cloudy
huyen nha be ho chi minh,2/3/2024 18:00,31.0,31.0,31.0,22.0,58.8,34.4,16.6,,180.0,,0.0,,,10.0,25.0,1010.0,,10.7015,106.738,"Huyện Nhà Bè, Việt Nam","Huyện Nhà Bè, Việt Nam",,Clear
huyen nha be ho chi minh,2/3/2024 19:00,30.0,30.0,30.0,21.0,58.57,32.5,16.6,,140.0,,0.0,,,10.0,25.0,1010.0,,10.7015,106.738,"Huyện Nhà Bè, Việt Nam","Huyện Nhà Bè, Việt Nam",,Clear
huyen nha be ho chi minh,2/3/2024 20:00,29.0,29.0,29.0,21.0,62.05,31.3,16.6,,140.0,,0.0,,,10.0,,1011.0,,10.7015,106.738,"Huyện Nhà Bè, Việt Nam","Huyện Nhà Bè, Việt Nam",,Clear
huyen nha be ho chi minh,2/3/2024 21:00,28.0,28.0,28.0,21.0,65.76,30.0,18.4,,130.0,,0.0,,,10.0,,1011.0,,10.7015,106.738,"Huyện Nhà Bè, Việt Nam","Huyện Nhà Bè, Việt Nam",,Clear
huyen nha be ho chi minh,2/3/2024 22:00,28.0,28.0,28.0,21.0,65.76,30.0,14.8,,110.0,,0.0,,,10.0,,1012.0,,10.7015,106.738,"Huyện Nhà Bè, Việt Nam","Huyện Nhà Bè, Việt Nam",,Clear
huyen nha be ho chi minh,2/3/2024 23:00,28.0,28.0,28.0,21.0,65.76,30.0,7.6,,110.0,,0.0,,,10.0,,1012.0,,10.7015,106.738,"Huyện Nhà Bè, Việt Nam","Huyện Nhà Bè, Việt Nam",,Clear
huyen nha be ho chi minh,3/3/2024 0:00,28.0,28.0,28.0,21.0,65.76,30.0,7.6,,130.0,,0.0,,,10.0,25.0,1012.0,,10.7015,106.738,"Huyện Nhà Bè, Việt Nam","Huyện Nhà Bè, Việt Nam",,Clear
huyen nha be ho chi minh,3/3/2024 1:00,28.0,28.0,28.0,21.0,65.76,30.0,9.4,,110.0,,0.0,,,10.0,25.0,1011.0,,10.7015,106.738,"Huyện Nhà Bè, Việt Nam","Huyện Nhà Bè, Việt Nam",,Clear
huyen nha be ho chi minh,3/3/2024 2:00,27.0,27.0,27.0,21.0,69.73,28.7,7.6,,140.0,,0.0,,,10.0,25.0,1011.0,,10.7015,106.738,"Huyện Nhà Bè, Việt Nam","Huyện Nhà Bè, Việt Nam",,Clear
huyen nha be ho chi minh,3/3/2024 3:00,27.0,27.0,27.0,21.0,69.73,28.7,5.4,,,,0.0,,,10.0,25.0,1011.0,,10.7015,106.738,"Huyện Nhà Bè, Việt Nam","Huyện Nhà Bè, Việt Nam",,Clear
huyen nha be ho chi minh,3/3/2024 4:00,26.0,26.0,26.0,21.0,73.96,,11.2,,100.0,,0.0,,,10.0,25.0,1011.0,,10.7015,106.738,"Huyện Nhà Bè, Việt Nam","Huyện Nhà Bè, Việt Nam",,Clear
huyen nha be ho chi minh,3/3/2024 5:00,26.0,26.0,26.0,21.0,73.96,,7.6,,110.0,,0.0,,,10.0,25.0,1011.0,,10.7015,106.738,"Huyện Nhà Bè, Việt Nam","Huyện Nhà Bè, Việt Nam",,Clear
huyen nha be ho chi minh,3/3/2024 6:00,25.0,25.0,25.0,22.0,83.45,,9.4,,80.0,,0.0,,,10.0,25.0,1012.0,,10.7015,106.738,"Huyện Nhà Bè, Việt Nam","Huyện Nhà Bè, Việt Nam",,Clear
huyen nha be ho chi minh,3/3/2024 7:00,27.0,27.0,27.0,22.0,74.13,29.1,3.6,,,,0.0,,,10.0,25.0,1013.0,,10.7015,106.738,"Huyện Nhà Bè, Việt Nam","Huyện Nhà Bè, Việt Nam",,Clear
huyen nha be ho chi minh,3/3/2024 8:00,29.0,29.0,29.0,21.0,62.05,31.3,5.4,,,,0.0,,,10.0,,1013.0,,10.7015,106.738,"Huyện Nhà Bè, Việt Nam","Huyện Nhà Bè, Việt Nam",,Clear
huyen nha be ho chi minh,3/3/2024 9:00,30.0,30.0,30.0,20.0,55.07,31.8,7.6,,120.0,,0.0,,,10.0,,1013.0,,10.7015,106.738,"Huyện Nhà Bè, Việt Nam","Huyện Nhà Bè, Việt Nam",,Clear
huyen nha be ho chi minh,3/3/2024 10:00,31.0,31.0,31.0,20.0,52.0,32.9,3.6,,,,0.0,,,10.0,25.0,1013.0,,10.7015,106.738,"Huyện Nhà Bè, Việt Nam","Huyện Nhà Bè, Việt Nam",,Clear
huyen nha be ho chi minh,3/3/2024 11:00,32.0,32.0,32.0,20.0,49.13,34.1,3.6,,,,0.0,,,10.0,25.0,1012.0,,10.7015,106.738,"Huyện Nhà Bè, Việt Nam","Huyện Nhà Bè, Việt Nam",,Clear
huyen nha be ho chi minh,3/3/2024 12:00,34.0,34.0,34.0,20.0,43.9,36.4,3.6,,,,0.0,,,10.0,50.0,1011.0,,10.7015,106.738,"Huyện Nhà Bè, Việt Nam","Huyện Nhà Bè, Việt Nam",,Partially cloudy
huyen nha be ho chi minh,3/3/2024 13:00,34.0,34.0,34.0,20.0,43.9,36.4,7.6,,40.0,,0.0,,,9.0,50.0,1010.0,,10.7015,106.738,"Huyện Nhà Bè, Việt Nam","Huyện Nhà Bè, Việt Nam",,Partially cloudy
huyen nha be ho chi minh,3/3/2024 14:00,34.0,34.0,34.0,20.0,43.9,36.4,7.6,,200.0,,0.0,,,9.0,50.0,1009.0,,10.7015,106.738,"Huyện Nhà Bè, Việt Nam","Huyện Nhà Bè, Việt Nam",,Partially cloudy
huyen nha be ho chi minh,3/3/2024 15:00,34.0,34.0,34.0,20.0,43.9,36.4,3.6,,,,0.0,,,10.0,50.0,1008.0,,10.7015,106.738,"Huyện Nhà Bè, Việt Nam","Huyện Nhà Bè, Việt Nam",,Partially cloudy
